{"type":"FeatureCollection","features":[{"type":"Feature","properties":{"id":"1284","name":"Fazenda Canto","people":"Xucuru - Kariri","state":"AL","municipality":"Palmeira dos Índios","phase":"Regularizada"},"geometry":{"type":"Polygon","coordinates":[[[-36.5746566019067,-9.3844769030132],[-36.5754942265147,-9.38502732526161],[-36.5749318950513,-9.39364328775504],[-36.5804938468822,-9.39503155395785],[-36.5802113592531,-9.3969753939802],[-36.5829928067254,-9.39642251045707],[-36.5846588328538,-9.39947158588974],[-36.586877885737,-9.39974952390766],[-36.5877102090173,-9.4025254840384],[-36.5857658864443,-9.40363747814269],[-36.5863244443828,-9.40641783762504],[-36.5891032788714,-9.40503348944623],[-36.5929909901705,-9.40530363635389],[-36.5952148012648,-9.39752737758853],[-36.5949399777275,-9.39613737027441],[-36.5873732975171,-9.39225572544205],[-36.5904002431253,-9.38781707995983],[-36.5874342512215,-9.38753006336168],[-36.5874330751881,-9.38808426809345],[-36.5854952394547,-9.38836531084643],[-36.5849364296185,-9.38753356698965],[-36.5854868901586,-9.38392222076027],[-36.5793785119737,-9.38447436065588],[-36.5802168865109,-9.38253074098044],[-36.5796580722516,-9.38169902813427],[-36.5760150665576,-9.38447167502796],[-36.5746566019067,-9.3844769030132]]]}},{"type":"Feature","properties":{"id":"1373","name":"Kariri-Xocó","people":"Kariri - Xocó","state":"AL","municipality":"São Brás,Porto Real do Colégio","phase":"Regularizada"},"geometry":{"type":"Polygon","coordinates":[[[-36.8395472374932,-10.1769055942415],[-36.841774924638,-10.1699656341077],[-36.8342758560406,-10.1677413496683],[-36.8395533493349,-10.1513527154037],[-36.8362212405124,-10.1507952685313],[-36.8256951152794,-10.1414638273317],[-36.8242638925225,-10.1379054588352],[-36.8259390344168,-10.1338523227702],[-36.819829305469,-10.1307968207337],[-36.8156591931142,-10.1413507379864],[-36.818922546548,-10.1431097863386],[-36.8204836873744,-10.1480147631603],[-36.8228856569413,-10.1521903387702],[-36.8197480295355,-10.1568403904963],[-36.8212185664314,-10.1602419860153],[-36.8178842612839,-10.170516699548],[-36.8395472374932,-10.1769055942415]]]}},{"type":"Feature","properties":{"id":"1433","name":"Mata da Cafurna","people":"Xucuru - Kariri","state":"AL","municipality":"Palmeira dos Índios","phase":"Regularizada"},"geometry":{"type":"Polygon","coordinates":[[[-36.6356741409746,-9.3844911761421],[-36.6389940535725,-9.38320923088925],[-36.6391710330104,-9.37228554613792],[-36.637789282981,-9.37185687662548],[-36.6367231534124,-9.37380783414479],[-36.6299058978359,-9.37574853608471],[-36.628855872814,-9.3779166869369],[-36.6282594192139,-9.3817259249983],[-36.6356741409746,-9.3844911761421]]]}},{"type":"Feature","properties":{"id":"1610","name":"Tingui Botó","people":"Tingui-Botó","state":"AL","municipality":"Feira Grande,Campo Grande","phase":"Regularizada"},"geometry":{"type":"Polygon","coordinates":[[[-36.7049314432723,-9.89642168312356],[-36.7043836837473,-9.8964206838557],[-36.7046571398637,-9.89947635761831],[-36.7068811130648,-9.90225554716943],[-36.7046546508626,-9.90392252625685],[-36.7060457758474,-9.90809078480851],[-36.7074932282333,-9.90850890309872],[-36.7116033856748,-9.91254275529025],[-36.7124398498732,-9.92308919410459],[-36.7114037102636,-9.9255342768322],[-36.716172241996,-9.93697739460499],[-36.7183773591106,-9.93655770446533],[-36.7185494054002,-9.93725964828251],[-36.7283262246623,-9.92819051556757],[-36.7280420439612,-9.92753502675288],[-36.7218799511466,-9.92919833695584],[-36.7191053240707,-9.93086417875572],[-36.7177151275833,-9.92752767873964],[-36.7188257012412,-9.92725316784573],[-36.7160474981847,-9.92391748458072],[-36.7168811206708,-9.92336058073112],[-36.7179923697235,-9.92391820135084],[-36.7207647494234,-9.92753098865347],[-36.7229947694517,-9.92614156628593],[-36.7229901003331,-9.92419968392978],[-36.7254941985005,-9.92280639308133],[-36.7271605299218,-9.92475232382072],[-36.7280520591414,-9.92481367461717],[-36.7296599695755,-9.9241215672696],[-36.7285437767056,-9.92280956450675],[-36.7293766407383,-9.92142039562425],[-36.7304893694214,-9.92364240271866],[-36.7319162472666,-9.92173641976672],[-36.7135504082371,-9.90336447904138],[-36.716321286525,-9.90142083080862],[-36.7107687341743,-9.89975166147058],[-36.7063243053253,-9.89531158854987],[-36.7057683557164,-9.89309137458208],[-36.7041010763854,-9.89336457123875],[-36.7049314432723,-9.89642168312356]]]}},{"type":"Feature","properties":{"id":"222","name":"Kariri-Xocó","people":"Kariri - Xocó","state":"AL","municipality":"São Brás,Porto Real do Colégio","phase":"Declarada"},"geometry":{"type":"Polygon","coordinates":[[[-36.862627169119,-10.14357848158],[-36.874493709119,-10.13646872158],[-36.880003549119,-10.13558284158],[-36.880335589119,-10.13437750158],[-36.876881339119,-10.12803924158],[-36.879076309119,-10.12736096158],[-36.877080159119,-10.12672847158],[-36.874062399119,-10.12279161158],[-36.872092719119,-10.12303521158],[-36.870947349119,-10.12086530158],[-36.870006759119,-10.12125637158],[-36.870171309119,-10.12199047158],[-36.868752069119,-10.12174826158],[-36.868258379119,-10.12288357158],[-36.867553719119,-10.12248012158],[-36.867282099119,-10.12143937158],[-36.868495789119,-10.11912892158],[-36.870212969119,-10.11758196158],[-36.870697309119,-10.11801588158],[-36.871403509119,-10.11657806158],[-36.870522679119,-10.11600121158],[-36.872231129119,-10.11469497158],[-36.871296319119,-10.11255002158],[-36.869109529119,-10.11337248158],[-36.867758309119,-10.11153657158],[-36.866319519119,-10.11191537158],[-36.865371289119,-10.11132659158],[-36.863604759119,-10.11249006158],[-36.861968939119,-10.11078597158],[-36.860064279119,-10.11206322158],[-36.857848149119,-10.11164243158],[-36.854870599119,-10.10989442158],[-36.854373329119,-10.10833601158],[-36.851466789119,-10.10545030158],[-36.850372179119,-10.10836550158],[-36.847424129119,-10.10911813158],[-36.847135489119,-10.10601323158],[-36.844700159119,-10.10550904158],[-36.821510599119,-10.10867068158],[-36.793442499119,-10.14125263158],[-36.792581549119,-10.15023875158],[-36.799668379119,-10.15105968158],[-36.799521989119,-10.14950874158],[-36.802498469119,-10.14573145158],[-36.805230309119,-10.14443449158],[-36.808386659119,-10.15088704158],[-36.807938089119,-10.15197541158],[-36.805818359119,-10.14931646158],[-36.804326839119,-10.14977376158],[-36.803702119119,-10.14910752158],[-36.799902099119,-10.15048570158],[-36.799220019119,-10.15419484158],[-36.799978179119,-10.15558368158],[-36.798049199119,-10.15702742158],[-36.803955579119,-10.15704427158],[-36.804527639119,-10.15508192158],[-36.810632039119,-10.15880123158],[-36.810399299119,-10.16417719158],[-36.811696729119,-10.16460903158],[-36.810010569119,-10.16559911158],[-36.808979059119,-10.17090979158],[-36.809480219119,-10.17256353158],[-36.812701419119,-10.17551972158],[-36.810417599119,-10.17672732158],[-36.814829649119,-10.18115423158],[-36.818850739119,-10.18215070158],[-36.820055349119,-10.18358110158],[-36.819885409119,-10.18579110158],[-36.822150719119,-10.18660663158],[-36.825102599119,-10.18935651158],[-36.82548980913,-10.190875758176],[-36.828446699119,-10.18583751158],[-36.828293479119,-10.18181279158],[-36.826108959119,-10.17976554158],[-36.825877779119,-10.17764903158],[-36.827359939119,-10.17639712158],[-36.831787849119,-10.18162294158],[-36.832493909119,-10.18174485158],[-36.832832379119,-10.18074627158],[-36.835591679119,-10.18166449158],[-36.836559739119,-10.18087073158],[-36.839804829119,-10.18094406158],[-36.843315829119,-10.16821106158],[-36.841388389119,-10.16772086158],[-36.839271469119,-10.16491131158],[-36.840509779119,-10.16440265158],[-36.843568409119,-10.16745548158],[-36.845452489119,-10.15964372158],[-36.848352589119,-10.15526175158],[-36.854594029119,-10.14915934158],[-36.853608529119,-10.14871813158],[-36.853937639119,-10.14657409158],[-36.856522219119,-10.14496115158],[-36.857189549119,-10.14482143158],[-36.857294189119,-10.14567102158],[-36.862627169119,-10.14357848158]]]}},{"type":"Feature","properties":{"id":"1351","name":"Geripancó","people":"Jeripancó","state":"AL","municipality":"Pariconha","phase":"Regularizada"},"geometry":{"type":"Polygon","coordinates":[[[-38.0188725974391,-9.23049944703958],[-38.0324037869633,-9.22824557527702],[-38.0302430266417,-9.21485796750727],[-38.0166690359257,-9.21706711975914],[-38.0188725974391,-9.23049944703958]]]}},{"type":"Feature","properties":{"id":"1370","name":"Karapotó","people":"Karapotó","state":"AL","municipality":"São Sebastião","phase":"Regularizada"},"geometry":{"type":"MultiPolygon","coordinates":[[[[-36.6019410677823,-9.95565565365217],[-36.6005503247771,-9.95536974824086],[-36.5996929426527,-9.95769203417336],[-36.6018249825384,-9.95828347772387],[-36.6019410677823,-9.95565565365217]]],[[[-36.64001100828,-10.0008586320785],[-36.6487159268313,-9.99884119733042],[-36.6426790055508,-9.99382592870763],[-36.6387192172778,-9.99358489677946],[-36.64001100828,-10.0008586320785]]],[[[-36.6011317690736,-9.97380802285535],[-36.6031514569319,-9.97228017197745],[-36.6055372382742,-9.96772970046112],[-36.60241143169,-9.9635972903344],[-36.6021234555225,-9.95867087765424],[-36.5996613739101,-9.95776842801372],[-36.6006322326812,-9.96139471990518],[-36.5956756734192,-9.96268947178181],[-36.5988605654482,-9.97125159606543],[-36.6011317690736,-9.97380802285535]]],[[[-36.6031693896737,-9.99464119373228],[-36.5997842825573,-9.99641238780823],[-36.6040407504319,-9.99873928277373],[-36.6119644659617,-10.0091424847423],[-36.6187884768445,-10.0157829874428],[-36.6210136276647,-10.0193428129694],[-36.6214661755048,-10.0217481616812],[-36.6183050390165,-10.0227593908941],[-36.6176479243818,-10.0247451919956],[-36.6183111059255,-10.0302975181449],[-36.616764426013,-10.0301852712656],[-36.6160118048756,-10.0312478524385],[-36.6196405095724,-10.0320364022648],[-36.6219966647186,-10.0272245969569],[-36.6255065694542,-10.025685002943],[-36.6285972381698,-10.0296176682026],[-36.6298687428951,-10.0297507284657],[-36.6347148799664,-10.0333209494599],[-36.6389637499685,-10.0336292609217],[-36.6427626564739,-10.0376410258473],[-36.6448537640811,-10.0356575182984],[-36.6443690496795,-10.0340041517423],[-36.6466648001515,-10.030453742834],[-36.6478866692389,-10.0301596624351],[-36.6487240951218,-10.0203836819497],[-36.6453653154697,-10.0133354029444],[-36.6418509885378,-10.0081252245906],[-36.6400656585999,-10.0100375769994],[-36.6382641240919,-10.0100774540993],[-36.6363889613328,-10.0117946193776],[-36.6368547981413,-10.0122944916865],[-36.6335721594588,-10.0148596483565],[-36.6330793689096,-10.0141851296478],[-36.6352189651499,-10.0128105223221],[-36.6353631117048,-10.0111800851549],[-36.6340792840042,-10.0097728206345],[-36.6312616028006,-10.0093545926627],[-36.6312346979174,-10.0106789354662],[-36.62540726303,-10.0183412443742],[-36.6239864609018,-10.0162686097591],[-36.6300582973683,-10.0093117200341],[-36.623334238378,-10.0070084532436],[-36.6238913699315,-10.0050088819973],[-36.6165241517852,-9.99727586696156],[-36.6159785914496,-9.99723125546155],[-36.615456049343,-9.99926713753302],[-36.61412304789,-9.9980914799374],[-36.612467426991,-9.99830323211227],[-36.613348432338,-9.99272447765454],[-36.6074655056035,-9.99324468934704],[-36.6072127365399,-9.99235702727686],[-36.6104949238232,-9.98962748426407],[-36.6093436008965,-9.98780254791252],[-36.6098748985123,-9.98543793606769],[-36.6087609527945,-9.98426466680048],[-36.6076421773792,-9.98368028680023],[-36.6047688871271,-9.98428176058526],[-36.5995508706011,-9.98800602271105],[-36.6008700428466,-9.99210042153522],[-36.6026626881242,-9.99322103794271],[-36.6031693896737,-9.99464119373228]]]]}},{"type":"Feature","properties":{"id":"210","name":"Xukuru-Kariri","people":"Xucuru - Kariri","state":"AL","municipality":"Palmeira dos Índios","phase":"Declarada"},"geometry":{"type":"Polygon","coordinates":[[[-36.61555222,-9.34972167],[-36.61491583,-9.35280778000001],[-36.61071028,-9.3517525],[-36.60970944,-9.35073583000001],[-36.60897667,-9.35131583000001],[-36.60983917,-9.35374778000002],[-36.60955417,-9.35544556000001],[-36.60764528,-9.35904472000001],[-36.60506278,-9.36068110999999],[-36.60189861,-9.36141332999999],[-36.60124861,-9.36271889000001],[-36.59448167,-9.36332083000001],[-36.59417167,-9.36417417000001],[-36.59531361,-9.36651472000001],[-36.59320694,-9.37015694000001],[-36.5947775,-9.37382389],[-36.59265944,-9.37677056000002],[-36.58871806,-9.37585916999999],[-36.58459361,-9.37795944],[-36.58277861,-9.37764306000001],[-36.57815778,-9.37970417000001],[-36.57366111,-9.38434306000001],[-36.57522694,-9.38505639000002],[-36.5753425,-9.3940525],[-36.56772611,-9.41390943999999],[-36.58107167,-9.42195222],[-36.57944611,-9.42282389000001],[-36.58937639,-9.44006861000001],[-36.6002825,-9.44875472],[-36.61013667,-9.43668138999999],[-36.59610194,-9.43235611000001],[-36.60209389,-9.42588639000001],[-36.60546861,-9.42342194],[-36.61044972,-9.42152528],[-36.61263583,-9.41918611],[-36.61158667,-9.40279278000001],[-36.613405,-9.40315778000002],[-36.61651472,-9.39998556000001],[-36.61518417,-9.39666083],[-36.61613417,-9.39552361],[-36.62937806,-9.39627722],[-36.63457222,-9.40170306000001],[-36.635855,-9.40488333000001],[-36.63920417,-9.40699639000001],[-36.64369417,-9.40806806000002],[-36.65329694,-9.39638528000001],[-36.65788694,-9.39584361000001],[-36.66817667,-9.39853],[-36.66907139,-9.40130917],[-36.67052889,-9.40203917000002],[-36.67302917,-9.40520889000001],[-36.67467583,-9.40941667],[-36.67619583,-9.41010972],[-36.67864194,-9.40956944000001],[-36.68090583,-9.4111225],[-36.68823472,-9.40693389],[-36.68916167,-9.40544917000001],[-36.69104444,-9.39590083],[-36.68586806,-9.39644333],[-36.68306833,-9.37865667000001],[-36.67895917,-9.37191222000001],[-36.65607611,-9.35411],[-36.61719917,-9.34684889],[-36.61555222,-9.34972167]]]}},{"type":"Feature","properties":{"id":"57","name":"Aconã","people":"Tingui-Botó","state":"AL","municipality":"Traipu","phase":"Regularizada"},"geometry":{"type":"Polygon","coordinates":[[[-36.9379343633386,-10.0620496993777],[-36.9368975654688,-10.0628194159599],[-36.935708860229,-10.0603663093674],[-36.9322599847718,-10.057273224762],[-36.914521705093,-10.0341119420321],[-36.9139334408546,-10.0348305426524],[-36.9125968418416,-10.0343337595736],[-36.9122058976823,-10.0375180575948],[-36.9100024317347,-10.0387445825897],[-36.9135073152739,-10.0419270282351],[-36.9161657307515,-10.0468776547893],[-36.9186074125961,-10.0479823795078],[-36.9308075454504,-10.0619288132743],[-36.9310283519894,-10.0609267748683],[-36.9401546176545,-10.0698268110062],[-36.9398480969003,-10.0706265735376],[-36.9418352668854,-10.0731293950094],[-36.9451363380272,-10.0711265442355],[-36.9379343633386,-10.0620496993777]]]}},{"type":"Feature","properties":{"id":"276","name":"Wassu-Cocal","people":"Wassú","state":"AL","municipality":"Colônia Leopoldina,Novo Lino,Joaquim Gomes,Matriz de Camaragibe","phase":"Delimitada"},"geometry":{"type":"Polygon","coordinates":[[[-35.70203955,-8.99793852000002],[-35.6767054,-8.99718192],[-35.67652825,-8.99934283000002],[-35.67486052,-9.00150597999999],[-35.67814249,-9.01150664000001],[-35.67200198,-9.01309577000002],[-35.67077009,-9.01453585000001],[-35.66547791,-9.01267053000001],[-35.65860311,-9.01404261],[-35.65818239,-9.01597361],[-35.65570503,-9.01829118000002],[-35.65442875,-9.02344740000002],[-35.65438268,-9.02731960999999],[-35.65165687,-9.03175653999999],[-35.6543812,-9.03267536],[-35.65200076,-9.03571233000001],[-35.64972884,-9.037077],[-35.65304492,-9.03758861000001],[-35.667029,-9.05492765000001],[-35.67256114,-9.06598946],[-35.6644312,-9.09646202000001],[-35.67712846,-9.09722974999999],[-35.68010436,-9.09860981],[-35.68306075,-9.09740166],[-35.69236349,-9.09976887],[-35.69703421,-9.10256916000001],[-35.70043424,-9.10325067],[-35.70142493,-9.10440695000002],[-35.70407488,-9.10335213],[-35.70639593,-9.10449695],[-35.70900334,-9.10386308],[-35.71113704,-9.10553716000001],[-35.71645567,-9.10543606000002],[-35.72088686,-9.10382375000001],[-35.72203337,-9.10188523000001],[-35.72472302,-9.10007306],[-35.73552276,-9.09782714000002],[-35.73789286,-9.09479936],[-35.73896019,-9.09132630000001],[-35.74441928,-9.09133752000002],[-35.74767359,-9.09207147000002],[-35.74941605,-9.09336244999999],[-35.75032321,-9.09307851000002],[-35.74865853,-9.09149129000002],[-35.748927,-9.08920693],[-35.75117513,-9.08953023],[-35.75154816,-9.08858389000002],[-35.75297155,-9.08952533000001],[-35.75464863,-9.08592183],[-35.75643534,-9.08498746],[-35.7586908,-9.08502322000002],[-35.75703671,-9.08279145],[-35.75879081,-9.08004600000001],[-35.76051029,-9.07977098000001],[-35.76181441,-9.07442901999999],[-35.76163665,-9.07018971000001],[-35.77043087,-9.07199031000001],[-35.77149159,-9.07327476000001],[-35.77142175,-9.07491571],[-35.77685791,-9.08013945],[-35.77736708,-9.03790258999999],[-35.77035426,-9.02826692000002],[-35.75759325,-9.02247847000001],[-35.75400325,-9.02329948999999],[-35.75287429,-9.02258052],[-35.75118115,-9.02405156999999],[-35.74908554,-9.02198094000001],[-35.74326494,-9.01896011],[-35.74266793,-9.01848295],[-35.74229328,-9.01030022],[-35.74130671,-9.00933331000001],[-35.73937329,-9.00896369999999],[-35.73848321,-9.00757580000001],[-35.73491963,-9.00555270999999],[-35.73104321,-9.00665149999999],[-35.71950965,-8.99923670000002],[-35.7148525,-9.00069409000001],[-35.70985126,-8.99720044],[-35.70759573,-8.99339410000001],[-35.70203955,-8.99793852000002]]]}}]}