{"type":"FeatureCollection","features":[{"type":"Feature","properties":{"id":"1228","name":"Brejo do Burgo","people":"Pankararé","state":"BA","municipality":"Glória,Paulo Afonso,Rodelas","phase":"Regularizada"},"geometry":{"type":"Polygon","coordinates":[[[-38.4483244783474,-9.39867693891796],[-38.4513207419664,-9.39613142713756],[-38.4622707607636,-9.36765667589737],[-38.4875413219272,-9.36562453265437],[-38.5067673244768,-9.36304680271189],[-38.5073747133252,-9.36311612267151],[-38.5118212639257,-9.37416397855812],[-38.6432275486314,-9.41110500852047],[-38.644784658807,-9.39135189939196],[-38.619998639814,-9.35878117100543],[-38.6032600899836,-9.3342703941213],[-38.580774327792,-9.27331483524603],[-38.4634926424611,-9.2941148068553],[-38.4670938533027,-9.33451804893139],[-38.4483244783474,-9.39867693891796]]]}},{"type":"Feature","properties":{"id":"1704","name":"Tumbalalá","people":"Tumbalalá","state":"BA","municipality":"Abaré,Curaçá","phase":"Delimitada"},"geometry":{"type":"Polygon","coordinates":[[[-39.3633921492532,-8.53785282588444],[-39.3615048203132,-8.54033479204266],[-39.3583644179766,-8.54231496720257],[-39.3573844560874,-8.54693398688853],[-39.3546331701251,-8.55012048563248],[-39.3506247324553,-8.55174424029816],[-39.3498249816944,-8.5543008895097],[-39.3477707029596,-8.55499690905691],[-39.3461332367095,-8.55782079737485],[-39.342870506567,-8.5596645253935],[-39.3377946554227,-8.56045102550822],[-39.3324755398349,-8.55816057997488],[-39.3179529990433,-8.56178117869855],[-39.3156441491378,-8.56108266528817],[-39.3143730468399,-8.55965104619264],[-39.310074573529,-8.55938766175239],[-39.306278914095,-8.55974750276836],[-39.301163518874,-8.56153985394513],[-39.2931000076212,-8.5615494622902],[-39.2849640112763,-8.56456218750021],[-39.2796297933567,-8.57283970722825],[-39.276420764225,-8.57561309172223],[-39.2752501791054,-8.57763798884622],[-39.2734336973601,-8.58382785337511],[-39.2727974038742,-8.59374192827471],[-39.2718403116336,-8.597492226111],[-39.2682815915013,-8.60381003863712],[-39.2665707481663,-8.60937251291996],[-39.2641236349491,-8.61377711968312],[-39.2705277841441,-8.62035084302284],[-39.2731698296287,-8.62021783746116],[-39.2771748633803,-8.62210573906562],[-39.2803648703624,-8.61920891377986],[-39.284832769943,-8.61904604937258],[-39.290023429904,-8.62229766494045],[-39.2966507349473,-8.62465398170139],[-39.2983192814998,-8.6276871430195],[-39.2987981059964,-8.63106754879283],[-39.2981481812982,-8.63485591257871],[-39.2997926136692,-8.63804792639854],[-39.3014620870469,-8.63957162260624],[-39.30569504967,-8.64081239352664],[-39.3183804179331,-8.65076438760038],[-39.3214966510031,-8.65748448591415],[-39.3239311502556,-8.65911505871311],[-39.3254822382353,-8.66148789565034],[-39.3261741161255,-8.66418236759946],[-39.325519436639,-8.66991690877304],[-39.3242636506766,-8.67115698679125],[-39.3230566669579,-8.67561034877422],[-39.3213418563201,-8.67721720851853],[-39.3204230642526,-8.67959335601728],[-39.3214373920735,-8.68318460971438],[-39.3182351282553,-8.70286859359141],[-39.3147035734647,-8.70715351279881],[-39.3075589307118,-8.71095302970162],[-39.304548884301,-8.71359037586628],[-39.2957739137107,-8.72858186101156],[-39.3107676268742,-8.73798860617475],[-39.3103104914682,-8.74054837126848],[-39.3073771785858,-8.74611787549236],[-39.3165057811736,-8.74764386806873],[-39.3194134048059,-8.7473941837098],[-39.319953005838,-8.75049989744851],[-39.3249281178825,-8.75800388215198],[-39.324808828597,-8.76082383173605],[-39.3314119770871,-8.76460522451273],[-39.3312103233726,-8.76952000858807],[-39.3294071867867,-8.77263821689058],[-39.3302619563602,-8.77740398481859],[-39.3333379579757,-8.77483712448675],[-39.3369520481144,-8.77388652289312],[-39.3392086864685,-8.77427398978823],[-39.3413795804824,-8.77910277850834],[-39.3431637183291,-8.7800288270691],[-39.3465445162227,-8.78534171479981],[-39.354078567763,-8.78683940788762],[-39.3549758342398,-8.79077443124692],[-39.3539341309338,-8.79470836238761],[-39.3552777343348,-8.79911431543354],[-39.3565177757739,-8.79949420828098],[-39.3574628412555,-8.80172153975105],[-39.3597205594932,-8.8036040286616],[-39.3662679794377,-8.80218872265739],[-39.3679046434571,-8.8031119882869],[-39.3682025852228,-8.80435331815357],[-39.3670334870646,-8.8063784709089],[-39.368101838868,-8.80894816926656],[-39.3664883504961,-8.80948498069383],[-39.3657708416185,-8.81076696590395],[-39.369931183451,-8.8152666675835],[-39.3781824577826,-8.81837195765638],[-39.3784158264251,-8.81958194435175],[-39.3794522250453,-8.82005066946648],[-39.3850260134107,-8.8157992604986],[-39.4012761154453,-8.81249251552333],[-39.4045633138558,-8.81451018823793],[-39.418362803902,-8.82790982602182],[-39.4239234015148,-8.82717215297811],[-39.426045604515,-8.82801500013937],[-39.4299074639215,-8.82608197861801],[-39.4335962294473,-8.82029242058455],[-39.4364094808712,-8.81970587963851],[-39.4379232138515,-8.81842577632198],[-39.4383496433053,-8.81676144503694],[-39.4452041019235,-8.81237812193434],[-39.4496404066982,-8.80491010874399],[-39.4535622089804,-8.80377876604143],[-39.4570973847524,-8.80128375119517],[-39.4606267112075,-8.80138847811566],[-39.4637481138549,-8.79896916432553],[-39.4647690452722,-8.79731724593325],[-39.462481384559,-8.78738207885966],[-39.4757620927364,-8.76492433630819],[-39.4678127740152,-8.75436356739142],[-39.4621639591444,-8.74953087307513],[-39.4612698410169,-8.74653817330596],[-39.4597771046197,-8.74501117257989],[-39.4575350241659,-8.74472147523007],[-39.4510258989686,-8.74825059439355],[-39.4431470368193,-8.74469727285881],[-39.4405976738273,-8.7422928873741],[-39.4414725935755,-8.74033430880552],[-39.4407932096115,-8.73961590108413],[-39.4303984529646,-8.73964145488327],[-39.4331148301252,-8.70341943661431],[-39.4323380428651,-8.70052300259191],[-39.4268741336334,-8.70142656819258],[-39.4237584298153,-8.70045509936557],[-39.4208653170092,-8.69836086979974],[-39.4198484154074,-8.6957888866658],[-39.4144311974517,-8.69158045948964],[-39.4135625932684,-8.68525228983281],[-39.4118371535861,-8.68127748155282],[-39.4121911346144,-8.67460890804097],[-39.4140938707277,-8.67201371510249],[-39.4147208818455,-8.66823741439157],[-39.414379732562,-8.66719575158783],[-39.4108503503074,-8.66458359890721],[-39.41026385883,-8.65821049158967],[-39.4071985917185,-8.65382182663296],[-39.4066880292271,-8.64972196623228],[-39.4235587029762,-8.64336505681042],[-39.4363321782516,-8.65057980179444],[-39.4507794959626,-8.64642061739456],[-39.4582775887965,-8.64974882035751],[-39.4829865578993,-8.5952953566861],[-39.4803394904259,-8.59369877083158],[-39.4741930663127,-8.59255314896702],[-39.4711065556277,-8.58893207030237],[-39.4665909584651,-8.58629373914648],[-39.4601817504028,-8.58092011373191],[-39.4574670705894,-8.56913045346046],[-39.4539109338376,-8.56449291194896],[-39.4458524262721,-8.56133111240907],[-39.435184571024,-8.56309884369318],[-39.4323386580795,-8.56077629282004],[-39.428947239653,-8.55962643010043],[-39.4265417163571,-8.55743401953781],[-39.4246823669146,-8.5510087286312],[-39.4192048142618,-8.54623153910485],[-39.4187267116491,-8.54473220421768],[-39.4166962082333,-8.5429482476418],[-39.4164445330177,-8.54100123493511],[-39.4124145468251,-8.54131890925873],[-39.4077350034505,-8.53776360898934],[-39.4000785156483,-8.53760690516812],[-39.3886768792575,-8.53394656364226],[-39.3865669652221,-8.53257193839864],[-39.378752870318,-8.53179555592726],[-39.3633921492532,-8.53785282588444]]]}},{"type":"Feature","properties":{"id":"137","name":"Vargem Alegre","people":"Pankararú","state":"BA","municipality":"Serra do Ramalho","phase":"Regularizada"},"geometry":{"type":"Polygon","coordinates":[[[-43.7565197317263,-13.4007922556867],[-43.760679481196,-13.4185616106139],[-43.8050487599,-13.4085018587],[-43.80080889,-13.39053861],[-43.7565197317263,-13.4007922556867]]]}},{"type":"Feature","properties":{"id":"1389","name":"Kiriri","people":"Kiriri","state":"BA","municipality":"Ribeira do Pombal,Quijingue,Tucano,Banzaê","phase":"Regularizada"},"geometry":{"type":"Polygon","coordinates":[[[-38.631345536721,-10.7165488335619],[-38.6740067972788,-10.6991269795733],[-38.691718166133,-10.6569539583606],[-38.674099300374,-10.6147638791021],[-38.6313820510207,-10.5971718429905],[-38.5887810232841,-10.6148941100451],[-38.5711337273993,-10.6568038096903],[-38.5886945082039,-10.6990083409127],[-38.631345536721,-10.7165488335619]]]}},{"type":"Feature","properties":{"id":"1364","name":"Kantaruré","people":"Kantaruré","state":"BA","municipality":"Glória","phase":"Regularizada"},"geometry":{"type":"Polygon","coordinates":[[[-38.3771670177076,-9.15030337628526],[-38.3643841463682,-9.16974759111127],[-38.368274061564,-9.18169675368223],[-38.3835506637844,-9.18670026327136],[-38.3941055511725,-9.18753368242029],[-38.3952234109874,-9.18697780446024],[-38.4082707676147,-9.17058942152751],[-38.4160572124602,-9.15836427566002],[-38.4146663144616,-9.15586132455436],[-38.4077234081599,-9.15308416314651],[-38.3827166956495,-9.14003021033125],[-38.3804990326186,-9.1419724981231],[-38.3771670177076,-9.15030337628526]]]}},{"type":"Feature","properties":{"id":"1731","name":"Fazenda Remanso","people":"Tuxá","state":"BA","municipality":"Muquém de São Francisco","phase":"Regularizada"},"geometry":{"type":"Polygon","coordinates":[[[-43.3559125028878,-12.3573792193253],[-43.357071299467,-12.3535704496227],[-43.2893205651335,-12.340511868534],[-43.2888574539249,-12.3446134564719],[-43.3559125028878,-12.3573792193253]]]}},{"type":"Feature","properties":{"id":"1732","name":"Fazenda Sítio","people":"Tuxá","state":"BA","municipality":"Quijingue","phase":"Regularizada"},"geometry":{"type":"Polygon","coordinates":[[[-38.7170872146737,-10.6120024406506],[-38.7254467926609,-10.6208818837919],[-38.7231758433645,-10.6230760741196],[-38.726966694813,-10.6267977622295],[-38.7242704262296,-10.6290768990249],[-38.7351153230284,-10.6482672214255],[-38.7364125674783,-10.6463334348585],[-38.736860929012,-10.6526192447903],[-38.7407188573167,-10.6528710197071],[-38.7406181387641,-10.6331007273607],[-38.7226074869668,-10.6124806191647],[-38.7222108118805,-10.6093036234413],[-38.7215405792746,-10.6097095778845],[-38.7210094462441,-10.608818485523],[-38.7170872146737,-10.6120024406506]]]}},{"type":"Feature","properties":{"id":"1477","name":"Pankararé","people":"Pankararé","state":"BA","municipality":"Glória,Paulo Afonso,Rodelas","phase":"Regularizada"},"geometry":{"type":"Polygon","coordinates":[[[-38.4581623268346,-9.41969259715211],[-38.5139014337705,-9.45144596757575],[-38.5134389933423,-9.46094133313654],[-38.5744404843864,-9.47364845336341],[-38.5866349498475,-9.48645552924995],[-38.5954985617187,-9.50392044052025],[-38.601078786613,-9.55196234644939],[-38.6826230564807,-9.55244397351181],[-38.6821767702741,-9.39416148686356],[-38.644784658807,-9.39135189939196],[-38.6432271542362,-9.41111373411866],[-38.5118303592373,-9.37416436276438],[-38.5067669287256,-9.36305552289595],[-38.4875413219272,-9.36562453265437],[-38.4622703637033,-9.36766539429637],[-38.4513298377444,-9.39613181363558],[-38.4483240795994,-9.39868565674112],[-38.4581623268346,-9.41969259715211]]]}},{"type":"Feature","properties":{"id":"1431","name":"Massacara","people":"Kaimbé","state":"BA","municipality":"Euclides da Cunha","phase":"Regularizada"},"geometry":{"type":"Polygon","coordinates":[[[-38.7573850077278,-10.4866782893997],[-38.7729850484182,-10.4739169162758],[-38.7771828967993,-10.4667694513309],[-38.8193720764342,-10.4523421360781],[-38.8323129753353,-10.4205888623441],[-38.820438660091,-10.4029865981159],[-38.8127829412059,-10.3958444613399],[-38.7986861977708,-10.3886175231063],[-38.7565049092411,-10.3841622095194],[-38.7533548206674,-10.3859248661584],[-38.7369015853738,-10.4064629980669],[-38.7369030872371,-10.4165329297545],[-38.743319311985,-10.4711609464798],[-38.7461159220829,-10.4788674485506],[-38.7573850077278,-10.4866782893997]]]}},{"type":"Feature","properties":{"id":"1313","name":"Ibotirama","people":"Tuxá","state":"BA","municipality":"Ibotirama","phase":"Regularizada"},"geometry":{"type":"Polygon","coordinates":[[[-43.2772471717931,-12.094215271252],[-43.2831517772151,-12.0834162228208],[-43.2905291777274,-12.0752881753618],[-43.2622564008085,-12.0651954714821],[-43.2625005185744,-12.0641549738994],[-43.2243423061693,-12.0521733038363],[-43.2227722677833,-12.0560007978181],[-43.2244110102735,-12.0643534965313],[-43.2247338329438,-12.075920732277],[-43.223232148244,-12.0773668195238],[-43.2244118679083,-12.0852396090646],[-43.2772471717931,-12.094215271252]]]}},{"type":"Feature","properties":{"id":"1215","name":"Barra","people":"Kiriri,Atikum","state":"BA","municipality":"Muquém de São Francisco","phase":"Regularizada"},"geometry":{"type":"Polygon","coordinates":[[[-43.2550990714454,-12.1732166306802],[-43.261092244817,-12.1707859547901],[-43.246082082966,-12.1674714845365],[-43.2423227177038,-12.1703699024875],[-43.2550990714454,-12.1732166306802]]]}},{"type":"Feature","properties":{"id":"1729","name":"Tupinambá de Belmonte","people":"Tupinambá","state":"BA","municipality":"Belmonte","phase":"Delimitada"},"geometry":{"type":"Polygon","coordinates":[[[-39.1346168966817,-15.8723075061215],[-39.1264722129738,-15.8744431885974],[-39.1214914940386,-15.8724593747845],[-39.1217701171069,-15.8761056426478],[-39.1206813858595,-15.8782639996764],[-39.1116663444386,-15.8806393578961],[-39.1072087804033,-15.8830290952264],[-39.1051876420383,-15.8865038530391],[-39.1052654499053,-15.8908216175624],[-39.1082853181168,-15.8946072173041],[-39.1226740634611,-15.9054424178405],[-39.1278965524684,-15.9106931333051],[-39.132172834002,-15.9237952785584],[-39.13616756641,-15.9316786118681],[-39.1399847627373,-15.9350789041596],[-39.1484802656058,-15.9401451010946],[-39.1564587745642,-15.9434987652401],[-39.1632859757042,-15.9487169476141],[-39.1656659679998,-15.9606486701085],[-39.1664987077494,-15.9732238549675],[-39.1722779294923,-15.983784695394],[-39.1765145260838,-15.9895859723399],[-39.1859442161206,-15.9950849105856],[-39.2034427817849,-16.000034171881],[-39.2075475197292,-16.0029395855842],[-39.2092995424863,-16.0056015107757],[-39.2226263004183,-15.9982761464789],[-39.2253411859333,-15.9960496752066],[-39.2262339808066,-15.993639958887],[-39.2314940731717,-15.9920665838591],[-39.2336966022959,-15.987178107346],[-39.2386630785717,-15.9857693587896],[-39.2401391936421,-15.9844441222963],[-39.2403745452598,-15.9830537195099],[-39.2426630840303,-15.9832590157099],[-39.2437655325309,-15.9851692394151],[-39.2444598143804,-15.9846530750128],[-39.2427836054393,-15.9810260674479],[-39.240063100671,-15.979087110784],[-39.2415624135971,-15.9783258107738],[-39.2409817905819,-15.9742006555191],[-39.239381290649,-15.971563054168],[-39.2434418727494,-15.9646097444983],[-39.2462724857223,-15.9647015429816],[-39.248259773839,-15.9636737902938],[-39.2504158231329,-15.9593879809467],[-39.2473928741954,-15.9592395489707],[-39.2308014071367,-15.9462012057488],[-39.2218455867118,-15.9446294421339],[-39.2122890871683,-15.9398277208379],[-39.2113845192887,-15.9369029079188],[-39.2139722655874,-15.9319788256057],[-39.2072219138078,-15.9300969821659],[-39.2063392035064,-15.93088170844],[-39.2040295085087,-15.929216523144],[-39.2005689628146,-15.9234152896085],[-39.1953232130271,-15.9175743315078],[-39.1947855442967,-15.9153770850517],[-39.1959969669449,-15.9130766796541],[-39.1877072819904,-15.9120061106157],[-39.1876675658901,-15.9051591494937],[-39.1862129418123,-15.9023298333968],[-39.1830027547821,-15.9001919271515],[-39.1796244133097,-15.8965492570806],[-39.1734723191597,-15.8954453825917],[-39.1702571264382,-15.8928766678775],[-39.1683454681709,-15.8926526516921],[-39.1652012380551,-15.8903873756093],[-39.1634047040481,-15.8841268406937],[-39.1570318945428,-15.8855997175618],[-39.1504998662616,-15.8829504868751],[-39.1467239313483,-15.8790004038457],[-39.1424939676636,-15.8769878073206],[-39.1395055730354,-15.8733977712464],[-39.1400332973376,-15.8718517886561],[-39.1346168966817,-15.8723075061215]]]}},{"type":"Feature","properties":{"id":"208","name":"Barra Velha do Monte Pascoal","people":"Pataxó","state":"BA","municipality":"Porto Seguro","phase":"Delimitada"},"geometry":{"type":"Polygon","coordinates":[[[-39.13276158,-16.91534818],[-39.14249846,-16.9221178],[-39.151726,-16.9360678],[-39.15648702,-16.93328358],[-39.16050976,-16.93301372],[-39.16997641,-16.93718004],[-39.17397935,-16.937981],[-39.17688237,-16.9335883],[-39.18273445,-16.93539847],[-39.18489203,-16.93467144],[-39.18742539,-16.93666084],[-39.19181514,-16.93780522],[-39.20463591,-16.93700247],[-39.21210329,-16.93792353],[-39.23128584,-16.9384458],[-39.24358275,-16.93617938],[-39.24628992,-16.93481311],[-39.24197698,-16.92537494],[-39.24540896,-16.9250706],[-39.25030246,-16.92189675],[-39.25958261,-16.92085024],[-39.26450492,-16.91908475],[-39.26828647,-16.91722163],[-39.27752728,-16.90978722],[-39.28951982,-16.90419747],[-39.29174632,-16.90769476],[-39.3000009,-16.90520227],[-39.30505669,-16.90566083],[-39.30968033,-16.92013409],[-39.31495992,-16.92228814],[-39.32099939,-16.92197982],[-39.32344164,-16.92478001],[-39.32651405,-16.92556614],[-39.32711144,-16.92848387],[-39.33192561,-16.92974336],[-39.33725395,-16.9353309],[-39.33837281,-16.94034332],[-39.34968709,-16.93893369],[-39.35839715,-16.93473818],[-39.36160562,-16.9323756],[-39.36853136,-16.93240931],[-39.3738874,-16.93133952],[-39.38095153,-16.93248204],[-39.38462458,-16.9353239],[-39.38724975,-16.93617509],[-39.39495015,-16.93593641],[-39.3989424,-16.93712007],[-39.40178568,-16.93627956],[-39.40913806,-16.93699273],[-39.4099579,-16.93793827],[-39.40984862,-16.94207449],[-39.41144437,-16.9441649],[-39.41438676,-16.94445729],[-39.41800365,-16.94347676],[-39.42520908,-16.94689811],[-39.42579751,-16.94432583],[-39.42825569,-16.94191848],[-39.43200737,-16.94041907],[-39.43332119,-16.93759785],[-39.43358719,-16.93277705],[-39.43662245,-16.92553497],[-39.43964321,-16.92086976],[-39.44349009,-16.91958758],[-39.4477444,-16.92019009],[-39.4516095,-16.91879459],[-39.453705,-16.9200395],[-39.45570648,-16.92416406],[-39.4584094,-16.92570621],[-39.45857058,-16.92437106],[-39.46096375,-16.92158002],[-39.46454504,-16.91924065],[-39.46476333,-16.91284968],[-39.46553587,-16.91103757],[-39.46806856,-16.90814154],[-39.47200626,-16.90809677],[-39.47547576,-16.90369009],[-39.48056076,-16.90967311],[-39.48344368,-16.91084014],[-39.48995221,-16.91113974],[-39.49374024,-16.91409404],[-39.50116869,-16.91153503],[-39.51047866,-16.91187758],[-39.5078355,-16.92065473],[-39.50827214,-16.92458366],[-39.51022505,-16.92729704],[-39.51095731,-16.92503287],[-39.5202192,-16.92009135],[-39.52164648,-16.91181081],[-39.522353,-16.91119936],[-39.5202344,-16.90867713],[-39.52477804,-16.90303141],[-39.52336707,-16.89867447],[-39.52006654,-16.89416996],[-39.5199756,-16.89110969],[-39.50769283,-16.87398299],[-39.50416133,-16.87208552],[-39.50194132,-16.86869419],[-39.49883124,-16.86585769],[-39.49022559,-16.85372855],[-39.48998973,-16.8496291],[-39.48658273,-16.84746756],[-39.48420144,-16.84119666],[-39.48673678,-16.83823826],[-39.48664711,-16.83600572],[-39.47801637,-16.82952532],[-39.4777189,-16.82814973],[-39.48049306,-16.82066719],[-39.48029803,-16.81482846],[-39.47837612,-16.80917914],[-39.48155915,-16.80513875],[-39.48281653,-16.79997171],[-39.48498699,-16.79770076],[-39.48510937,-16.7966092],[-39.47635584,-16.78844983],[-39.46973194,-16.7745502],[-39.46999138,-16.76526741],[-39.4693726910688,-16.7621783574532],[-39.4604993398578,-16.7594517062275],[-39.4570111015168,-16.752228986563],[-39.45015467,-16.75052422],[-39.44752629,-16.74816194],[-39.4444738,-16.74726626],[-39.44104109,-16.74484881],[-39.42626253,-16.74467884],[-39.42207347,-16.74679277],[-39.41808267,-16.74659771],[-39.41262274,-16.74812258],[-39.40916057,-16.75104264],[-39.40755079,-16.75468822],[-39.40404123,-16.75869562],[-39.3967994,-16.77341531],[-39.38804025,-16.7797167],[-39.3863232,-16.7829145],[-39.381856,-16.78567613],[-39.38013408,-16.79218085],[-39.3769466,-16.7951713],[-39.37017496,-16.79864397],[-39.36834869,-16.80298605],[-39.36446754,-16.80701879],[-39.36127437,-16.80815238],[-39.35635791,-16.81362599],[-39.35289082,-16.81525052],[-39.33985106,-16.81717894],[-39.31864664,-16.81346522],[-39.3146657,-16.81575679],[-39.31287091,-16.81871893],[-39.30901981,-16.8205532],[-39.30386632,-16.82613979],[-39.29871457,-16.83026641],[-39.29416211,-16.82893839],[-39.29158266,-16.82418622],[-39.27946099,-16.8189899],[-39.27430492,-16.82102263],[-39.26392146,-16.82693778],[-39.25900108,-16.82633975],[-39.2551811,-16.8280077],[-39.25244426,-16.83132494],[-39.25068831,-16.83675037],[-39.24874377,-16.83397694],[-39.24639451,-16.8345339],[-39.24566929,-16.83573176],[-39.24244843,-16.83279889],[-39.2389027,-16.83135557],[-39.23366346,-16.83050607],[-39.22543947,-16.83609427],[-39.2182441,-16.84270328],[-39.21420609,-16.84343168],[-39.21027811,-16.83945568],[-39.20588063,-16.83191292],[-39.20236022,-16.8296798],[-39.19581954,-16.82887028],[-39.19255668,-16.829556],[-39.18976495,-16.83118006],[-39.18631146,-16.83165889],[-39.18089504,-16.83067277],[-39.17896428,-16.82963206],[-39.17785265,-16.82763792],[-39.17222989,-16.82640869],[-39.16935062,-16.82842178],[-39.16728368,-16.82885692],[-39.16620743,-16.83079424],[-39.1593916,-16.8248138],[-39.1604238,-16.82413913],[-39.16211742,-16.82508416],[-39.16194582,-16.82286597],[-39.15897082,-16.82040719],[-39.15579935,-16.81923544],[-39.15507625,-16.81768176],[-39.15627067,-16.81792376],[-39.15652386,-16.81710655],[-39.15434508,-16.81528375],[-39.15504181,-16.81326718],[-39.15262645,-16.80992489],[-39.14483959,-16.80988831],[-39.14363667,-16.83762057],[-39.14424786,-16.84328845],[-39.1420694,-16.85006972],[-39.14137769,-16.86803838],[-39.12810488,-16.88571772],[-39.1175105589535,-16.892578765239357],[-39.11830432260394,-16.898499899747716],[-39.1245272,-16.9044047],[-39.13276158,-16.91534818]]]}},{"type":"Feature","properties":{"id":"13","name":"Aldeia Velha","people":"Pataxó","state":"BA","municipality":"Porto Seguro","phase":"Declarada"},"geometry":{"type":"Polygon","coordinates":[[[-39.1305877736285,-16.4489176827862],[-39.1278828219246,-16.4477038488865],[-39.125721470498,-16.4493613550841],[-39.1254416173874,-16.446057859428],[-39.1242110933168,-16.4465456067418],[-39.1236977358922,-16.4511645061025],[-39.1224668613702,-16.4511269826643],[-39.1220779794845,-16.449425265987],[-39.120693359387,-16.4488208422557],[-39.1201600670501,-16.4507859123432],[-39.1189280952806,-16.4515951736987],[-39.1180566204968,-16.4495811895358],[-39.1208111632911,-16.4471255946772],[-39.1205395719509,-16.4455193004779],[-39.1173691012134,-16.4453990035872],[-39.11653053647,-16.4463690612745],[-39.1171200834541,-16.4488591354788],[-39.1166865015431,-16.4507255813067],[-39.1142884331963,-16.4517738829622],[-39.1101994726158,-16.4477384615069],[-39.1046116959137,-16.4484305236349],[-39.1028692855762,-16.4453304736146],[-39.1047931713459,-16.4425123705183],[-39.099047010663,-16.4444281478969],[-39.0944302071842,-16.4444256725135],[-39.0905778410649,-16.4433570212311],[-39.0882078561017,-16.4450432017186],[-39.0873395072129,-16.4483804134719],[-39.0854139040397,-16.4501850387737],[-39.0805329546884,-16.4507968725274],[-39.0765992299444,-16.4529378716542],[-39.0728760418833,-16.4517976791657],[-39.0718441693099,-16.4543268019005],[-39.0704220013382,-16.454176691621],[-39.0686426211603,-16.4559484320495],[-39.0709183550572,-16.4588327768096],[-39.0736616297255,-16.4582253923802],[-39.0764336889734,-16.4586990818201],[-39.078132766809,-16.4603832260312],[-39.079317268108,-16.4601689233972],[-39.0801153904454,-16.4624130565344],[-39.078638573789,-16.4762935776458],[-39.083174157433,-16.4795071713112],[-39.0852562836254,-16.4790596765075],[-39.0851677176332,-16.4816554296249],[-39.0907049187413,-16.4820367169499],[-39.0959146631507,-16.4796912907035],[-39.0999341110876,-16.4791525804479],[-39.1097526057914,-16.4810036880868],[-39.1157447317724,-16.4801455954797],[-39.1190229750023,-16.4820871893524],[-39.1232882047187,-16.4830512779406],[-39.126901672604,-16.4803145963242],[-39.1278007749348,-16.4750242368399],[-39.1295600477957,-16.4726416682632],[-39.12838189203,-16.4705914208335],[-39.125216299869,-16.4687532467969],[-39.1253011304667,-16.4649578327965],[-39.1342304784835,-16.4550084011447],[-39.1310037806336,-16.453699435544],[-39.1298976052416,-16.4513711483516],[-39.1305877736285,-16.4489176827862]]]}},{"type":"Feature","properties":{"id":"1689","name":"Tupinambá de Olivença","people":"Tupinambá","state":"BA","municipality":"Una,Ilhéus,Buerarema","phase":"Delimitada"},"geometry":{"type":"Polygon","coordinates":[[[-38.9973159771094,-15.0926349263256],[-38.9959446329945,-15.1237807643749],[-38.9972070142735,-15.1304705263814],[-38.9958209408474,-15.1335318693431],[-38.9954047510701,-15.1452651263211],[-38.9963445019924,-15.1836870199119],[-38.9989588660665,-15.183522472392],[-39.000392557412,-15.1848526077754],[-38.9992934112282,-15.1878006997901],[-39.0023815707587,-15.193731435011],[-39.0021609894075,-15.2016863855779],[-39.0052698007931,-15.2039763166902],[-39.007133701807,-15.2070985456278],[-39.0079641118701,-15.2021933116055],[-39.0054174541491,-15.1828251114386],[-39.0074739231386,-15.1827648460258],[-39.0093254139029,-15.1794702278077],[-39.011829611305,-15.1787629812754],[-39.0135233929406,-15.1795920212219],[-39.0135522259989,-15.1773820877683],[-39.0129593335321,-15.1768084298556],[-39.0121276068087,-15.1776061104837],[-39.0086065633304,-15.1781862870835],[-39.0051595099426,-15.1770948276633],[-39.0044208618526,-15.1696221011247],[-39.0014675556736,-15.1605233212726],[-39.0009127493191,-15.1537296640067],[-39.0015527181578,-15.1326724713039],[-39.0031090208631,-15.1162204779885],[-39.0010355629341,-15.0982274413779],[-39.0156056306175,-15.1025602055815],[-39.0272786583744,-15.1023092307997],[-39.030268053084,-15.105871551944],[-39.0378055980971,-15.1073822680024],[-39.0401865901954,-15.1134511182271],[-39.0419018103959,-15.1157994973936],[-39.0476118656064,-15.1156217090068],[-39.0488211481777,-15.1147512849808],[-39.050299145478,-15.1152059933609],[-39.050519637194,-15.1142106759127],[-39.0540299479443,-15.1129786628606],[-39.0551572737845,-15.1099961821092],[-39.0640624631323,-15.1118134617814],[-39.0640113786062,-15.1036638787703],[-39.0702773190524,-15.0959625481474],[-39.0794295696626,-15.0958808845261],[-39.0824950971245,-15.0966914512556],[-39.0917702329659,-15.0912267405385],[-39.0972036654002,-15.0843220501662],[-39.1010145397865,-15.085531053472],[-39.1029405331393,-15.0900349883339],[-39.1063635502619,-15.092632787588],[-39.1067032046851,-15.0954552020926],[-39.108452016364,-15.0964272683483],[-39.1084490412372,-15.0975157733783],[-39.109422031871,-15.0982539399797],[-39.1121757172801,-15.0979468370812],[-39.1140366919769,-15.0957740443172],[-39.1126187551064,-15.0951304173983],[-39.1145006581058,-15.0884723689167],[-39.1177422724704,-15.0868089644597],[-39.119003798203,-15.0887332285077],[-39.12078172943,-15.0879861423896],[-39.122447188981,-15.088557677421],[-39.1237025803929,-15.0850641429054],[-39.1260085911718,-15.0831828519351],[-39.1312215204799,-15.0827686225691],[-39.1321598223275,-15.0794039828746],[-39.1336482708312,-15.0777426502729],[-39.1345188484928,-15.0775610005488],[-39.1367964906548,-15.0794884692299],[-39.1380147409692,-15.0795308994096],[-39.1393167928878,-15.0783932557047],[-39.1407587467822,-15.0796177520322],[-39.1415199968833,-15.0786125019221],[-39.1490353719854,-15.0762280368796],[-39.1570555257787,-15.0776336918173],[-39.1684898875199,-15.0707202669668],[-39.1691140248419,-15.0728323857866],[-39.1679213439447,-15.0782188581713],[-39.1706750978639,-15.080009645786],[-39.1722764246406,-15.085696642358],[-39.1751598965536,-15.0901303352145],[-39.1742983937173,-15.0917617272701],[-39.1715453359286,-15.0932465132808],[-39.171326665431,-15.0948836073401],[-39.173863113943,-15.0939559008209],[-39.1759303250493,-15.0945176209701],[-39.178407586804,-15.0966598308866],[-39.1825079603096,-15.0985275754932],[-39.1890992797734,-15.0970844825747],[-39.1917568748594,-15.0974728395245],[-39.1975251136535,-15.0964602140926],[-39.2005286859589,-15.0926195305163],[-39.2068350994064,-15.0942756079249],[-39.2155549144858,-15.0989831520198],[-39.2200546469125,-15.0987678180546],[-39.2228916382923,-15.0974105307029],[-39.2282448921508,-15.1001565463656],[-39.2324315433232,-15.1000177661828],[-39.2359828652091,-15.1012177666758],[-39.246215892618,-15.1171155959286],[-39.2501504964095,-15.1179095250371],[-39.2522330262797,-15.1193152285166],[-39.2560382785905,-15.1195650406373],[-39.2594212257135,-15.1180047148782],[-39.2611357304216,-15.1163035533199],[-39.2639464787139,-15.1165078149644],[-39.264721468864,-15.1143781576759],[-39.2666025848349,-15.1138822240821],[-39.2672205399477,-15.1098801429367],[-39.2713225560994,-15.1096212359634],[-39.2757332545463,-15.1045849168042],[-39.277745037698,-15.1048789711991],[-39.2781800791067,-15.1029385089681],[-39.2793505109204,-15.1019406197357],[-39.2825852102219,-15.1028741499091],[-39.2837595783607,-15.1044682464904],[-39.2878083413959,-15.1062878270585],[-39.2883683990657,-15.1082648698895],[-39.2864455721157,-15.1076338422236],[-39.2860249624514,-15.1081783496661],[-39.2858390547435,-15.1133326466118],[-39.2890242508972,-15.1137799019847],[-39.288935526696,-15.1150394663978],[-39.2902002023615,-15.1164109039064],[-39.2927362807191,-15.1168083519633],[-39.2931983988675,-15.1183223891363],[-39.2970456466853,-15.0711644768451],[-39.295538635876,-15.0635488074355],[-39.2927027728122,-15.0615867273458],[-39.2919037822568,-15.0588919014209],[-39.2938452670692,-15.0528728376705],[-39.2941723567466,-15.0486059463503],[-39.2530607792083,-15.0273408843771],[-39.2507070603698,-15.0248911314315],[-39.2419241750884,-15.0201653504611],[-39.2377516070022,-15.0144213209754],[-39.2343218586347,-15.0120356447693],[-39.2307508558242,-15.0115295397735],[-39.2268479137588,-15.0126976662879],[-39.219749513803,-15.0109325973074],[-39.2191535725097,-15.0102626283596],[-39.2196998802144,-15.0079256302552],[-39.2144677376489,-14.9910047207939],[-39.2084796249777,-14.9894943817227],[-39.2059089340893,-14.9900086065031],[-39.2041383852227,-14.988948471547],[-39.2015181634328,-14.9920240010826],[-39.199501423423,-14.992212974519],[-39.1974766541464,-14.9882737288501],[-39.1970443949336,-14.9856732548308],[-39.1945444069081,-14.9838557617858],[-39.1944652599073,-14.9799426972453],[-39.1905937132354,-14.9796107604359],[-39.1912779096742,-14.9774320428131],[-39.1903754562848,-14.9744946375763],[-39.1883372458858,-14.9734001223816],[-39.1885005135177,-14.972137033152],[-39.1863293370162,-14.972272390152],[-39.1852827787666,-14.9667441065397],[-39.1817691333932,-14.9606564438384],[-39.181243349184,-14.9579273407317],[-39.1698757749839,-14.9501155262738],[-39.1682163802091,-14.9481405401385],[-39.1646810886756,-14.9476718199941],[-39.1622552492495,-14.9449372789272],[-39.161571973379,-14.9461762193355],[-39.1602575213842,-14.946453358327],[-39.1572655231789,-14.9454129454746],[-39.1571211111656,-14.9446838146624],[-39.1589807625077,-14.9440722692347],[-39.1594028438409,-14.9423075887933],[-39.1558690346895,-14.9395647202569],[-39.1541820784921,-14.939177378503],[-39.1532487142705,-14.9372131331874],[-39.1495310612135,-14.9377514027381],[-39.1479012892123,-14.9393344620038],[-39.1478108373146,-14.9431394711631],[-39.142832944952,-14.940797114923],[-39.1412928803993,-14.9442822640065],[-39.1390961936676,-14.9449162499697],[-39.1359956169081,-14.9442287979433],[-39.1352869270944,-14.9456942154324],[-39.1334919311461,-14.9457827918995],[-39.131985229593,-14.948128448919],[-39.1302138146006,-14.9485433282077],[-39.08424368029,-14.9355046627354],[-39.0844971236781,-14.9317811609449],[-39.0891009372438,-14.9236979401105],[-39.0873723005752,-14.9190150875872],[-39.0885257275826,-14.918113630484],[-39.0886758017158,-14.9132072456633],[-39.0895579768401,-14.9109981912848],[-39.088967323835,-14.9082746920584],[-39.0546064504187,-14.9141849250508],[-39.0481479060376,-14.9168651808728],[-39.0449082482687,-14.9167036896009],[-39.0435456503419,-14.9171351295817],[-39.0415569391166,-14.9212833096849],[-39.039381943061,-14.9237169134325],[-39.0383660503361,-14.9205630638579],[-39.0373384836668,-14.9200765931082],[-39.034711508052,-14.9219197439298],[-39.0328869963457,-14.9200574312626],[-39.0271210577149,-14.9212360806751],[-39.0261714433053,-14.9196487206067],[-39.0249392590912,-14.9192896518445],[-39.0183817128852,-14.9397865099418],[-39.0113275990661,-14.947552000315],[-39.0135544365244,-14.9522747883467],[-39.0099643908442,-14.9517917081976],[-39.0060043090714,-14.9667390974686],[-39.0048271669005,-14.976212072449],[-39.0070837519329,-14.9763209115892],[-39.00280604075846,-14.987626509782977],[-38.99884349608749,-15.047054252098414],[-38.998575032382305,-15.051080501192715],[-39.0017769714224,-15.0510772038488],[-39.0016865296798,-15.066271494022],[-39.0038123264939,-15.0662674474429],[-39.0034870260601,-15.0779627432959],[-38.996782464449396,-15.077964302902345],[-38.9973159771094,-15.0926349263256]]]}},{"type":"Feature","properties":{"id":"1434","name":"Mata Medonha","people":"Pataxó","state":"BA","municipality":"Santa Cruz Cabrália","phase":"Regularizada"},"geometry":{"type":"Polygon","coordinates":[[[-38.9964481454812,-16.1550908633649],[-38.9989942744269,-16.1565996172048],[-38.9984450920962,-16.1592226981573],[-38.9991618330944,-16.1615986585069],[-38.9982973295286,-16.166606157648],[-39.0061545032601,-16.1642895644307],[-39.0096619258417,-16.1643975776167],[-39.010204980378,-16.1658660520236],[-39.0145219991359,-16.1658098049372],[-39.0156662830708,-16.1644653788835],[-39.0179970677621,-16.1647563246875],[-39.0176389396035,-16.1627120942363],[-39.0199246072289,-16.1618846529149],[-39.0225370804825,-16.1622913680192],[-39.0237018240496,-16.1637232894092],[-39.0252049398861,-16.1625876774048],[-39.026673184021,-16.1626352173685],[-39.0252714133452,-16.1507631105006],[-39.018212679634,-16.1519762762086],[-39.0157032789185,-16.151084894005],[-39.0030650542257,-16.1373488330023],[-38.9992746447429,-16.1403126196828],[-38.9964481454812,-16.1550908633649]]]}},{"type":"Feature","properties":{"id":"1283","name":"Fazenda Bahiana","people":"Pataxó","state":"BA","municipality":"Camamu","phase":"Regularizada"},"geometry":{"type":"Polygon","coordinates":[[[-39.1937387105725,-13.9592454194906],[-39.1895535722538,-13.9611398770932],[-39.2012675352995,-13.9726117352705],[-39.200191806996,-13.9755941860094],[-39.2121565508541,-13.9734307791313],[-39.208397302342,-13.955713203625],[-39.1937387105725,-13.9592454194906]]]}},{"type":"Feature","properties":{"id":"1217","name":"Barra Velha","people":"Pataxó","state":"BA","municipality":"Porto Seguro","phase":"Regularizada"},"geometry":{"type":"Polygon","coordinates":[[[-39.1439738178565,-16.8377585221182],[-39.144558447712,-16.8431696600275],[-39.1423649448441,-16.8502575009046],[-39.1417152887901,-16.8674645030449],[-39.155181959575,-16.9058555830174],[-39.1585844319277,-16.9062711851768],[-39.1605297306892,-16.9057226673738],[-39.1669039767331,-16.8984014019334],[-39.1721496465379,-16.8963621877613],[-39.1766617784373,-16.8920736058436],[-39.1793771876121,-16.8907174975956],[-39.1893035844187,-16.8881628135104],[-39.1974662327654,-16.8883670392187],[-39.200144854389,-16.8846343844044],[-39.3073071810358,-16.857791850154],[-39.3888046370674,-16.8528785706144],[-39.3886635695147,-16.8432802748831],[-39.3846333455298,-16.8408021385098],[-39.3804293366898,-16.8406606385706],[-39.3755949124969,-16.8382411230039],[-39.3662423209197,-16.8370479017999],[-39.3603800125491,-16.8377763018458],[-39.3515715824888,-16.8375613570984],[-39.333516642151,-16.8407851014205],[-39.3269405955152,-16.8389827038404],[-39.3161524578876,-16.8408449399949],[-39.3052309928091,-16.8399798215653],[-39.2936771074889,-16.8369948583549],[-39.2868053950767,-16.8402536396129],[-39.2817749295671,-16.8402109510697],[-39.2763154781691,-16.8419056750841],[-39.273416325566,-16.8415628702798],[-39.2682209257955,-16.8437241593236],[-39.2566886217102,-16.8467706276228],[-39.2518283524642,-16.8492096695173],[-39.2436468278415,-16.8484358651053],[-39.2398001020721,-16.8510244471494],[-39.237759726863,-16.851479659974],[-39.2339663303696,-16.8505462244568],[-39.2260182955862,-16.8515727745325],[-39.2209987450745,-16.850439064842],[-39.2127838666627,-16.8507958468729],[-39.2091463226032,-16.8492048527111],[-39.2020275869619,-16.842517433239],[-39.1962428740853,-16.8409518195103],[-39.1904312640205,-16.8407906987324],[-39.1881935861886,-16.8386384417294],[-39.1829848353328,-16.8365767949516],[-39.1786745401097,-16.8369426185326],[-39.1757825584068,-16.839113079721],[-39.1746583114122,-16.8390517931253],[-39.1700065632678,-16.8324759036826],[-39.1727139094975,-16.8268293747568],[-39.1681177485994,-16.8291351701068],[-39.1670401118577,-16.8310899799999],[-39.1653344754398,-16.8307681507419],[-39.163655401121,-16.8285760093265],[-39.16095105781,-16.83146254862],[-39.1596064732384,-16.8313330163583],[-39.1584724693758,-16.8284408250165],[-39.1606985335872,-16.8267161190417],[-39.1590209709108,-16.8242692232466],[-39.1601938957979,-16.8234813738108],[-39.1616748478638,-16.8240247434279],[-39.1616740417529,-16.8232072706794],[-39.1595479193084,-16.821194768054],[-39.1553782508255,-16.8194432048851],[-39.1544405616183,-16.817039491886],[-39.1562861715559,-16.8170195586495],[-39.1541124378579,-16.8157244660581],[-39.1544859549174,-16.8133951797884],[-39.1521493097322,-16.8098914167024],[-39.144839591615,-16.80988831492],[-39.1439738178565,-16.8377585221182]]]}},{"type":"Feature","properties":{"id":"233","name":"Caramuru/Paraguassu","people":"Pataxo Há-Há-Há","state":"BA","municipality":"Pau Brasil,Itaju do Colônia,Camacan","phase":"Regularizada"},"geometry":{"type":"Polygon","coordinates":[[[-39.708550379045,-15.138409629664],[-39.707138888889,-15.137722222222],[-39.707711277778,-15.150953555556],[-39.704773138889,-15.153508305556],[-39.700611472222,-15.153573111111],[-39.636161194444,-15.234635833333],[-39.624763972222,-15.235310777778],[-39.619529361111,-15.244224833333],[-39.612786944444,-15.241176861111],[-39.607030805556,-15.248615388889],[-39.615735527778,-15.248128777778],[-39.616406055556,-15.256840333333],[-39.61359625,-15.259004027778],[-39.608196861111,-15.259003388889],[-39.606787027778,-15.264868027778],[-39.602610694444,-15.271425583333],[-39.602371194444,-15.278223833333],[-39.60572725,-15.283737916667],[-39.601685888889,-15.319265],[-39.609203583333,-15.335591444444],[-39.625663666667,-15.352265944444],[-39.635127972222,-15.390054027778],[-39.645821,-15.397668722222],[-39.654604777778,-15.402728833333],[-39.660857333333,-15.40845025],[-39.681647166667,-15.417442444444],[-39.683679305556,-15.421871138889],[-39.687885138889,-15.563761083333],[-39.682238055556,-15.56378625],[-39.713472222222,-15.591944444444],[-39.714661538821,-15.591250008418],[-39.714002088198,-15.586899275612],[-39.712308965469,-15.584805306713],[-39.711586550516,-15.584901359393],[-39.710019204741,-15.582188040923],[-39.709704713785,-15.579221024312],[-39.711660091447,-15.574460846897],[-39.716179814245,-15.572428274616],[-39.715626990078,-15.568216806587],[-39.713514021867,-15.566439720583],[-39.715497224544,-15.560939117823],[-39.71831799,-15.55657763],[-39.719668391812,-15.557664480611],[-39.720432951475,-15.560620614845],[-39.721628007869,-15.560650178774],[-39.724804887042,-15.559666611384],[-39.726754313205,-15.560121389348],[-39.72857372715,-15.558588023724],[-39.735847827708,-15.555674871381],[-39.745660231636,-15.55690707381],[-39.749904228437,-15.555822041544],[-39.753919560764,-15.556733643507],[-39.757728670476,-15.559538482078],[-39.76180213627,-15.560025219017],[-39.765416666667,-15.564416666667],[-39.768081833333,-15.562880777778],[-39.760159305556,-15.557123138889],[-39.764999444444,-15.373522194444],[-39.765815166667,-15.155863638889],[-39.762947949161,-15.157168611111],[-39.761095015793,-15.155762498169],[-39.75645244,-15.15554969],[-39.755974215798,-15.155998284734],[-39.75726162,-15.15912876],[-39.754153265296,-15.165245323254],[-39.746369844465,-15.16462300607],[-39.743218876194,-15.167640122204],[-39.738884754757,-15.168023974871],[-39.737136647022,-15.166988785781],[-39.738326896954,-15.163518068761],[-39.737143421428,-15.159709933458],[-39.73774537553,-15.156043751327],[-39.73339545475,-15.152881722365],[-39.731533532269,-15.149052660068],[-39.727978678216,-15.146853225356],[-39.724004344822,-15.145631725772],[-39.72222298,-15.14328029],[-39.721094793742,-15.139911255241],[-39.717695535633,-15.137281002543],[-39.711843439783,-15.137347183422],[-39.711502984548,-15.139015064207],[-39.710392957712,-15.13785597534],[-39.708550379045,-15.138409629664]]]}},{"type":"Feature","properties":{"id":"1264","name":"Coroa Vermelha","people":"Pataxó","state":"BA","municipality":"Santa Cruz Cabrália,Porto Seguro","phase":"Regularizada"},"geometry":{"type":"MultiPolygon","coordinates":[[[[-39.0107397645426,-16.3354337362949],[-39.0103475613011,-16.3326403036712],[-39.0134830011226,-16.3311791543068],[-39.0140765036937,-16.3348822843276],[-39.0185303581131,-16.3342794449422],[-39.0210818071589,-16.3301332357326],[-39.0207537897327,-16.3269818175646],[-39.0191134197303,-16.326236438355],[-39.0158087972032,-16.3293898568238],[-39.0060454053397,-16.3331777992465],[-39.0079994306007,-16.3370010877339],[-39.0076822091199,-16.341012310762753],[-39.0086253371662,-16.3371251267844],[-39.0107397645426,-16.3354337362949]]],[[[-39.0371598309943,-16.3494809993488],[-39.0354758433182,-16.3496547635697],[-39.0323042577335,-16.3522993536411],[-39.0299630205896,-16.3527175660338],[-39.0292508146528,-16.3543898847688],[-39.031250173691,-16.3669029777787],[-39.0338616927591,-16.3728888252106],[-39.0369628488015,-16.3716360798955],[-39.0434815626852,-16.3713304795381],[-39.0572034964333,-16.3734976058168],[-39.0623306594018,-16.3756341264209],[-39.0634629957186,-16.3700112956381],[-39.0667568863303,-16.3672427878436],[-39.0656250439436,-16.3559739096784],[-39.0706040716836,-16.3295687626945],[-39.0530505184877,-16.3237331962151],[-39.0515674595646,-16.3344875935284],[-39.0474693613702,-16.3526683087085],[-39.0371598309943,-16.3494809993488]]]]}},{"type":"Feature","properties":{"id":"1323","name":"Imbiriba","people":"Pataxó","state":"BA","municipality":"Porto Seguro","phase":"Regularizada"},"geometry":{"type":"Polygon","coordinates":[[[-39.1500214344588,-16.6514769886678],[-39.1497090814327,-16.656156961945],[-39.1457793440983,-16.6589065965961],[-39.1486371307428,-16.6630777932182],[-39.1522087555282,-16.6626859353174],[-39.1561455557254,-16.663943120412],[-39.1600777994126,-16.6638175244427],[-39.1617000281464,-16.6630024720477],[-39.1681243548865,-16.6644811640548],[-39.1715682030866,-16.6638644421195],[-39.1724834371307,-16.6599993782598],[-39.174336866742,-16.6599787656297],[-39.1731511979423,-16.6571278333117],[-39.1705624910593,-16.6580114059141],[-39.1680200624904,-16.6573513113836],[-39.1692030700969,-16.6525908707822],[-39.1667428179534,-16.6538033341917],[-39.1638545225684,-16.6526463284834],[-39.1618056597597,-16.6533329381183],[-39.1597361117338,-16.6526095975194],[-39.1583616465719,-16.6534719793258],[-39.1577465934493,-16.6503005116134],[-39.1607469577999,-16.6495599319761],[-39.1620775372536,-16.648298971914],[-39.1654452872986,-16.648383598129],[-39.1598769254287,-16.6410273227888],[-39.1585965536013,-16.6402177027888],[-39.1534945482675,-16.643062074212],[-39.1527718438153,-16.646272285614],[-39.1532529619516,-16.646727577729],[-39.1500214344588,-16.6514769886678]]]}},{"type":"Feature","properties":{"id":"3","name":"Águas Belas","people":"Pataxó","state":"BA","municipality":"Prado","phase":"Regularizada"},"geometry":{"type":"Polygon","coordinates":[[[-39.3004337294888,-16.9056172982692],[-39.2921765138717,-16.9081115152857],[-39.2899526784999,-16.9046154641569],[-39.2779581644116,-16.9101997548599],[-39.2687129259723,-16.9176391041792],[-39.264935835669,-16.919497232826],[-39.2602429848318,-16.9212207758384],[-39.2503843052232,-16.9224083186122],[-39.2458337736951,-16.9254872944564],[-39.2424054373658,-16.9257894225192],[-39.2467188867841,-16.9352331409885],[-39.250096711135,-16.9357423012645],[-39.2569283546679,-16.9352818483097],[-39.2623016074422,-16.9328794498511],[-39.2719712720106,-16.930606923563],[-39.2732861633714,-16.9306955653126],[-39.275495582751,-16.9324101135721],[-39.2770903072456,-16.931187618951],[-39.2833808368454,-16.9301393565585],[-39.2898990593486,-16.9245708071315],[-39.2925742956945,-16.9238212343071],[-39.2958145787848,-16.9241103574094],[-39.2994751002685,-16.9229072899594],[-39.3019605143204,-16.9209374447615],[-39.3068443076598,-16.9213369545559],[-39.310106094579,-16.9205501147319],[-39.3054901815639,-16.9060752599859],[-39.3004337294888,-16.9056172982692]]]}},{"type":"Feature","properties":{"id":"74","name":"Comexatibá","people":"Pataxó","state":"BA","municipality":"Prado","phase":"Delimitada"},"geometry":{"type":"Polygon","coordinates":[[[-39.2326544644099,-17.2153214290282],[-39.2330571633153,-17.1659998169757],[-39.2454580538639,-17.163886869333],[-39.2434417168128,-17.1542437517746],[-39.2507394406298,-17.120604359868],[-39.2522354801608,-17.109409377363],[-39.243878408009,-17.0679056688053],[-39.2433176118686,-17.0624731998655],[-39.2456370261486,-17.0612219716634],[-39.2450838764489,-17.05552843305],[-39.2305229012618,-17.0424916214098],[-39.2405289279518,-17.0334601913866],[-39.239074427954,-17.0251360242412],[-39.2360390397489,-17.0229194769859],[-39.2393578497955,-17.0145243524886],[-39.249165462753,-17.0133984670537],[-39.2558527761311,-17.0196546059866],[-39.2601640325759,-17.0167984561852],[-39.2664889135469,-17.0161710678673],[-39.2638442195417,-17.0147417345222],[-39.2602457536317,-17.0096011975176],[-39.2624669505884,-17.0047531932366],[-39.2789932697393,-17.0220995712133],[-39.3048202630989,-17.0399985554084],[-39.3181548205596,-17.0468083026433],[-39.3242288614522,-17.0381911050727],[-39.3338587066444,-17.0384053307976],[-39.3347380792926,-17.0378007766456],[-39.3358922915304,-17.0347229498934],[-39.3346281529229,-17.031150497665],[-39.335507571323,-17.0303809713426],[-39.3355624752197,-17.0282375500827],[-39.3368815962759,-17.0273580960288],[-39.3389701092169,-17.0231260873505],[-39.3436418560995,-17.0200481995037],[-39.3483135597569,-17.0197734123429],[-39.349467703942,-17.0171902346945],[-39.3511165618063,-17.0157612512221],[-39.3553211404202,-17.0151566303199],[-39.3698784563013,-17.016204841877],[-39.3816305778937,-17.0127668927652],[-39.3860252109946,-17.014445260424],[-39.3892179895633,-17.0124902925894],[-39.3895460499304,-17.0105733196876],[-39.3858647659687,-17.0072087367033],[-39.3864789921892,-17.0008344514383],[-39.3925531583127,-16.9954797504987],[-39.3904643067663,-16.9910603444783],[-39.3865510696876,-16.9875967717221],[-39.384107215162,-16.9867485259479],[-39.3828763930104,-16.9884877610357],[-39.3712033374365,-16.9949995556398],[-39.3610152375148,-16.9774118937042],[-39.3576148461263,-16.9792076008416],[-39.340316272823,-16.9812973778151],[-39.3272107999699,-16.981514157178],[-39.3217550737446,-16.979841093536],[-39.3094024473383,-16.9828046482494],[-39.3049812617789,-16.9845192925614],[-39.3040609138734,-16.9865720110118],[-39.3011494644376,-16.9863459589982],[-39.2928269244523,-16.9810922271696],[-39.2860239752736,-16.9797384984543],[-39.2814683799948,-16.9801828659152],[-39.2781499951503,-16.9504488219751],[-39.2744259239806,-16.9392157408612],[-39.2768043072966,-16.9390066684818],[-39.277315194126,-16.9397276222823],[-39.279766271011,-16.9385838858792],[-39.2789430581528,-16.9311926013364],[-39.277119839636,-16.931218340494],[-39.2752198869582,-16.9324186339811],[-39.2738326359967,-16.9309967805921],[-39.2720008584667,-16.9306376458413],[-39.2623312955497,-16.9329101406965],[-39.2553384663722,-16.935585722877],[-39.2501265276277,-16.9357729521447],[-39.246586345935,-16.9340534615163],[-39.2435220885058,-16.9370264962804],[-39.2385180796609,-16.9371437774401],[-39.2366603914762,-16.9381346241211],[-39.2340497086406,-16.9378357132961],[-39.2299697399392,-16.9389739820501],[-39.2204170559091,-16.9378943709251],[-39.2119562482491,-16.9385769069061],[-39.2071727286807,-16.9379438741416],[-39.2054634390298,-16.9369373244721],[-39.2046985766446,-16.9375967427112],[-39.2023247366961,-16.9368532892686],[-39.1962039017664,-16.9377574291813],[-39.1910935472966,-16.9371834623284],[-39.1895135526036,-16.9378532200933],[-39.1875139626647,-16.9372847781429],[-39.1853020999792,-16.9354055758691],[-39.1830511809783,-16.9360363262542],[-39.1813967039193,-16.9347759836771],[-39.1799404757214,-16.9352631089339],[-39.1778087219652,-16.9342244660769],[-39.1768895162559,-16.9342183059056],[-39.1742274886956,-16.9383148300981],[-39.1706129922076,-16.9375799949798],[-39.163376468312,-16.9339204520224],[-39.1606511850698,-16.9334732550976],[-39.1568200450495,-16.9339966393297],[-39.1544764007874,-16.9358037186449],[-39.1493895025084,-16.9379208371532],[-39.1526642636784,-16.9449307593122],[-39.1514773569424,-16.9471705173012],[-39.1547032223574,-16.9614203132287],[-39.153970654191,-16.9685238141156],[-39.155502771002,-16.9801859565367],[-39.1595442758042,-16.9879046119878],[-39.1666975946334,-16.9984458816062],[-39.1731491288261,-17.011055824994],[-39.1746405518234,-17.0105430478353],[-39.1746447941775,-17.009192181604],[-39.1757272378309,-17.007505728231],[-39.1755589869125,-17.007015030625],[-39.174005409908,-17.0073342864812],[-39.1731656674897,-17.0070402107009],[-39.173145271363,-17.0062619390836],[-39.1738693208369,-17.0052840850382],[-39.1749225455277,-17.0047064145917],[-39.175947719947,-17.0049743588657],[-39.1774702993363,-17.007158408168],[-39.1779751982808,-17.0053794502112],[-39.180040242165,-17.0043129074215],[-39.1808893558685,-17.0041712168915],[-39.1814284403808,-17.0043739521792],[-39.1818249480642,-17.0037710814529],[-39.1814832606865,-17.0045271965811],[-39.180516120768,-17.0042641824054],[-39.1780042600865,-17.0055390877139],[-39.1777262728419,-17.0072470861621],[-39.1766809169242,-17.0070326943901],[-39.1751875374356,-17.004859439187],[-39.173251663672,-17.0064960433857],[-39.1737467649001,-17.0071770390858],[-39.1756218085056,-17.0067917829178],[-39.1759555340201,-17.007122089515],[-39.1748657130278,-17.0106055811297],[-39.1735283395537,-17.0117575944983],[-39.1724648891827,-17.0158592497265],[-39.1716588997197,-17.0347968418893],[-39.1744730888111,-17.0483936494146],[-39.1744865147299,-17.0518741379946],[-39.1729798295694,-17.0563988145467],[-39.1707339934861,-17.057540692544],[-39.1699321990225,-17.0588415300994],[-39.1713732505155,-17.0611468021073],[-39.1714334799877,-17.0632435739538],[-39.1753064869359,-17.0664604945058],[-39.175804303114,-17.0656760998719],[-39.1767968485442,-17.0662703253543],[-39.1776838023672,-17.0725454136714],[-39.1803706259384,-17.0797037901519],[-39.1801827230495,-17.0830079221343],[-39.1832180683336,-17.0828371772618],[-39.1855247515292,-17.0808692976159],[-39.1853258277382,-17.0987311030351],[-39.187194795112,-17.1003484599134],[-39.1912134518015,-17.1018039059197],[-39.1933894041132,-17.1044402117118],[-39.1934083764288,-17.1078095081891],[-39.1917570822522,-17.1118872111357],[-39.1928007597934,-17.1127908043235],[-39.1911268360013,-17.119340409628],[-39.2026465633302,-17.1220056148513],[-39.2069546927709,-17.1217195451257],[-39.20678598024,-17.1240028481603],[-39.2034586370963,-17.1248806815168],[-39.2038156343912,-17.1270637143044],[-39.1996624911501,-17.1299759637034],[-39.2016378025916,-17.133533731623],[-39.2024946779292,-17.1372956435828],[-39.2066089520639,-17.1429557911832],[-39.2095473623674,-17.1509531275748],[-39.2123768286905,-17.1624556781508],[-39.2134784953318,-17.1749753983053],[-39.2125356617158,-17.1864030219997],[-39.2144545539011,-17.2057474561864],[-39.2145434802627,-17.2162086888257],[-39.2326544644099,-17.2153214290282]]]}}]}