{"type":"FeatureCollection","features":[{"type":"Feature","properties":{"id":"14","name":"Alto Rio Guamá","people":"Timbira,Tembé","state":"PA","municipality":"Santa Luzia do Pará,Paragominas,Nova Esperança do Piriá,Garrafão do Norte","phase":"Regularizada"},"geometry":{"type":"MultiPolygon","coordinates":[[[[-46.6596433705363,-2.73222602395421],[-46.6550260413255,-2.7291631101243],[-46.6539621255544,-2.72901337624478],[-46.6524153432281,-2.73088740128039],[-46.6524415077058,-2.73311963136942],[-46.6541676333774,-2.73559367778394],[-46.6570372404001,-2.73720583499613],[-46.6586952130543,-2.74052867792008],[-46.6533960652407,-2.74624466866004],[-46.6521943045204,-2.75514058568209],[-46.6505687002657,-2.75856097636599],[-46.6488005502705,-2.75917965680932],[-46.6458858929951,-2.75847453047899],[-46.6435473050072,-2.756291987412],[-46.6414701574765,-2.75081880501255],[-46.6378543666394,-2.75312580619556],[-46.636331058677,-2.7552323179966],[-46.6350798050162,-2.76188450634889],[-46.6318162055621,-2.76810919884813],[-46.6317257461687,-2.76963242384117],[-46.6331982284363,-2.77256028364285],[-46.6378992041952,-2.77735554737276],[-46.6392661424065,-2.78764307159899],[-46.6372624666104,-2.79357547249669],[-46.632575436183,-2.79888375288898],[-46.6296298573779,-2.80101552724932],[-46.6265956645574,-2.80593778980968],[-46.6252663732649,-2.80626521238545],[-46.6163022058838,-2.80413836111047],[-46.6108620192873,-2.80003008843546],[-46.6087997856072,-2.7970448521896],[-46.608571662102,-2.79087139805044],[-46.6076207069915,-2.78879150894317],[-46.6061627910254,-2.78804940437792],[-46.603642710166,-2.78850630275495],[-46.6020727054782,-2.79040362662165],[-46.5997913319665,-2.79632478950323],[-46.6004098533122,-2.80050959026844],[-46.599607268115,-2.80556832502327],[-46.6014781950597,-2.81236734696872],[-46.5998670705448,-2.8180201884527],[-46.5983781818553,-2.82005696332798],[-46.5983805793657,-2.82181259471168],[-46.5972459212785,-2.82072124119843],[-46.5954189028515,-2.82068885195254],[-46.5955220772809,-2.82003765986414],[-46.5977069325151,-2.81958120113737],[-46.5956350010118,-2.81802602329334],[-46.5941295206934,-2.81785852728418],[-46.5931185732297,-2.8212226995309],[-46.5933733068123,-2.81766766148185],[-46.5904113640644,-2.81806331923943],[-46.5900492641923,-2.82131138727775],[-46.5907974281994,-2.82345080716905],[-46.5945110249349,-2.82477112662423],[-46.5949875498674,-2.82656101512614],[-46.5917513553575,-2.82768164313479],[-46.5913980170459,-2.83147249740475],[-46.5890649742999,-2.83342896001949],[-46.5873761764688,-2.83307089767222],[-46.5863916885108,-2.83189793444139],[-46.5860635917159,-2.82866609264296],[-46.5835077518619,-2.82843708829306],[-46.5822041306939,-2.83069445789689],[-46.5841264597485,-2.83273822033141],[-46.5839901600266,-2.83456378086912],[-46.5801532990013,-2.836161913092],[-46.5761474915815,-2.84113212212663],[-46.5785078421809,-2.8421636619297],[-46.5809564593988,-2.84004425607642],[-46.5828295298814,-2.83991371145273],[-46.5854913959538,-2.8415610545625],[-46.587379467457,-2.84391875016874],[-46.5890105665429,-2.84442809309609],[-46.6035525704243,-2.83257182139533],[-46.6124974403615,-2.82893180127131],[-46.6148444266098,-2.82871925330296],[-46.6187627923635,-2.83591068237528],[-46.6139330906623,-2.83861487561968],[-46.6107282488373,-2.84559537711569],[-46.6114636405626,-2.85059379527902],[-46.6104738611106,-2.85392040815504],[-46.6117849507277,-2.85713914727643],[-46.6149615894101,-2.85477448449979],[-46.6168477622984,-2.85572518772858],[-46.6182045557338,-2.85849040184276],[-46.620286519348,-2.85884792504718],[-46.6261434644542,-2.85485161137887],[-46.6334374333854,-2.85307404064285],[-46.6381288632029,-2.85076524303641],[-46.6401413128565,-2.85108792639824],[-46.6408276054955,-2.85397034398825],[-46.639075340581,-2.85776304145378],[-46.6351001735235,-2.85954766992361],[-46.6328438406837,-2.85850448116498],[-46.6313547595991,-2.86035527055954],[-46.6334742587369,-2.86277054672202],[-46.6320859441193,-2.86559544563785],[-46.6352322229388,-2.86729480867182],[-46.6359598580307,-2.86678561353143],[-46.6350796917949,-2.8645150763761],[-46.6361144660025,-2.86050807643613],[-46.640597235401,-2.86123397879684],[-46.640840316477,-2.86494025071067],[-46.6399412494175,-2.87030709047374],[-46.6383293940453,-2.87101190520088],[-46.6357565037666,-2.87008142167318],[-46.6347914988897,-2.87096463368507],[-46.6364771932904,-2.87511721175741],[-46.6408552719878,-2.87542479253912],[-46.6424851015833,-2.87690953312916],[-46.6415994179971,-2.88123772011834],[-46.6387829671072,-2.88152575874819],[-46.6401004747102,-2.88291382476388],[-46.6472436089566,-2.88326962691086],[-46.6486917322391,-2.88241554427625],[-46.6509983962098,-2.87908676169357],[-46.6545707400458,-2.87726565345261],[-46.6664893685486,-2.8752604119556],[-46.67232712519872,-2.876687175208519],[-46.6696,-2.7346],[-46.6633437483127,-2.73259301231955],[-46.6596433705363,-2.73222602395421]]],[[[-46.5891321393959,-2.6575334023838],[-46.5914587254175,-2.66330603160613],[-46.5927838481559,-2.66457422006772],[-46.5947141587422,-2.66441299361264],[-46.5960718806017,-2.6626406630854],[-46.598935646925185,-2.654898588939994],[-46.59700744421579,-2.6527237940107082],[-46.587391347485784,-2.6418779227202784],[-46.5891321393959,-2.6575334023838]]],[[[-46.501531213612,-2.55005631094528],[-46.5034566598264,-2.5554430372089],[-46.500573762879,-2.55848839546368],[-46.4979562140061,-2.55904623393565],[-46.4958932842224,-2.56135218084775],[-46.4918354709739,-2.5626194918762],[-46.489181445295,-2.5647027408311],[-46.4882290610232,-2.57086922293414],[-46.4906680843683,-2.57413489917902],[-46.4923728333121,-2.58007576580328],[-46.4937747191612,-2.57999995028754],[-46.4970178358692,-2.5764300411052],[-46.4988299861889,-2.57583569384383],[-46.5000404326967,-2.57716410023511],[-46.5010605301735,-2.58050756384116],[-46.5026260483754,-2.58086574908161],[-46.5022970103524,-2.57941565542031],[-46.5034741940584,-2.58013434445971],[-46.5058855100015,-2.5865507508574],[-46.5072664499124,-2.58655941287311],[-46.5097949827724,-2.58826408219739],[-46.5108530111429,-2.59200739783949],[-46.509322809312,-2.59550691544408],[-46.5067103891975,-2.61607742927361],[-46.5130733217287,-2.61791904841554],[-46.5190594848896,-2.61799723739724],[-46.5273934850987,-2.62177248931472],[-46.5405569900498,-2.62298958952594],[-46.5480880944604,-2.6254224473308],[-46.5553309362704,-2.63043200567821],[-46.5576618517738,-2.63018490003617],[-46.5619436781549,-2.62668726075961],[-46.5654398897873,-2.62616999023207],[-46.5767098325766,-2.6298303800275793],[-46.503189656018115,-2.5469079225490874],[-46.501531213612,-2.55005631094528]]],[[[-46.4989807140879,-2.54606046572073],[-46.5004696938168,-2.54652612133842],[-46.5013866765691,-2.54560789007273],[-46.50234720926104,-2.545957737733688],[-46.497839851749276,-2.5408739474178135],[-46.4989807140879,-2.54606046572073]]],[[[-46.436623880873,-2.48438262866639],[-46.4303761881635,-2.49040936455502],[-46.4289781169597,-2.49397617466971],[-46.42942335279,-2.49657594050343],[-46.4365174512244,-2.50563148563771],[-46.4370383276908,-2.50912201987713],[-46.4363216097257,-2.51487047979105],[-46.4336684506811,-2.51866208439295],[-46.4295391105042,-2.5211918276222],[-46.4183991380671,-2.52462104948904],[-46.4178132470111,-2.5283362254469],[-46.4201030116104,-2.53019142640585],[-46.4307329348465,-2.5331507512537],[-46.4405581581346,-2.53379913701527],[-46.4515589900198,-2.53794715146986],[-46.4571679431242,-2.53816329858931],[-46.4619666068274,-2.53994137357103],[-46.4669493301905,-2.5430523275746],[-46.4720417851075,-2.54378902571444],[-46.4752872382732,-2.54222518102513],[-46.4800838731181,-2.54221966197752],[-46.4811892472388,-2.54080659728701],[-46.4841315895605,-2.53211179442003],[-46.4873042678851,-2.5314397784128],[-46.49080008564555,-2.5329338861622452],[-46.45932509966691,-2.497433656040056],[-46.44026839249662,-2.4759398421786054],[-46.4402344696366,-2.47954991757224],[-46.436623880873,-2.48438262866639]]]]}},{"type":"Feature","properties":{"id":"9","name":"Apinayé","people":"Apinayé","state":"TO","municipality":"Maurilândia do Tocantins,Itaguatins,Cachoeirinha,São Bento do Tocantins,Tocantinópolis","phase":"Regularizada"},"geometry":{"type":"Polygon","coordinates":[[[-47.4311335978993,-6.03703843740293],[-47.43241202463485,-6.054791239746466],[-47.435541570771186,-6.035537727646828],[-47.43758273953843,-6.022980102404874],[-47.4311335978993,-6.03703843740293]]]}}]}