{"type":"FeatureCollection","features":[{"type":"Feature","properties":{"id":"187","name":"Pitaguary","people":"Pitaguari","state":"CE","municipality":"Pacatuba,Maracanaú","phase":"Declarada"},"geometry":{"type":"Polygon","coordinates":[[[-38.62493609,-3.90832839],[-38.62385747,-3.90645278999999],[-38.62158696,-3.90711416],[-38.6275763,-3.93019463],[-38.62655973,-3.93154314000002],[-38.628272,-3.933364],[-38.633230905672,-3.93548503710239],[-38.63509302896,-3.940933509342],[-38.638459946958,-3.94632880875122],[-38.641266420728,-3.95302278103501],[-38.641061336072,-3.95589782529502],[-38.639393149309,-3.95864177854521],[-38.638776370027,-3.9586582455649],[-38.638873002741,-3.95766993564671],[-38.632725486533,-3.95558350149591],[-38.629239768868,-3.95037756454021],[-38.627024128931,-3.95095356753341],[-38.622278131726,-3.94687271724431],[-38.618354,-3.94059],[-38.61001665,-3.94026491000001],[-38.60939245,-3.94132796],[-38.6100879,-3.94122606000001],[-38.61198353,-3.94928559000001],[-38.61374607,-3.95012242000001],[-38.61502388,-3.95197135],[-38.61680178,-3.95252239000001],[-38.64079536,-3.97275878000001],[-38.64273437,-3.96770638],[-38.64342431,-3.96788599000001],[-38.64369508,-3.95233791],[-38.65048933,-3.94941871000001],[-38.64781042,-3.94507703],[-38.64983274,-3.94450432000001],[-38.6514077,-3.94117524],[-38.654264,-3.94177170999999],[-38.65428799,-3.93624505],[-38.65525637,-3.93349940000002],[-38.65150946,-3.93431431],[-38.64976128,-3.93228873000001],[-38.64741229,-3.92684692],[-38.64958853,-3.92598442000001],[-38.64285619,-3.91993046000001],[-38.63393628,-3.91436728],[-38.62852037,-3.91637118],[-38.62831209,-3.90887623],[-38.63498041,-3.90879014000002],[-38.63542234,-3.90559231000001],[-38.63469855,-3.90361184000001],[-38.62493609,-3.90832839]]]}},{"type":"Feature","properties":{"id":"270","name":"Tremembé da Barra do Mundaú","people":"Tremembé","state":"CE","municipality":"Itapipoca","phase":"Declarada"},"geometry":{"type":"Polygon","coordinates":[[[-39.395249754013,-3.17794140555509],[-39.388752727791,-3.17977341114341],[-39.384305666,-3.18257327218341],[-39.379272321821,-3.18451275956572],[-39.382849512619,-3.18532681636282],[-39.390545875921,-3.18273734205601],[-39.395953527748,-3.18542982909781],[-39.39659607,-3.18371910000002],[-39.39803287,-3.18329219000001],[-39.400092852107,-3.18494494406221],[-39.401006617632,-3.18881644884891],[-39.403450752807,-3.1901280255348],[-39.40414975481,-3.1894245122717],[-39.404342330292,-3.1850404700925],[-39.406477844728,-3.1837863304928],[-39.407995529872,-3.18423658589631],[-39.409027694886,-3.18562877782399],[-39.409490919256,-3.1935411370332],[-39.408113483427,-3.1970238422761],[-39.406085221754,-3.1993248988512],[-39.407963557236,-3.20112432642941],[-39.408372129857,-3.20439398654672],[-39.40987412625,-3.20717874522321],[-39.414032332107,-3.20274465613261],[-39.417122421141,-3.20081041495251],[-39.422825653618,-3.2002051432026],[-39.42880283965,-3.20350420633091],[-39.430234732167,-3.20498792900109],[-39.430829300316,-3.2077142024567],[-39.437825481389,-3.2060290023363],[-39.441003948774,-3.20751881203411],[-39.442819240506,-3.20495471335881],[-39.447951700157,-3.20372393416811],[-39.44919113,-3.20418075],[-39.44955812,-3.20556127],[-39.447719618183,-3.2081475022457],[-39.451637673708,-3.2092988092452],[-39.453087464805,-3.21122606760801],[-39.456170902196,-3.2097237873373],[-39.458261617885,-3.21171353911902],[-39.46174277,-3.21170486],[-39.462558677185,-3.21132569545092],[-39.461996825071,-3.2100694229173],[-39.455207598984,-3.20846412009212],[-39.454431681725,-3.20712679978731],[-39.461451885494,-3.2046744177044],[-39.464708020913,-3.20490156207482],[-39.469603036038,-3.20019971677481],[-39.458053102823,-3.15737332077041],[-39.423283596412,-3.1575484356274],[-39.422859666817125,-3.1568285387293504],[-39.408991470845265,-3.165256321570392],[-39.40136266879,-3.17390300551982],[-39.395249754013,-3.17794140555509]]]}},{"type":"Feature","properties":{"id":"1407","name":"Lagoa  Encantada","people":"Kanindé","state":"CE","municipality":"Aquiraz","phase":"Declarada"},"geometry":{"type":"Polygon","coordinates":[[[-38.2549407561026,-3.9980698470012],[-38.2524399099157,-4.00389746128213],[-38.2546622207243,-4.00723308241893],[-38.2635557901413,-4.0047313652986],[-38.2707790582385,-4.00473469236681],[-38.2782773142214,-3.98973384887075],[-38.2807579603688,-3.98999759072776],[-38.2813341519111,-3.98862235135164],[-38.2841081616183,-3.98862128574501],[-38.2868839895792,-3.98667646919705],[-38.299105741365,-3.98667530765909],[-38.298275217143,-3.98306861385227],[-38.3007789438658,-3.98307115967526],[-38.2974407145346,-3.97223557448109],[-38.2832719145626,-3.97001391930077],[-38.2868858273763,-3.9577901505536],[-38.2850144009493,-3.95769484549532],[-38.2843911795301,-3.95778802159675],[-38.2846668863551,-3.95890005079259],[-38.2837367388658,-3.95809853248558],[-38.280173731117,-3.95978517767377],[-38.2768150238092,-3.96254757552204],[-38.27461526611,-3.96266408365506],[-38.2711688837681,-3.9643701204389],[-38.2682719529131,-3.96421231245747],[-38.2649908980677,-3.9666795440515],[-38.262825842299065,-3.966589134578999],[-38.24831255177599,-3.9815008291556535],[-38.2471656610384,-3.98390338499024],[-38.2549407561026,-3.9980698470012]]]}},{"type":"Feature","properties":{"id":"1716","name":"Tremembé de Queimadas","people":"Tremembé","state":"CE","municipality":"Acaraú","phase":"Declarada"},"geometry":{"type":"Polygon","coordinates":[[[-40.0283935188831,-3.08001524699387],[-40.0143509173338,-3.07922962974073],[-40.012193194035,-3.09731827518374],[-40.0072000938204,-3.1026720627031],[-40.0113577474778,-3.10393754573738],[-40.0105291888675,-3.11404310782877],[-40.0190830341148,-3.11422407527523],[-40.016896902212,-3.11153492836049],[-40.0168949279996,-3.10967318172981],[-40.0174706424384,-3.10968062151944],[-40.0172998498402,-3.09826218795524],[-40.0207541017227,-3.09830665778163],[-40.0207298929225,-3.10011540385786],[-40.040550422885,-3.10010705640684],[-40.0405921083566,-3.09631352922753],[-40.0423282272059,-3.09633583206016],[-40.0438542034213,-3.09255253740959],[-40.0446504626683,-3.09288771191764],[-40.0453664005777,-3.09114913500487],[-40.0324441095183,-3.08527492009864],[-40.0342434092881,-3.08189921037775],[-40.0328964402807,-3.08103009856205],[-40.0326798087588,-3.07837508759496],[-40.0283935188831,-3.08001524699387]]]}},{"type":"Feature","properties":{"id":"121","name":"Tapeba","people":"Tapeba","state":"CE","municipality":"Caucaia","phase":"Declarada"},"geometry":{"type":"MultiPolygon","coordinates":[[[[-38.6882515,-3.77950022],[-38.68825134,-3.77950010999999],[-38.68825105,-3.77950076],[-38.6882515,-3.77950022]]],[[[-38.68647492,-3.72023478],[-38.68343441,-3.72121400000001],[-38.68454817,-3.72892335000001],[-38.68361943,-3.72915652000001],[-38.68334043,-3.72817484000001],[-38.6812607,-3.72840279],[-38.67938916,-3.72144911000001],[-38.67480727,-3.72612009000001],[-38.67613442,-3.73125517000001],[-38.67464666,-3.73160698999999],[-38.67525891,-3.73466956000002],[-38.68199254,-3.7342746],[-38.68460476,-3.73335413],[-38.68372666,-3.72972515000002],[-38.69010615,-3.73116351],[-38.68967616,-3.72671903],[-38.69067827,-3.72705231000001],[-38.69059247,-3.72596187],[-38.68978595,-3.72616188],[-38.6895269,-3.72529130000001],[-38.68823524,-3.72578923000002],[-38.68687641,-3.72015667000001],[-38.69083803,-3.72008569],[-38.69431509,-3.71835454],[-38.69323429,-3.71564582000002],[-38.68598554,-3.71774194],[-38.68647492,-3.72023478]]],[[[-38.68835311,-3.77439823],[-38.68755677,-3.77296529000002],[-38.69305557,-3.77166668999999],[-38.69558338,-3.77888891000001],[-38.69825003,-3.78086114000001],[-38.70175003,-3.77991669],[-38.70561114,-3.78252775000002],[-38.70647222,-3.78197219999999],[-38.71480315,-3.79545763],[-38.71583677,-3.79581475],[-38.71655419,-3.79517201],[-38.71704563,-3.79597286000001],[-38.71920598,-3.79479323000001],[-38.72002777,-3.79349998000002],[-38.71136107,-3.78369446],[-38.7129599,-3.78323125999999],[-38.71469449,-3.78402777],[-38.72095937,-3.78030352],[-38.72280557,-3.78016669000001],[-38.72058332,-3.77366665999999],[-38.74399996,-3.77669445000002],[-38.74291212,-3.77174759000002],[-38.74341489,-3.76605819],[-38.74085097,-3.76210532000001],[-38.74056794,-3.75774656],[-38.73763893,-3.74908333999999],[-38.74047223,-3.74883332000001],[-38.73883329,-3.74602777000001],[-38.74319448,-3.74491667],[-38.74241668,-3.74294441000001],[-38.74538884,-3.74077775000001],[-38.74330557,-3.73700000000002],[-38.73783342,-3.73982614000001],[-38.73641667,-3.73522224],[-38.73466666,-3.73502774],[-38.73183329,-3.73652775],[-38.73097221,-3.742],[-38.72094446,-3.74477775999999],[-38.71958332,-3.74311108000001],[-38.71736106,-3.74313886],[-38.71455551,-3.74119442],[-38.71325002,-3.74236112],[-38.71292669,-3.73941030999999],[-38.71208337,-3.73755553000001],[-38.71150005,-3.73791666],[-38.71111116,-3.73302782000001],[-38.7091667,-3.73319445000001],[-38.70886108,-3.71255558],[-38.70718651,-3.71175782000001],[-38.70666569,-3.71243941000002],[-38.70436108,-3.71063887000001],[-38.69447223,-3.70788889000001],[-38.69219442,-3.70527773],[-38.69144443,-3.70199999],[-38.70013891,-3.68733331],[-38.70203758,-3.68724303000001],[-38.70344924,-3.68312186000001],[-38.70292035,-3.6777638],[-38.70155554,-3.6756111],[-38.69733948,-3.67774672],[-38.6948329,-3.67809181],[-38.69214976,-3.68017409],[-38.68947399,-3.68018411],[-38.68937313,-3.67890893000001],[-38.69020568,-3.67854879000001],[-38.68952262,-3.67548974000001],[-38.69082452,-3.67378613000001],[-38.6898423,-3.67315704000002],[-38.68813227,-3.67620095999999],[-38.68513419,-3.67760198000001],[-38.68401496,-3.68014663000001],[-38.67846452,-3.68087951000001],[-38.67808608,-3.67983280000002],[-38.67925,-3.67844449],[-38.67660583,-3.67802103999999],[-38.67443019,-3.67958399000002],[-38.67117555,-3.68483934000001],[-38.67155558,-3.68527779000001],[-38.67476836,-3.68272462],[-38.67858334,-3.68352782000001],[-38.67880557,-3.68958329000002],[-38.68016666,-3.69297226000001],[-38.68352781,-3.69255559],[-38.68688885,-3.70630557000001],[-38.69066665,-3.70999999],[-38.69330559,-3.71469448000002],[-38.69541663,-3.71391665000002],[-38.6969167,-3.71697218000001],[-38.69761107,-3.72130557000001],[-38.6950833,-3.72163887999999],[-38.69573104,-3.72354826000001],[-38.70069545,-3.72265704000001],[-38.70086591,-3.72427639],[-38.70391664,-3.72369445000001],[-38.70430555,-3.72488885000002],[-38.70550002,-3.72466670000001],[-38.70550002,-3.73305553000001],[-38.70355559,-3.73313892],[-38.70377779,-3.73627779],[-38.70288892,-3.73633330000001],[-38.70288891,-3.73475002000002],[-38.70236109,-3.73475002000002],[-38.70188889,-3.73699998000001],[-38.69775003,-3.73711111000001],[-38.69799998,-3.73830555],[-38.69080559,-3.73919442000002],[-38.69183329,-3.74519444000001],[-38.6869167,-3.74547223000002],[-38.68641671,-3.74038884000001],[-38.68374997,-3.74083335000001],[-38.68136114,-3.73455555],[-38.6803333,-3.73463885000001],[-38.68100001,-3.73955557000001],[-38.67661108,-3.73866665000002],[-38.67661109,-3.74305552000001],[-38.67563886,-3.74275001000001],[-38.67527779,-3.73963886999999],[-38.67438892,-3.73966667000001],[-38.67402778,-3.73752779000002],[-38.67219447,-3.73786111000002],[-38.6718611,-3.7351389],[-38.67030554,-3.73519441000001],[-38.67219441,-3.74238894000001],[-38.6721389,-3.74369445000001],[-38.67094442,-3.74383332999999],[-38.67172219,-3.74736114],[-38.66575001,-3.74911114000001],[-38.66252782,-3.74752780000001],[-38.65686115,-3.74777781000001],[-38.65563888,-3.74688885000002],[-38.64633337,-3.74736108000001],[-38.64558338,-3.74533331000001],[-38.64230555,-3.74608330000001],[-38.63786111,-3.74288887],[-38.63694269,-3.73945399],[-38.63437848,-3.73950416000001],[-38.62610297,-3.70557906000002],[-38.63087827,-3.70271749000001],[-38.62875025,-3.70232987000002],[-38.6273185,-3.70406134999999],[-38.62586881,-3.70242057],[-38.62429975,-3.70282311000001],[-38.62230827,-3.70147882],[-38.62320187,-3.70251795000001],[-38.62319312,-3.70425265999999],[-38.62169575,-3.70949325000002],[-38.62055474,-3.71044122],[-38.61838476,-3.71058593],[-38.62099999,-3.71713889000001],[-38.61883094,-3.7196951],[-38.61727309,-3.71885434000001],[-38.61704657,-3.71999323],[-38.61819689,-3.72089722000001],[-38.61736347,-3.72228011],[-38.61634007,-3.72088800000002],[-38.61499785,-3.72266754],[-38.61339355,-3.72243732],[-38.61155553,-3.72369446000002],[-38.61502781,-3.73330551000001],[-38.61733338,-3.73252776999999],[-38.61905552,-3.73436112000002],[-38.62011108,-3.73766662],[-38.62541671,-3.74172221],[-38.62744445,-3.74163885000001],[-38.62900002,-3.74672224000001],[-38.63108337,-3.74891669000001],[-38.63072222,-3.74961114000001],[-38.64691669,-3.75783329000002],[-38.6513457,-3.75570303],[-38.65352776,-3.75125000000001],[-38.65688891,-3.75233332],[-38.66097221,-3.74977776],[-38.66161108,-3.75258332],[-38.66283694,-3.75234614000002],[-38.66630555,-3.75511108],[-38.66894447,-3.75475004],[-38.67266665,-3.75816669000001],[-38.67208333,-3.75891663000001],[-38.6758687,-3.76198816],[-38.67588888,-3.76344443000001],[-38.67900003,-3.76277775000001],[-38.67936109,-3.76569448],[-38.6753611,-3.77227778],[-38.68825134,-3.77950010999999],[-38.68835311,-3.77439823]]]]}},{"type":"Feature","properties":{"id":"232","name":"Tremembé de Almofala","people":"Tremembé","state":"CE","municipality":"Itarema","phase":"Delimitada"},"geometry":{"type":"Polygon","coordinates":[[[-39.80095665,-2.96680898000001],[-39.79655799,-2.96540290000002],[-39.79521093,-2.96384195],[-39.79613814,-2.95686987000001],[-39.79579348,-2.95361941000002],[-39.79472318758782,-2.9534452756088028],[-39.784963272898004,-2.959198070852801],[-39.76898800171953,-2.9686143892303596],[-39.77159834,-2.98367982],[-39.8077921,-3.01220273000002],[-39.83007481,-2.9931193],[-39.85282452,-2.98634103000002],[-39.87668383,-2.98550773000001],[-39.84442359,-2.96272687000001],[-39.84292968,-2.96069000000002],[-39.83781309,-2.95845017000002],[-39.83596708,-2.95511908000001],[-39.83124098,-2.95537627],[-39.825359235551964,-2.935387442459209],[-39.80880841271703,-2.9451430087643526],[-39.798498920488306,-2.951219741988598],[-39.80301899,-2.96939666999999],[-39.80095665,-2.96680898000001]]]}},{"type":"Feature","properties":{"id":"34","name":"Taba dos Anacé","people":"Anacé","state":"CE","municipality":"São Gonçalo do Amarante,Caucaia","phase":"Encaminhada RI"},"geometry":{"type":"Polygon","coordinates":[[[-38.7108970259757,-3.68952601134317],[-38.708870866474,-3.69200227714826],[-38.7114396315228,-3.69413264930542],[-38.7106464350695,-3.6950182551255],[-38.7080631497897,-3.69295382718582],[-38.708345833433,-3.69375013095454],[-38.707650300252,-3.69338477191115],[-38.7071972272358,-3.69399826790788],[-38.7121135920544,-3.69801232708052],[-38.7110915609673,-3.69864346185123],[-38.7170062590523,-3.70844697605201],[-38.7156253846357,-3.714051580798],[-38.7189937605099,-3.71324016702695],[-38.7209270913817,-3.71452298839442],[-38.7212085257723,-3.71284631706561],[-38.7304712261194,-3.71968706751174],[-38.7364904088478,-3.71655536154095],[-38.7379441770144,-3.71405986362392],[-38.7479393011516,-3.71031557837634],[-38.7467188620949,-3.70787574663208],[-38.7388029340759,-3.7054782867264],[-38.7395656240695,-3.70384763807105],[-38.7343455912311,-3.70082290096529],[-38.7255372965755,-3.70501151524824],[-38.7203785167019,-3.69691180902054],[-38.7176605197753,-3.6972952547872],[-38.7108970259757,-3.68952601134317]]]}},{"type":"Feature","properties":{"id":"1265","name":"Córrego João Pereira","people":"Tremembé","state":"CE","municipality":"Itarema,Acaraú","phase":"Regularizada"},"geometry":{"type":"Polygon","coordinates":[[[-39.9273278151731,-3.11837940336909],[-39.9393663581845,-3.12101193811771],[-39.9395802531924,-3.11917115906107],[-39.9405520164781,-3.11916626265305],[-39.9480656727842,-3.12174864887089],[-39.9498575615242,-3.123633206881],[-39.9538204906368,-3.1253178460749],[-39.9625894000014,-3.12490540214953],[-39.9653173869523,-3.12410686983005],[-39.9720586456911,-3.12659163771749],[-39.9806509714258,-3.12792405987774],[-39.9843776880439,-3.13110726537229],[-39.9828770911932,-3.11899697926538],[-39.9889885873745,-3.11415039119312],[-39.9915127854019,-3.11311186139813],[-40.0099986235214,-3.11869919250223],[-40.0113578652531,-3.10392876576054],[-39.9704355409977,-3.09013344143045],[-39.9298827019896,-3.07832997857907],[-39.9290361053194,-3.08108430401633],[-39.9265969673999,-3.08115822539442],[-39.9273278151731,-3.11837940336909]]]}}]}