{"type":"FeatureCollection","features":[{"type":"Feature","properties":{"id":"1336","name":"Jacaré de São Domingos","people":"Potiguara","state":"PB","municipality":"Rio Tinto,Marcação","phase":"Regularizada"},"geometry":{"type":"Polygon","coordinates":[[[-35.0558041926598,-6.77070042180372],[-35.1337274510318,-6.75025506849744],[-35.0951509979728,-6.6918236409427],[-35.037809890398,-6.73362775791396],[-35.0558041926598,-6.77070042180372]]]}},{"type":"Feature","properties":{"id":"1526","name":"Potiguara","people":"Potiguara","state":"PB","municipality":"Rio Tinto,Marcação,Baía da Traição","phase":"Regularizada"},"geometry":{"type":"Polygon","coordinates":[[[-34.9316927034695,-6.72052491997557],[-34.9340305004909,-6.72630178082837],[-34.9343217089729,-6.73064201001428],[-34.9332364625748,-6.73419590433383],[-34.9291910912553,-6.73944696098237],[-34.9289739335911,-6.74087441156524],[-34.9329663425423,-6.74332108492191],[-34.9354809799161,-6.74716272158895],[-34.9371904295278,-6.75188385383177],[-34.9402921357786,-6.75330273133193],[-34.9407572883333,-6.75433219105719],[-34.9337975589759,-6.75687017251165],[-34.933906621435,-6.75928180922335],[-34.9345860146554,-6.76006480358395],[-34.9357934227592,-6.75975794699242],[-34.9346509695817,-6.76113943813574],[-34.9332962904853,-6.76108609318311],[-34.932305723587,-6.765257514648],[-34.9326640297634,-6.76703572054316],[-34.9362167881526,-6.76851689341199],[-34.9388399873003,-6.76627419442271],[-34.9446347467423,-6.76362040213576],[-34.9512407005787,-6.76372411542333],[-34.9546048711444,-6.76661391212269],[-34.9558897151988,-6.77068681989489],[-34.9564566114745,-6.77638792634458],[-34.9552315451264,-6.78126642098085],[-34.9569764158917,-6.7833128699964],[-34.9593617800414,-6.78436201984226],[-34.9930283206974,-6.76634239752817],[-35.0951509979728,-6.6918236409427],[-35.0630677343741,-6.64261959583662],[-35.0182586937513,-6.61765475399891],[-35.0101057886916,-6.60539171490366],[-35.0089283693528,-6.60133632712776],[-35.0073422553517,-6.59998803943149],[-35.0065015181767,-6.59610884173918],[-34.9997862424845,-6.596459187648],[-34.9931213638642,-6.59580569517435],[-34.9929747316844,-6.5942746543546],[-34.991468520758,-6.59491481281021],[-34.9920051726995,-6.59577263238584],[-34.9901120399069,-6.59602145459941],[-34.9912890631923,-6.59666122350882],[-34.9900135312905,-6.59726328991855],[-34.9893229062094,-6.59619158684097],[-34.9886271352588,-6.5970884298261],[-34.9876254169518,-6.5961789806346],[-34.9883872817723,-6.59741661769374],[-34.9874579662828,-6.59781435373846],[-34.9867407782568,-6.59558344832613],[-34.9861090769285,-6.59646397474756],[-34.9865526018787,-6.59795031226679],[-34.9854163299838,-6.59795500152548],[-34.9855449919873,-6.59904926305644],[-34.9840991812324,-6.59899695739229],[-34.9831430568365,-6.59805903576865],[-34.9818026639841,-6.60014755269355],[-34.9803011368109,-6.59927014096867],[-34.9784524584295,-6.60142332952832],[-34.9763393378668,-6.60074407632846],[-34.9759254840007,-6.59831080180039],[-34.974590153739,-6.59895313476774],[-34.9756197299356,-6.60049569200345],[-34.9748177749857,-6.60147158583692],[-34.9733423077049,-6.60061506774508],[-34.971591406393,-6.60175618917151],[-34.9696331512831,-6.59958869138724],[-34.9690795381167,-6.60031500528323],[-34.9698678854773,-6.60277321248215],[-34.9689306880354,-6.60441221597342],[-34.967229410764,-6.60502050805054],[-34.964663470507915,-6.604087396595954],[-34.9636375491791,-6.62889922381151],[-34.961821513842,-6.63700857537583],[-34.9617595330003,-6.64080948720296],[-34.9599286297308,-6.64521792761624],[-34.9581903625236,-6.65741226455085],[-34.9564720809496,-6.66355264330236],[-34.9539528491119,-6.67064058380061],[-34.9513962472071,-6.67526500573337],[-34.9544156647059,-6.67715995872862],[-34.9475495912962,-6.68563950781373],[-34.9426161972372,-6.69668815528514],[-34.9435412205784,-6.70428795989751],[-34.93665013336616,-6.702928484660309],[-34.9316927034695,-6.72052491997557]]]}},{"type":"Feature","properties":{"id":"1527","name":"Potiguara de Monte-Mor","people":"Potiguara","state":"PB","municipality":"Rio Tinto,Marcação","phase":"Declarada"},"geometry":{"type":"Polygon","coordinates":[[[-34.9593617800414,-6.78436201984226],[-34.9651577217246,-6.78720298615849],[-34.9719533241942,-6.79305803307148],[-34.9741116976829,-6.79286056810258],[-34.9757927790892,-6.79156085013894],[-34.9805721296608,-6.78389399442295],[-34.9849652139836,-6.78388162045576],[-34.9879025976014,-6.78652869530697],[-34.9923210958654,-6.78509888429943],[-34.9948401181078,-6.78519148169959],[-34.9975554811491,-6.78793755993133],[-34.9967842846164,-6.79422305538402],[-34.9989759022708,-6.79677833216686],[-35.002660386855,-6.79687868750717],[-35.0062474192391,-6.79485719347128],[-35.0085708283541,-6.79446414340517],[-35.0119938501495,-6.79644503219975],[-35.0170138934353,-6.79733155168079],[-35.0216361746856,-6.79420328003852],[-35.0253706030062,-6.79390973564875],[-35.0280335436249,-6.79864128993661],[-35.0273619020742,-6.80129106752561],[-35.0235701521545,-6.80371315886829],[-35.0248841237536,-6.80516314376497],[-35.0261172830043,-6.8054089949547],[-35.0326995368007,-6.80302276706642],[-35.0416379267433,-6.80463972236977],[-35.0439114002546,-6.80592315763192],[-35.0458452492846,-6.809110094139],[-35.0482303192107,-6.8096794791889],[-35.0497894135205,-6.81101929720677],[-35.0588033961338,-6.80546529575977],[-35.0619624962564,-6.80642534622218],[-35.064413525619,-6.80822975847218],[-35.0650263952006,-6.81175835047799],[-35.0659110586049,-6.81214821194528],[-35.0705904431405,-6.8095065693667],[-35.071846888586,-6.8061109838165],[-35.0733619729044,-6.80561087393535],[-35.0747851785754,-6.80360933442842],[-35.0757652944703,-6.80156939294546],[-35.075641217557,-6.7992336976969],[-35.0782242845665,-6.79428653602133],[-35.0833901753447,-6.79683021700896],[-35.0877417564995,-6.79779850457239],[-35.1110509041064,-6.79205087492273],[-35.124321353702,-6.78625629945544],[-35.1332475874149,-6.7739030109221],[-35.1337274510318,-6.75025506849744],[-35.0558041926598,-6.77070042180372],[-35.037809890398,-6.73362775791396],[-34.9930283206974,-6.76634239752817],[-34.9593617800414,-6.78436201984226]]]}}]}