{"type":"FeatureCollection","features":[{"type":"Feature","properties":{"id":"1733","name":"Xukuru de Cimbres","people":"Xucuru","state":"PE","municipality":"Pesqueira,Pedra,Alagoinha,Venturosa","phase":"Regularizada"},"geometry":{"type":"Polygon","coordinates":[[[-36.8127538297737,-8.4264145255408],[-36.8227569150742,-8.42550794270204],[-36.825159179579,-8.43244670476185],[-36.8280903200895,-8.43634840366951],[-36.8251805758284,-8.44176441364489],[-36.8276289810513,-8.45027413124434],[-36.8272783558064,-8.4521834575113],[-36.8280487270237,-8.45183448974781],[-36.8308415824271,-8.45657142178812],[-36.8352646460928,-8.45406184127342],[-36.841720406404,-8.45422040689921],[-36.8367416109489,-8.44318574148508],[-36.8391712522216,-8.43813059658152],[-36.8391300913845,-8.43163700493881],[-36.8452113116177,-8.41760760213265],[-36.8448593011857,-8.41534798310762],[-36.8439828137659,-8.41503397286796],[-36.8394390584829,-8.40498923324612],[-36.8364595371609,-8.40194392075784],[-36.819843514065,-8.40499354441591],[-36.8127538297737,-8.4264145255408]]]}},{"type":"Feature","properties":{"id":"1663","name":"Xukuru","people":"Xucuru","state":"PE","municipality":"Poção,Pesqueira","phase":"Regularizada"},"geometry":{"type":"Polygon","coordinates":[[[-36.7850773998459,-8.25366418418679],[-36.7820090191192,-8.25300068449714],[-36.7800795849744,-8.25389165605555],[-36.7776329975126,-8.25700533132908],[-36.7604512222355,-8.25725023210862],[-36.7525748075087,-8.25927311638764],[-36.7408267789323,-8.25868430309096],[-36.7300675853606,-8.25711393103287],[-36.7155752757707,-8.25917431602484],[-36.6991080755793,-8.26312686882375],[-36.6949355295453,-8.26257305258775],[-36.690613928277,-8.25805517499981],[-36.6858666465511,-8.26988790402273],[-36.6846668713695,-8.26989878466403],[-36.6828009695085,-8.2647205369803],[-36.6584638045675,-8.2729334983377],[-36.6463304074709,-8.27946896599146],[-36.6327398273767,-8.28405514495688],[-36.6339838770629,-8.2898993181408],[-36.636640148927,-8.29465088787896],[-36.6376570774785,-8.3034989178168],[-36.6417374145511,-8.30830153911375],[-36.6485794298321,-8.31151381991215],[-36.6631015399282,-8.32571536396609],[-36.6709467715203,-8.33125637426218],[-36.6744202782388,-8.33801785334505],[-36.6786927443096,-8.34018836517993],[-36.6814995172352,-8.35002275742274],[-36.6860195811799,-8.35174488016066],[-36.6931184518594,-8.35011057573463],[-36.6962563952785,-8.34704589684453],[-36.6973984583655,-8.3471109696431],[-36.6987021250696,-8.3484213460157],[-36.7021423054635,-8.34931005406026],[-36.7042363674488,-8.35262831617751],[-36.7032059104155,-8.35611040939785],[-36.7064160558564,-8.35806363827676],[-36.7096196308959,-8.35876068519303],[-36.7106349079283,-8.35781572610189],[-36.7215184255125,-8.36209958131009],[-36.7343897337131,-8.36483815070994],[-36.7378152694124,-8.36344804358994],[-36.7501620630035,-8.36853826744766],[-36.7423520980299,-8.37642439700681],[-36.7470481844251,-8.37908130386001],[-36.7515292745033,-8.37946810258479],[-36.7631902664716,-8.38545759904428],[-36.7659583434364,-8.38474167925841],[-36.7721239688617,-8.38866466085342],[-36.775988589292,-8.38841913082036],[-36.7762088585427,-8.38757055238388],[-36.7772543473538,-8.38736301195263],[-36.7783456310798,-8.38734800490101],[-36.7789307396047,-8.38827360575982],[-36.7818366967391,-8.38692213229531],[-36.7839185062685,-8.38771103857517],[-36.7863055289286,-8.38677971176964],[-36.8362882068511,-8.39106818601557],[-36.8411747313906,-8.3951549638129],[-36.843771290989,-8.39360781599977],[-36.8472766543472,-8.39447342399456],[-36.850723771568,-8.39260626983084],[-36.8558202965222,-8.39285339146641],[-36.8578643483633,-8.39448149150128],[-36.8838149342355,-8.37060427336047],[-36.9003375135044,-8.34079863585038],[-36.8643316480641,-8.32160033142897],[-36.8571713292592,-8.2929437220111],[-36.8570339733117,-8.28746878378242],[-36.8553457835597,-8.28009254053622],[-36.8536401488747,-8.28329867835465],[-36.8460696801126,-8.29148955334056],[-36.8439099145839,-8.29692148664834],[-36.8380357432502,-8.30027593961546],[-36.8307482595558,-8.29805114326263],[-36.8241939094491,-8.2922341388604],[-36.8170971889011,-8.29346646839589],[-36.7982724339428,-8.29039266899924],[-36.7935259677405,-8.28093371979827],[-36.7898285943682,-8.27706390215332],[-36.7969671048699,-8.25249842747298],[-36.7850773998459,-8.25366418418679]]]}},{"type":"Feature","properties":{"id":"1285","name":"Tuxá de Inajá","people":"Tuxá","state":"PE","municipality":"Inajá","phase":"Regularizada"},"geometry":{"type":"Polygon","coordinates":[[[-37.6877200807193,-8.7844372309432],[-37.7073575454954,-8.76666247091464],[-37.7052976864124,-8.76288656980705],[-37.6840660964451,-8.78213548320696],[-37.6877200807193,-8.7844372309432]]]}},{"type":"Feature","properties":{"id":"1365","name":"Kapinawá","people":"Kapinawá","state":"PE","municipality":"Buíque","phase":"Regularizada"},"geometry":{"type":"Polygon","coordinates":[[[-37.3722727776822,-8.57132763355451],[-37.3606206554624,-8.57631111883444],[-37.3591764683304,-8.57790227443849],[-37.3520721203386,-8.58040579222689],[-37.3479418618122,-8.58086016307085],[-37.3433767901104,-8.58371189050831],[-37.3355231483785,-8.5836553348342],[-37.3344559096592,-8.58697341636571],[-37.3299733058045,-8.58960222047159],[-37.3263432846702,-8.58944270498144],[-37.3182322995513,-8.59086050340045],[-37.3146555997133,-8.59295315736781],[-37.306413389513,-8.59122028205293],[-37.2915041940738,-8.59881722923519],[-37.286092050174,-8.59865243610592],[-37.2842840707314,-8.60265094374012],[-37.2796763011114,-8.60702763284577],[-37.2773135520964,-8.61202771776397],[-37.2689548835552,-8.61789747041644],[-37.2566562208565,-8.63604764900913],[-37.2503322142183,-8.64053314434215],[-37.2564381012019,-8.6486669605373],[-37.2627341043945,-8.64841017621904],[-37.2715255815664,-8.65468560338753],[-37.2727196504176,-8.65302459080505],[-37.2752510033022,-8.65275733879883],[-37.2831657646948,-8.65651191595929],[-37.2889199607991,-8.66538796918008],[-37.3013406322606,-8.66966233182933],[-37.3282838294528,-8.65431982851465],[-37.3355422016639,-8.65309437703587],[-37.3534476734787,-8.64709146966743],[-37.3664238212863,-8.63986451671753],[-37.3726549839942,-8.63316358426334],[-37.3837845438487,-8.6261184632926],[-37.3901585321359,-8.62714832230246],[-37.4031348578999,-8.62169079785145],[-37.4090520309935,-8.62175397118911],[-37.41294310398,-8.61934277339782],[-37.4188059672164,-8.62142868994243],[-37.4239082592738,-8.62039739638835],[-37.4278626402847,-8.61839702224041],[-37.4389728254619,-8.61031259347044],[-37.4428100236097,-8.60624671215323],[-37.4473131943805,-8.60457266852144],[-37.4515064070476,-8.60413750555892],[-37.4567773307903,-8.60604185864413],[-37.4619765367474,-8.60527434930261],[-37.4599935900658,-8.60345372254534],[-37.4583447714227,-8.60331605625915],[-37.4488527140851,-8.59778622431607],[-37.4453491930923,-8.59173033715633],[-37.4424797844433,-8.59368071710423],[-37.4409020730883,-8.59133806619003],[-37.4386113581114,-8.59173023924706],[-37.4348200218413,-8.58723610531229],[-37.4336463539282,-8.58664001989775],[-37.4310883822995,-8.58731668614513],[-37.429575297372,-8.58352524200013],[-37.4280729973962,-8.58255053923244],[-37.4104092531847,-8.57595422851188],[-37.4040960683042,-8.57663210871601],[-37.4019389428757,-8.57443975251653],[-37.3990864846935,-8.57397427292886],[-37.3972173931549,-8.57266295115677],[-37.3943729473233,-8.57324068904819],[-37.3829754897392,-8.57049274670146],[-37.3722727776822,-8.57132763355451]]]}},{"type":"Feature","properties":{"id":"1357","name":"Kambiwá","people":"Kambiwá","state":"PE","municipality":"Inajá,Ibimirim,Floresta","phase":"Regularizada"},"geometry":{"type":"Polygon","coordinates":[[[-37.8887952665542,-8.55269124781614],[-37.7452311049584,-8.69355808342327],[-37.8366042755127,-8.77640517969935],[-37.891928637607,-8.71341002169852],[-37.9904306193288,-8.61563931373421],[-37.9400298814,-8.57139210182739],[-37.9311385078518,-8.5650505778345],[-37.9127409394489,-8.55271849334208],[-37.8887952665542,-8.55269124781614]]]}},{"type":"Feature","properties":{"id":"218","name":"Pankará da Serra do Arapuá","people":"Pankará","state":"PE","municipality":"Carnaubeira da Penha","phase":"Delimitada"},"geometry":{"type":"MultiPolygon","coordinates":[[[[-38.644275,-8.38299300000002],[-38.648307073723,-8.38914015460261],[-38.646469509259,-8.37972556230899],[-38.644275,-8.38299300000002]]],[[[-38.659633,-8.37043700000001],[-38.655419,-8.370965],[-38.653099,-8.372759],[-38.652038004391,-8.37189556715661],[-38.651711091353,-8.37313862712002],[-38.65062642224,-8.37356116427011],[-38.653922795676,-8.39040356349881],[-38.649462014182,-8.39090093529501],[-38.666238,-8.416477],[-38.666999,-8.41638000000001],[-38.667574,-8.41934],[-38.67026,-8.42052500000001],[-38.669631,-8.423953],[-38.671219,-8.42455600000001],[-38.670971,-8.426855],[-38.675372,-8.439316],[-38.680104,-8.43902199999999],[-38.682424,-8.436982],[-38.678211,-8.44481100000002],[-38.67672,-8.44592200000002],[-38.675646,-8.45057600000001],[-38.674191,-8.451939],[-38.673202,-8.456282],[-38.671866,-8.45762100000002],[-38.671973,-8.459033],[-38.669903,-8.463028],[-38.66638,-8.46505900000001],[-38.660192,-8.463307],[-38.658569,-8.46447700000001],[-38.659143,-8.46679899999999],[-38.658418,-8.47148900000001],[-38.661623,-8.475847],[-38.664387,-8.47695000000001],[-38.66495,-8.478626],[-38.663482,-8.48059900000001],[-38.664234,-8.486356],[-38.665015,-8.48738500000001],[-38.66916,-8.488681],[-38.66954,-8.494377],[-38.67615,-8.48729],[-38.679183,-8.48220700000002],[-38.681443,-8.482209],[-38.683439,-8.48026],[-38.690087,-8.479225],[-38.691232,-8.47532499999999],[-38.692552,-8.474256],[-38.704186,-8.47484200000001],[-38.71238,-8.47952600000001],[-38.716347,-8.47844],[-38.718368,-8.475498],[-38.72016,-8.47444699999999],[-38.731321,-8.47345900000001],[-38.755154,-8.477983],[-38.762629,-8.45495900000002],[-38.771492,-8.43417100000001],[-38.783303,-8.438776],[-38.785201,-8.435304],[-38.785203,-8.43213300000001],[-38.781626,-8.42407800000002],[-38.785485,-8.42077700000001],[-38.784682,-8.41749800000001],[-38.777329,-8.41395100000002],[-38.771003,-8.412775],[-38.767278,-8.407987],[-38.763712,-8.40569600000001],[-38.762492,-8.40356000000001],[-38.754741,-8.40129100000001],[-38.750801,-8.397085],[-38.744849,-8.39723000000002],[-38.734036,-8.388943],[-38.737352,-8.371769],[-38.739517,-8.36785600000001],[-38.732028,-8.36334100000002],[-38.730232,-8.354844],[-38.716691,-8.344174],[-38.713685,-8.34261700000001],[-38.710681,-8.34272200000001],[-38.70882,-8.34147700000002],[-38.699964,-8.342499],[-38.689928,-8.34688299999999],[-38.68068,-8.342915],[-38.678817,-8.34315300000002],[-38.6768,-8.34226500000002],[-38.674336,-8.343029],[-38.67197,-8.34146],[-38.67036,-8.34188900000001],[-38.666552,-8.34115600000001],[-38.665915,-8.34243800000001],[-38.667139,-8.34330800000001],[-38.667188,-8.345412],[-38.668153,-8.34679800000001],[-38.666298,-8.34923800000001],[-38.668019,-8.35183100000001],[-38.666062,-8.35585],[-38.666413,-8.358291],[-38.66267,-8.359573],[-38.661595,-8.360958],[-38.662696,-8.363903],[-38.659633,-8.37043700000001]]]]}},{"type":"Feature","properties":{"id":"186","name":"Pipipã","people":"Aimore","state":"PE","municipality":"Floresta","phase":"Delimitada"},"geometry":{"type":"Polygon","coordinates":[[[-38.0636415406895,-8.44348220292593],[-38.0619083889929,-8.44867417338456],[-38.0600332337811,-8.44904090287196],[-38.057503802757,-8.4472962064082],[-38.0551423622895,-8.44982704146727],[-38.0536992456622,-8.45027821553316],[-38.0498317891005,-8.44947917536987],[-38.0487236711268,-8.45052937988511],[-38.0469326726672,-8.45562199208266],[-38.0427472543649,-8.45704753706307],[-38.0389262330386,-8.4568945906937],[-38.0368802186992,-8.45937821190557],[-38.032287237066,-8.45915150863672],[-38.0296338805869,-8.45723058932203],[-38.0279029350831,-8.45885249450824],[-38.0270808074326,-8.45865730112191],[-38.0245456677067,-8.45149895478079],[-38.0217762039591,-8.44962960190963],[-38.0190577106521,-8.45083176039869],[-38.0123104294758,-8.45199555632006],[-38.0085547159288,-8.45402889874401],[-38.0068491300952,-8.45680994125432],[-38.0012720364043,-8.45227948746163],[-37.9992398889461,-8.45490267790304],[-37.9973796368117,-8.45582856746436],[-37.9911740435026,-8.45414667554227],[-37.9836582731716,-8.45561695948318],[-37.977509511245,-8.45831619026316],[-37.9667239456414,-8.45806770570577],[-37.9634703441189,-8.4560730104358],[-37.9584601462785,-8.45132181849623],[-37.9552872375674,-8.45047953114469],[-37.9525758705972,-8.45127453417642],[-37.9499266466854,-8.44890448103206],[-37.9484666200383,-8.44891851005427],[-37.9446962583242,-8.45256940004525],[-37.9330787844324,-8.45886423372599],[-37.9273879227705,-8.45965984662228],[-37.9181846909647,-8.45776214230741],[-37.9150031396872,-8.45639535226725],[-37.9125805120144,-8.45386179000082],[-37.909994954512,-8.45376980121729],[-37.9034558883869,-8.45704795349558],[-37.898506104934,-8.46343378023191],[-37.89197255,-8.50774644],[-37.88559414,-8.50677773000002],[-37.8882825867882,-8.4688210296255],[-37.8798358512107,-8.47055980558307],[-37.8750191055052,-8.46887791414777],[-37.8737042363953,-8.46913520460544],[-37.8720413441491,-8.47101061297135],[-37.8694122251346,-8.47630905174699],[-37.8656188258519,-8.48184818928411],[-37.8617654962251,-8.48582810382121],[-37.860791191941,-8.48817617854677],[-37.8610095858024,-8.4943401739255],[-37.8598958101726,-8.49854455983101],[-37.8605493115632,-8.50206039054597],[-37.8580002605213,-8.50769738733974],[-37.8577656741145,-8.51072434715593],[-37.8586810833578,-8.51268072131039],[-37.858247203735,-8.51546132894863],[-37.8533892846925,-8.52639571955261],[-37.8584258759851,-8.53487251158581],[-37.8613802796075,-8.53686085524432],[-37.862222423416,-8.53848970757766],[-37.8891986888853,-8.55308132317689],[-37.9131474626231,-8.55311183330769],[-37.9404255282974,-8.57177866695073],[-37.9908371438035,-8.61603310404706],[-37.9568146635549,-8.64980697704413],[-37.9915032898276,-8.70791590525687],[-38.0576934433621,-8.7141228389277],[-38.07425499,-8.69683117999999],[-38.0855800067743,-8.71195095864039],[-38.0931462713997,-8.7162789248964],[-38.1006451614556,-8.71564959502428],[-38.12134750871,-8.70707836835227],[-38.1298991213254,-8.70110366778923],[-38.1334809549523,-8.69687260990297],[-38.1379476994541,-8.69362521811727],[-38.1411624125049,-8.69709629673926],[-38.1447646498397,-8.69668909847307],[-38.1489415809425,-8.69474033517382],[-38.1539466573036,-8.69564885117491],[-38.1562750592622,-8.6933208660212],[-38.1567354329357,-8.69074838925212],[-38.1593644708534,-8.68942953678201],[-38.1627617132044,-8.68944931085296],[-38.1668330238488,-8.6862743884611],[-38.1700667229616,-8.68559226275748],[-38.1722289257375,-8.68660201667446],[-38.1768734279206,-8.68301301952893],[-38.1786039650593,-8.6832805923262],[-38.1833340179869,-8.6803084692617],[-38.1840499887192,-8.67834055155455],[-38.1774276547438,-8.67638345792246],[-38.1736903846619,-8.66883246357691],[-38.1749380646129,-8.66795327222621],[-38.167665794494,-8.66342991123697],[-38.1633930932952,-8.65576460101894],[-38.1563428129084,-8.6496899158022],[-38.1505864301797,-8.65158100123327],[-38.1459323437195,-8.65146171616808],[-38.1465009916945,-8.64209532158026],[-38.1483543896979,-8.63912125796318],[-38.14867316295,-8.6340749740143],[-38.1521273238796,-8.63117956788556],[-38.1519686715045,-8.62829140535454],[-38.1508952424718,-8.62636920999395],[-38.1469756416019,-8.62437530841731],[-38.136782099986,-8.62428660800316],[-38.1318935655532,-8.61913146026488],[-38.131700051534,-8.61783456341116],[-38.1347047710944,-8.61193201121948],[-38.1345343751387,-8.6100774702049],[-38.1295365935018,-8.60586465274196],[-38.1273987258052,-8.60154626709997],[-38.1207609787419,-8.60052143668545],[-38.1165249233038,-8.59513973812841],[-38.1109500132739,-8.59381168519777],[-38.1225052750719,-8.53249864095205],[-38.1285495801918,-8.53048167661766],[-38.1391078191126,-8.51116943692994],[-38.1381065953431,-8.5106417142601],[-38.1388066447604,-8.50716864907154],[-38.1372048804119,-8.50540386122868],[-38.1346372575114,-8.50558959773494],[-38.1321876635305,-8.50459823312138],[-38.1308521918316,-8.50237249094444],[-38.1282710367171,-8.50111040269394],[-38.1255130730856,-8.49741655751131],[-38.122200497879,-8.49542771981418],[-38.1141911580976,-8.49345692229171],[-38.1113019600362,-8.48955227515733],[-38.1047966548152,-8.48351420475507],[-38.1020368623835,-8.48267989489233],[-38.1004264152414,-8.47753130675638],[-38.0971060803746,-8.47385043977916],[-38.0932168974885,-8.47191509320608],[-38.0856951605636,-8.46323504833278],[-38.0820675023478,-8.46054643669542],[-38.0808419641057,-8.45842818430017],[-38.0815892857852,-8.45544352947371],[-38.0808832591368,-8.45397352754285],[-38.0798614135816,-8.45274122315517],[-38.0749703572651,-8.45098438546837],[-38.0737792057764,-8.44929112451614],[-38.0732498662769,-8.44573629399702],[-38.0721465926135,-8.44470611539769],[-38.0650259388111,-8.44254598936693],[-38.0636415406895,-8.44348220292593]]]}},{"type":"Feature","properties":{"id":"1621","name":"Truká","people":"Truká","state":"PE","municipality":"Cabrobó","phase":"Regularizada"},"geometry":{"type":"Polygon","coordinates":[[[-39.4111453935944,-8.49944822296398],[-39.4086697881296,-8.50165552930054],[-39.3911663673659,-8.50725280376844],[-39.3897247850035,-8.52263974920579],[-39.3986728147863,-8.52206291562124],[-39.4031823549167,-8.52437539298113],[-39.413165240234,-8.52547565254829],[-39.4211591995198,-8.52911637850122],[-39.4299559601751,-8.53690782330558],[-39.4329317088949,-8.53728807471043],[-39.438335667789,-8.53575736569621],[-39.4411499173992,-8.53655260255925],[-39.4497638576838,-8.54508330291497],[-39.4527507081631,-8.54564810925541],[-39.4525881308184,-8.54421271532568],[-39.4491087054011,-8.54181467181024],[-39.4453198989619,-8.52979404752898],[-39.44186976606,-8.52358263251679],[-39.4388024115416,-8.5215769673734],[-39.4375414575372,-8.51892668604814],[-39.436280135972,-8.51204970634298],[-39.4323430478788,-8.5090304887737],[-39.4318782220086,-8.50553234271331],[-39.4303323931999,-8.5031963202444],[-39.4246553814729,-8.49863222186383],[-39.4146295205905,-8.498189375523],[-39.4111453935944,-8.49944822296398]]]}},{"type":"Feature","properties":{"id":"1478","name":"Pankararu","people":"Pankararú","state":"PE","municipality":"Petrolândia,Tacaratu","phase":"Regularizada"},"geometry":{"type":"Polygon","coordinates":[[[-38.229003754532,-9.19766407188917],[-38.2560147000934,-9.11863926524757],[-38.1779917325712,-9.09325137109073],[-38.1500524856085,-9.17211039935929],[-38.229003754532,-9.19766407188917]]]}},{"type":"Feature","properties":{"id":"234","name":"Fazenda Cristo Rei","people":"Pankararú","state":"PE","municipality":"Jatobá","phase":"Encaminhada RI"},"geometry":{"type":"Polygon","coordinates":[[[-38.1599455054,-9.26456353280001],[-38.1665205133,-9.26838565769999],[-38.1696043372,-9.2744318378],[-38.1711843885,-9.27533673340002],[-38.1716750514,-9.2773466953],[-38.1735811275,-9.27849234560001],[-38.1732650472,-9.28021490770001],[-38.1773638107,-9.28657518540002],[-38.1832435749,-9.28907708540001],[-38.1855963185,-9.2923968346],[-38.1870539169,-9.29319193510001],[-38.1890387556,-9.29361695260002],[-38.1903376526,-9.29271271439999],[-38.1896883575,-9.2915769738],[-38.1868201011,-9.2901545699],[-38.1865933206,-9.28854831870002],[-38.1877346855,-9.2878990817],[-38.1881882811,-9.28972440910001],[-38.1910799477,-9.28964717380002],[-38.1942338208,-9.2908025637],[-38.1942972946,-9.2917998913],[-38.196408628,-9.2936349645],[-38.1985791761,-9.2922007521],[-38.2018688873,-9.29159077019999],[-38.2020651212,-9.2934662982],[-38.2032679248,-9.2946518806],[-38.2129828395,-9.28109690420002],[-38.2382870446,-9.254703253],[-38.1985199669,-9.23584472560001],[-38.1588842819,-9.26267766410001],[-38.1599455054,-9.26456353280001]]]}},{"type":"Feature","properties":{"id":"41","name":"Atikum","people":"Atikum","state":"PE","municipality":"Salgueiro,Mirandiba,Carnaubeira da Penha,Belém do São Francisco","phase":"Regularizada"},"geometry":{"type":"Polygon","coordinates":[[[-38.7502147141729,-8.24033796671812],[-38.7405615270408,-8.2614543654018],[-38.7527440918897,-8.3097928207703],[-38.7759060079651,-8.3345446552879],[-38.8974085785249,-8.35635360542779],[-38.919248380507,-8.33753711860059],[-38.8040229106231,-8.2221510648166],[-38.7502147141729,-8.24033796671812]]]}},{"type":"Feature","properties":{"id":"1290","name":"Fulni-ô","people":"Fulni-ô","state":"PE","municipality":"Itaíba,Águas Belas","phase":"Regularizada"},"geometry":{"type":"Polygon","coordinates":[[[-37.0703343753413,-9.1669891051302],[-37.16700586585,-9.15115518926969],[-37.1517312585014,-9.05587692701768],[-37.0547801896138,-9.07143246118695],[-37.0703343753413,-9.1669891051302]]]}},{"type":"Feature","properties":{"id":"1622","name":"Truká","people":"Truká","state":"PE","municipality":"Cabrobó","phase":"Declarada"},"geometry":{"type":"Polygon","coordinates":[[[-39.4071941594393,-8.50268037202694],[-39.3813314642578,-8.51102398655741],[-39.372816660044,-8.51074868463713],[-39.3690544572908,-8.50792013694554],[-39.3669472879432,-8.50741374898844],[-39.3617674696291,-8.50739142565527],[-39.3564599983571,-8.50878450204448],[-39.3509274180701,-8.50824947675596],[-39.344451092228,-8.50884578656735],[-39.3426233043111,-8.50980462058676],[-39.3420051390325,-8.51191209842468],[-39.3405656646273,-8.51340225160567],[-39.3346236655768,-8.51544652912849],[-39.3313546561165,-8.51770236808859],[-39.3257991241751,-8.51845447490878],[-39.3225561260101,-8.51724014057232],[-39.3158986142886,-8.51921387368446],[-39.3111983198327,-8.51924326970256],[-39.309460093582,-8.52023131871558],[-39.3069643469737,-8.52362808597264],[-39.3042929537669,-8.52500253036112],[-39.297900757903,-8.52273475180596],[-39.2973903607003,-8.5239342331189],[-39.2983803802128,-8.52860677339158],[-39.2935305031552,-8.53385359804104],[-39.2943879014563,-8.53796035566313],[-39.2941628436393,-8.54463901193731],[-39.290615448891,-8.55026637418865],[-39.2980661521611,-8.54895431815135],[-39.3030081069023,-8.54995997708836],[-39.3077334498769,-8.54790759940692],[-39.3166842837224,-8.54635217314029],[-39.3234252286761,-8.54784442778061],[-39.3266406277525,-8.54674415719832],[-39.3295346412949,-8.54712213587237],[-39.3435220673594,-8.54461123883977],[-39.3467244166042,-8.54267743141208],[-39.3526422873506,-8.53496972984812],[-39.3561131339416,-8.53220391890166],[-39.3708225356779,-8.52442221826152],[-39.3750099218707,-8.52355816814844],[-39.3783445994587,-8.52147937622977],[-39.3809292883299,-8.52092492225103],[-39.3870129460725,-8.52084874466745],[-39.3911198401267,-8.52276076450323],[-39.3968732167711,-8.52229542465318],[-39.4020230275337,-8.52403503093672],[-39.4110521072322,-8.52535483200807],[-39.4209589310674,-8.52982810841536],[-39.4284839926152,-8.53642451495217],[-39.4326523634686,-8.53722528404417],[-39.4372351877628,-8.53624344728332],[-39.4399534762807,-8.53646519563471],[-39.4485806993704,-8.54441756456379],[-39.4520613751296,-8.54607903236775],[-39.4472180869987,-8.53946574213052],[-39.4437183421261,-8.52866592868918],[-39.4379814061074,-8.5218891211016],[-39.4349457648607,-8.51271153783996],[-39.4321021744758,-8.50985479164064],[-39.4254948200814,-8.49996044786263],[-39.4228912233207,-8.49889263777244],[-39.4179712361753,-8.49944182538974],[-39.4153131539868,-8.49860877164572],[-39.4112835619148,-8.49940063267974],[-39.4071941594393,-8.50268037202694]]]}},{"type":"Feature","properties":{"id":"1273","name":"Entre Serras","people":"Pankararú","state":"PE","municipality":"Petrolândia,Tacaratu,Jatobá","phase":"Regularizada"},"geometry":{"type":"Polygon","coordinates":[[[-38.1474721014575,-9.0976516188269],[-38.1554349356807,-9.09896238418765],[-38.1578074747705,-9.10409482947102],[-38.1551837751301,-9.10996850463745],[-38.1459953084911,-9.10816977007614],[-38.1449135536907,-9.10913612996541],[-38.1439402059195,-9.10649604826779],[-38.1189288190059,-9.16238661271814],[-38.1500524856085,-9.17211039935929],[-38.1779917325712,-9.09325137109073],[-38.2560147000934,-9.11863926524757],[-38.2658084818927,-9.0913140937396],[-38.1617668169114,-9.04564384671522],[-38.1474721014575,-9.0976516188269]]]}}]}