{"type":"FeatureCollection","features":[{"type":"Feature","properties":{"id":"1240","name":"Caiçara/Ilha de São Pedro","people":"Xocó","state":"SE","municipality":"Porto da Folha","phase":"Regularizada"},"geometry":{"type":"Polygon","coordinates":[[[-37.3884858395991,-9.78624726810404],[-37.3826565282497,-9.78834689573291],[-37.3783276100837,-9.7916210611919],[-37.3737330148999,-9.7968734916542],[-37.3586053034985,-9.80214219515915],[-37.3448299151869,-9.80985523790781],[-37.3742455209854,-9.85214072528033],[-37.4282156623517,-9.82922845848003],[-37.3997785960001,-9.7842039925003],[-37.3923415683277,-9.78651537278996],[-37.3884858395991,-9.78624726810404]]]}}]}