{"type":"FeatureCollection","features":[{"type":"Feature","properties":{"id":"1727","name":"Área De Relevante Interesse Ecológico Da Barra Do Rio Camaratuba","category":"Área de Relevante Interesse Ecológico","group":"US","authority":"Prefeitura de Mataraca - PB","sphere":"Municipal","created":"1998","updated":"2009-03-18"},"geometry":{"type":"Polygon","coordinates":[[[-34.9661204479013,-6.60435797521196],[-34.9686044193566,-6.60325574705541],[-34.9690397120598,-6.59925903394347],[-34.9705202918942,-6.60122797851605],[-34.9726584505173,-6.60018047221115],[-34.9738584937562,-6.60125500074063],[-34.9747571200211,-6.60045646171186],[-34.9738520660056,-6.59849217643418],[-34.9754954099364,-6.59813133922351],[-34.9760189159369,-6.60101346653078],[-34.9778305189403,-6.60120078748654],[-34.9822015340422,-6.59807039267493],[-34.9847557961339,-6.59895437887165],[-34.9858470310385,-6.5956823408265],[-34.9868939490884,-6.59790678703781],[-34.986648866065,-6.59617805197118],[-34.9887401444519,-6.59737485766339],[-34.9906487618515,-6.5962390529967],[-34.9877997149842,-6.59264746430399],[-34.9829365370774,-6.59257949795795],[-34.9802674157207,-6.59523442695013],[-34.9783212339582,-6.59389487921419],[-34.9701190196614,-6.59391492626993],[-34.9657824183205,-6.59635478316821],[-34.9661204479013,-6.60435797521196]]]}},{"type":"Feature","properties":{"id":"3847","name":"Monumento Natural Península Da Siribinha","category":"Monumento Natural","group":"PI","authority":"Prefeitura Municipal de Conde - BA","sphere":"Municipal","created":"2018","updated":"2019-05-22"},"geometry":{"type":"Polygon","coordinates":[[[-37.5203602137709,-11.7489009213349],[-37.515078494417,-11.7406741195298],[-37.51383206191093,-11.742838737898712],[-37.51732757017469,-11.750082466128356],[-37.520622735988354,-11.756911025475004],[-37.5216950279524,-11.7563742065767],[-37.5203602137709,-11.7489009213349]]]}},{"type":"Feature","properties":{"id":"2060","name":"Parque Natural Municipal Professor João Vasconcelos Sobrinho","category":"Parque","group":"PI","authority":"Prefeitura Municipal de Caruaru - PE","sphere":"Municipal","created":"1983","updated":"2012-03-13"},"geometry":{"type":"Polygon","coordinates":[[[-36.0234127050296,-8.35813688143934],[-36.0237637433888,-8.35953190371874],[-36.0207337547955,-8.36199285484108],[-36.0218188804844,-8.37381611905698],[-36.0264921082383,-8.37698338126512],[-36.0338820124279,-8.37334566352553],[-36.0355509277097,-8.36775071252322],[-36.0387897315492,-8.36769608705213],[-36.0422588957494,-8.36491503341675],[-36.0432580189096,-8.35958733475035],[-36.0425106373847,-8.35812116591303],[-36.0390575694604,-8.35780905224624],[-36.0370400067712,-8.36135717257329],[-36.0298512455732,-8.35508268202983],[-36.028135891091,-8.35468497986379],[-36.0276463827931,-8.35713556256822],[-36.0253859596021,-8.35891188581486],[-36.0234127050296,-8.35813688143934]]]}},{"type":"Feature","properties":{"id":"2321","name":"Parque Municipal Natural Da Boa Esperança","category":"Parque","group":"PI","authority":"Prefeitura Municipal de Ilhéus - BA","sphere":"Municipal","created":"2001","updated":"2015-12-01"},"geometry":{"type":"Polygon","coordinates":[[[-39.0853649528888,-14.7693858970383],[-39.0792336024537,-14.7744625423578],[-39.0787181845791,-14.7768788486682],[-39.0761289913821,-14.7734936054195],[-39.0728027661999,-14.7744078613077],[-39.0697917329877,-14.7730977852362],[-39.0653134727598,-14.7746632608822],[-39.0647841671758,-14.7758116701882],[-39.067070973587,-14.7789212646029],[-39.0648413788457,-14.780730184686],[-39.0658281950328,-14.7868147756403],[-39.0682856296174,-14.7905421425915],[-39.0804184671138,-14.7894502422731],[-39.0828981038021,-14.7854892287154],[-39.0854532199742,-14.7846745699691],[-39.0871613723475,-14.7805148829689],[-39.0934255700933,-14.7815624543689],[-39.0868298669044,-14.7695634394916],[-39.0853649528888,-14.7693858970383]]]}},{"type":"Feature","properties":{"id":"3177","name":"Área De Relevante Interesse Ecológico Corredor Ecológico Lagoa Encantada / Serra Do Conduru","category":"Área de Relevante Interesse Ecológico","group":"US","authority":"Prefeitura Municipal de Ilhéus - BA","sphere":"Municipal","created":"2009","updated":"2015-05-04"},"geometry":{"type":"Polygon","coordinates":[[[-39.0435593752364,-14.5033572022117],[-39.0448762326229,-14.516016959883],[-39.0413284436168,-14.5358250195617],[-39.0543034318784,-14.5807132660478],[-39.1701422283142,-14.59031300925],[-39.1607237475258,-14.5175241744684],[-39.0435593752364,-14.5033572022117]]]}},{"type":"Feature","properties":{"id":"3615","name":"Parque Natural Municipal Riacho Estrela","category":"Parque","group":"PI","authority":"Prefeitura Municipal de Anapurus - MA","sphere":"Municipal","created":"2018","updated":"2018-10-10"},"geometry":{"type":"Polygon","coordinates":[[[-43.1212798134052,-3.67265053437559],[-43.1193190812009,-3.67041370124038],[-43.1187201092558,-3.67087690837263],[-43.1196890915311,-3.67299337743512],[-43.1212798134052,-3.67265053437559]]]}},{"type":"Feature","properties":{"id":"3281","name":"Parque Natural Municipal Do Forte De Tamandare","category":"Parque","group":"PI","authority":"Secretaria do Meio Ambiente de Tamandaré - PE","sphere":"Municipal","created":"2003","updated":"2016-07-05"},"geometry":{"type":"MultiPolygon","coordinates":[[[[-35.09810566275362,-8.755450857674365],[-35.098462144572075,-8.757687186948786],[-35.0986133302816,-8.758635625299895],[-35.1011055356438,-8.7566921843876],[-35.09810566275362,-8.755450857674365]]],[[[-35.09882787951098,-8.759981564132193],[-35.09903499389339,-8.761280861691173],[-35.100267821639335,-8.76901480108406],[-35.1043178080018,-8.76588582684879],[-35.09882787951098,-8.759981564132193]]]]}},{"type":"Feature","properties":{"id":"3853","name":"Parque Natural Municipal Do Cuiá - Parque Cuiá","category":"Parque","group":"PI","authority":"Secretaria de Meio Ambiente de João Pessoa - PB","sphere":"Municipal","created":"2012","updated":"2019-03-22"},"geometry":{"type":"MultiPolygon","coordinates":[[[[-34.8545062493665,-7.19313612166647],[-34.8557622183058,-7.19309333899508],[-34.8555310565097,-7.19252694091392],[-34.8536432042796,-7.19314919300274],[-34.8545062493665,-7.19313612166647]]],[[[-34.86195131304,-7.19291507726969],[-34.8621842636289,-7.19775066815119],[-34.8641425875452,-7.18970030048597],[-34.8572535576583,-7.18777869568814],[-34.8580509794889,-7.18982947669842],[-34.8553405999923,-7.19035252682602],[-34.856342538835,-7.19304573968254],[-34.86195131304,-7.19291507726969]]]]}},{"type":"Feature","properties":{"id":"3605","name":"Área De Proteção Ambiental, De Uso Sustentável, Sucupira","category":"Área de Proteção Ambiental","group":"US","authority":"Secretaria Municipal do Meio Ambiente de Timon - MA","sphere":"Municipal","created":"2017","updated":"2019-01-18"},"geometry":{"type":"Polygon","coordinates":[[[-42.8422422009197,-5.07609516338389],[-42.8402201907236,-5.07572673532242],[-42.8392589453374,-5.0787212783326],[-42.8422422009197,-5.07609516338389]]]}},{"type":"Feature","properties":{"id":"3459","name":"Parque Natural Municipal Do Poxim","category":"Parque","group":"PI","authority":"Secretaria Municipal de Meio Ambiente de Aracaju - SE","sphere":"Municipal","created":"2016","updated":"2019-09-23"},"geometry":{"type":"Polygon","coordinates":[[[-37.0585719191359,-10.9537853950715],[-37.0570927967295,-10.9586623223627],[-37.0551840372974,-10.9597922202005],[-37.0558529865881,-10.9617650906936],[-37.0672767713224,-10.9632016362293],[-37.0671450322,-10.9611296397335],[-37.069446226792,-10.9598114495983],[-37.0695371386922,-10.9624322381861],[-37.0718770133518,-10.9641565926213],[-37.0715046266203,-10.9670569041653],[-37.073856499075,-10.9675670502829],[-37.0786640289387,-10.9734991727108],[-37.0816261520423,-10.9720186751207],[-37.0778291106136,-10.9649603376495],[-37.075769727684,-10.9664609910911],[-37.0739047892056,-10.9653547165508],[-37.0748131254158,-10.9620554428706],[-37.0708502681695,-10.9579788049038],[-37.0677781916422,-10.9570014390001],[-37.0621572494074,-10.9582027682451],[-37.0611018059011,-10.9545423092149],[-37.0585719191359,-10.9537853950715]]]}},{"type":"Feature","properties":{"id":"3623","name":"Parque Natural Municipal Da Macaqueiras","category":"Parque","group":"PI","authority":"Secretaria Municipal de Meio Ambiente de Jacobina - BA","sphere":"Municipal","created":"2003","updated":"2018-03-02"},"geometry":{"type":"Polygon","coordinates":[[[-40.5079364517898,-11.1627903265284],[-40.5037578028321,-11.1506176927282],[-40.5032816792041,-11.1370539268348],[-40.5009263161602,-11.1370657087271],[-40.5014850850256,-11.1506256358503],[-40.5055155019948,-11.173257616976],[-40.5078271005148,-11.1732083778765],[-40.5079364517898,-11.1627903265284]]]}},{"type":"Feature","properties":{"id":"3034","name":"Área De Proteção Ambiental Da Praia De Ponta Grossa","category":"Área de Proteção Ambiental","group":"US","authority":"Secretaria de Desenvolvimento e Meio Ambiente de Icapuí - CE","sphere":"Municipal","created":"1998","updated":"2015-01-21"},"geometry":{"type":"Polygon","coordinates":[[[-37.5400849744838,-4.64731602770148],[-37.540123719880405,-4.644879289184317],[-37.533237982537514,-4.649347718666131],[-37.53642686464,-4.65139382133654],[-37.5400849744838,-4.64731602770148]]]}},{"type":"Feature","properties":{"id":"1851","name":"Parque Natural Municipal Da Cidade Do Natal Dom Nivaldo Monte","category":"Parque","group":"PI","authority":"Secretaria Municipal de Meio Ambiente e Urbanismo de Natal - RN","sphere":"Municipal","created":"2006","updated":"2011-08-29"},"geometry":{"type":"MultiPolygon","coordinates":[[[[-35.2267486127,-5.85290941245001],[-35.2351184303695,-5.84279535402828],[-35.2260481914,-5.84963886043],[-35.2267486127,-5.85290941245001]]],[[[-35.2408725233,-5.83584212824001],[-35.2351184303695,-5.84279535402828],[-35.2416600638,-5.83785968360001],[-35.2408725233,-5.83584212824001]]]]}},{"type":"Feature","properties":{"id":"3295","name":"Parque Natural Municipal Das Dunas Da Sabiaguaba","category":"Parque","group":"PI","authority":"Secretaria Municipal de Urbanismo e Meio Ambiente de Fortaleza - CE","sphere":"Municipal","created":"2006","updated":"2016-12-23"},"geometry":{"type":"MultiPolygon","coordinates":[[[[-38.4346218472744,-3.801294599877511],[-38.43455869947024,-3.801337899286824],[-38.4346315147893,-3.8013226149366],[-38.4346218472744,-3.801294599877511]]],[[[-38.42940925293476,-3.8048687899683085],[-38.42649719609789,-3.8068655393817488],[-38.429602576787,-3.80681952813395],[-38.42940925293476,-3.8048687899683085]]]]}},{"type":"Feature","properties":{"id":"3900","name":"Área De Proteção Ambiental Da Lagoa Da Maraponga","category":"Área de Proteção Ambiental","group":"US","authority":"Secretaria Municipal de Urbanismo e Meio Ambiente de Fortaleza - CE","sphere":"Municipal","created":"1991","updated":"2019-06-03"},"geometry":{"type":"Polygon","coordinates":[[[-38.5735556724446,-3.79323586935398],[-38.5738413248183,-3.78977510209011],[-38.5666925819009,-3.78690832416831],[-38.5680613064105,-3.79231373505408],[-38.5712204353359,-3.79116553951027],[-38.5735556724446,-3.79323586935398]]]}},{"type":"Feature","properties":{"id":"3797","name":"Parque Natural Municipal Zabele","category":"Parque","group":"PI","authority":"Conselho Municipal de Defesa do Meio Ambiente de Santa Rita de Cássia - BA","sphere":"Municipal","created":"2002","updated":"2019-02-14"},"geometry":{"type":"MultiPolygon","coordinates":[[[[-44.5352278468955,-11.0171602828821],[-44.5358353844685,-11.0186010243286],[-44.5354949558987,-11.0191720173935],[-44.5340967854181,-11.0200985150865],[-44.5339482566053,-11.0217526958156],[-44.5326900929152,-11.0229810583999],[-44.5395989026904,-11.019551470349],[-44.5365862902775,-11.0159696090742],[-44.5352278468955,-11.0171602828821]]],[[[-44.5079818009009,-11.0193093774028],[-44.5082432817984,-11.0195432901172],[-44.5084886135114,-11.019271094987],[-44.5079818009009,-11.0193093774028]]],[[[-44.5186588113022,-11.0113009962958],[-44.5186960287461,-11.0125580298453],[-44.5242325988251,-11.0076648994913],[-44.5236173324828,-11.0070030252021],[-44.5186588113022,-11.0113009962958]]],[[[-44.524099878935,-11.0067348164697],[-44.524515524088,-11.0078293960182],[-44.5198075726372,-11.0124682596727],[-44.5172980032929,-11.0130551914379],[-44.5156935646904,-11.0183520188002],[-44.5115528889353,-11.0190780058413],[-44.5159587471109,-11.0215454400733],[-44.5185461822727,-11.0252253723661],[-44.521512485992,-11.0252391095281],[-44.5200269819564,-11.0227486681852],[-44.525074676321,-11.019263353042],[-44.526855130109,-11.0201715383833],[-44.5260977913587,-11.0225519552574],[-44.5286562811125,-11.0250660339773],[-44.5318564673603,-11.0242770322169],[-44.5338597430141,-11.0200099292376],[-44.5352630605842,-11.0191506727814],[-44.5349784349541,-11.0172145238673],[-44.5356737389828,-11.0162320450542],[-44.5366755259828,-11.0157351162703],[-44.5380041123428,-11.0158076286644],[-44.5378354750397,-11.0135913845004],[-44.536117362482,-11.0126300079206],[-44.5357014810783,-11.0075305182691],[-44.5299852250727,-11.0071920573722],[-44.5271687780003,-11.0054684592989],[-44.524099878935,-11.0067348164697]]]]}},{"type":"Feature","properties":{"id":"3720","name":"Parque Natural Municipal Das Timbaúbas","category":"Parque","group":"PI","authority":"Secretaria de Meio Ambiente e Serviços Públicos de Juazeiro do Norte - CE","sphere":"Municipal","created":"2017","updated":"2018-11-07"},"geometry":{"type":"Polygon","coordinates":[[[-39.311714010485,-7.2338156934995],[-39.310182198599,-7.2323875160927],[-39.306840934599,-7.23417178411401],[-39.309883270339,-7.2379528230951],[-39.311455563674,-7.2386801110878],[-39.312450574471,-7.23795812451969],[-39.311714010485,-7.2338156934995]]]}},{"type":"Feature","properties":{"id":"3485","name":"Área De Proteção Ambiental  Trizidela De Uso Sustentável","category":"Área de Proteção Ambiental","group":"US","authority":"Secretaria Municipal de Meio Ambiente, Finanças e Planejamento de Codó - MA","sphere":"Municipal","created":"2016","updated":"2017-09-27"},"geometry":{"type":"Polygon","coordinates":[[[-43.879402474,-4.44962039599995],[-43.8758026259999,-4.45229223499996],[-43.875092352,-4.45118765399998],[-43.8728442339999,-4.45389771999994],[-43.871908168,-4.45311841199998],[-43.87018305,-4.45562123199994],[-43.8728404469999,-4.45638509599996],[-43.873384626,-4.45411562899994],[-43.8790945329999,-4.45063297199993],[-43.8786223349999,-4.45299300899996],[-43.881975696,-4.44644045199993],[-43.879402474,-4.44962039599995]]]}}]}