{"type":"FeatureCollection","features":[{"type":"Feature","properties":{"id":"143","arrangementId":"2704302","name":"Maceió/AL","state":"AL","municipality":"2706448","population2010":"11347","urbanPopulation2010":"10049","ruralPopulation2010":"1298"},"geometry":{"type":"Polygon","coordinates":[[[-35.5624022561591,-9.47975615442295],[-35.5675680825009,-9.4789870407193],[-35.5840428404047,-9.46983379309502],[-35.5946600161468,-9.46977351873284],[-35.5959045510542,-9.47206267555197],[-35.6019038609743,-9.474054411282],[-35.6044110080615,-9.47255945835229],[-35.6078481117009,-9.47303892830387],[-35.6091576729881,-9.47048684928859],[-35.6128233528154,-9.47117073154397],[-35.6176283369781,-9.46967742617221],[-35.6204608911572,-9.4637862453389],[-35.6250999018389,-9.46129309440073],[-35.6260112667065,-9.45783214883454],[-35.6243483312105,-9.45126402851208],[-35.625796740627,-9.44796600232912],[-35.6347106966413,-9.44704018175895],[-35.6391545211642,-9.44382112954146],[-35.64187918008,-9.44435233569169],[-35.6519870193854,-9.43595178104982],[-35.665577125384,-9.42968502354495],[-35.6657362496282,-9.42625311349037],[-35.6767931902535,-9.39844099825343],[-35.6660888288363,-9.39864284569075],[-35.6620451882348,-9.39983597085331],[-35.6574093170863,-9.40393328209523],[-35.6545198789892,-9.40274888755108],[-35.6506875466929,-9.40477974738741],[-35.6404385453026,-9.40180938019871],[-35.6335499434751,-9.40557964128738],[-35.6276836567753,-9.40483199440098],[-35.6215777897831,-9.407787224201],[-35.6210149256982,-9.40989595633329],[-35.6167719089964,-9.40645418970906],[-35.6109868436678,-9.40453735851225],[-35.6108013674891,-9.40761446353662],[-35.6069315865234,-9.40683718129083],[-35.6054579583181,-9.40844288033464],[-35.6032455640315,-9.40595094258191],[-35.6019344891853,-9.40721822314242],[-35.6020313425723,-9.405446824911],[-35.6005715270543,-9.40459872015476],[-35.599487607467,-9.40691401486987],[-35.5953474435296,-9.40859657986823],[-35.5891821943028,-9.40358159681319],[-35.5866843309171,-9.40445974342237],[-35.5808772115141,-9.40246586910451],[-35.5789086692996,-9.40361755170859],[-35.575962516357,-9.40179168244016],[-35.5733773377939,-9.4015331021709],[-35.5728811665326,-9.40261916124524],[-35.5686572307466,-9.40156821260291],[-35.5644938984746,-9.40470445794431],[-35.5596553309288,-9.40530302421513],[-35.5496252560007,-9.40359082115941],[-35.5468591077616,-9.4056346681054],[-35.5445175078767,-9.41047468715704],[-35.5460163260925,-9.41685435454479],[-35.5415167184217,-9.42160039983855],[-35.5372107446801,-9.42359977530936],[-35.5346027116458,-9.43025161082312],[-35.5312837582388,-9.43215773828893],[-35.5310910964769,-9.43551965141074],[-35.5292645005562,-9.43784344381981],[-35.5292590101951,-9.43621285154182],[-35.5278129156335,-9.4360998094586],[-35.5245044465229,-9.44193963720443],[-35.53722356149553,-9.459319702393781],[-35.53722356149553,-9.459319702393785],[-35.5519094188845,-9.47315114660808],[-35.5553060494346,-9.47729841339101],[-35.5564126607157,-9.48215316963302],[-35.555611072114495,-9.483673661886158],[-35.5556110721145,-9.483673661886169],[-35.5585270064162,-9.487451272758],[-35.5624022561591,-9.47975615442295]]]}},{"type":"Feature","properties":{"id":"144","arrangementId":"2704302","name":"Maceió/AL","state":"AL","municipality":"2707701","population2010":"68481","urbanPopulation2010":"64381","ruralPopulation2010":"4100"},"geometry":{"type":"Polygon","coordinates":[[[-35.7965140652719,-9.53148034893889],[-35.806959564932,-9.53643424104735],[-35.8176851764297,-9.53744285680233],[-35.8189604582585,-9.54415007166842],[-35.8302429848259,-9.5454531731254],[-35.8341856288636,-9.554917793921],[-35.876990716948,-9.56394651601886],[-35.8875747814509,-9.5902403067447],[-35.9334660550144,-9.55180783756164],[-35.9381064632427,-9.54967141260556],[-35.9404651745281,-9.54521338059301],[-35.9463510412675,-9.54230945082043],[-35.944772491857,-9.54097944794313],[-35.9450726594756,-9.53946787014605],[-35.9464956945206,-9.53964878766135],[-35.9454968588929,-9.53723460619211],[-35.9494105591499,-9.53619354199833],[-35.9498574430665,-9.53333970536306],[-35.9591622588312,-9.53011277058783],[-35.9597405561817,-9.5280104029577],[-35.9452107153022,-9.50263172727233],[-35.9404328349074,-9.4980018429107],[-35.9394895845766,-9.49243008957695],[-35.937242858671,-9.49249208344287],[-35.9330095060838,-9.48087944183272],[-35.9369684449377,-9.40141422078961],[-35.9287746327431,-9.37460454476388],[-35.8759274862645,-9.41365109352313],[-35.7696305854831,-9.38978788879997],[-35.784937548529,-9.51122361987409],[-35.7965140652719,-9.53148034893889]]]}},{"type":"Feature","properties":{"id":"145","arrangementId":"2704302","name":"Maceió/AL","state":"AL","municipality":"2705200","population2010":"15682","urbanPopulation2010":"14263","ruralPopulation2010":"1419"},"geometry":{"type":"Polygon","coordinates":[[[-35.8759274862645,-9.41365109352313],[-35.8300895802699,-9.32268157129744],[-35.8311531832728,-9.31314785379038],[-35.8346173313248,-9.31265708745457],[-35.8385138545307,-9.30932448503688],[-35.8363509643255,-9.26454246586206],[-35.8045494942637,-9.26654201400272],[-35.7690169510714,-9.30900661786109],[-35.7696055402634,-9.38959344817903],[-35.8759274862645,-9.41365109352313]]]}},{"type":"Feature","properties":{"id":"146","arrangementId":"2704302","name":"Maceió/AL","state":"AL","municipality":"2700508","population2010":"14230","urbanPopulation2010":"13242","ruralPopulation2010":"988"},"geometry":{"type":"Polygon","coordinates":[[[-35.5278129156335,-9.4360998094586],[-35.5292590101951,-9.43621285154182],[-35.5292645005562,-9.43784344381981],[-35.5310910964769,-9.43551965141074],[-35.5312837582388,-9.43215773828893],[-35.5346027116458,-9.43025161082312],[-35.5372107446801,-9.42359977530936],[-35.5415167184217,-9.42160039983855],[-35.5460163260925,-9.41685435454479],[-35.5445175078767,-9.41047468715704],[-35.5468591077616,-9.4056346681054],[-35.5496252560007,-9.40359082115941],[-35.5596553309288,-9.40530302421513],[-35.5644938984746,-9.40470445794431],[-35.5686572307466,-9.40156821260291],[-35.5728811665326,-9.40261916124524],[-35.5733773377939,-9.4015331021709],[-35.575962516357,-9.40179168244016],[-35.5789086692996,-9.40361755170859],[-35.5808772115141,-9.40246586910451],[-35.5866843309171,-9.40445974342237],[-35.5891821943028,-9.40358159681319],[-35.5953474435296,-9.40859657986823],[-35.599487607467,-9.40691401486987],[-35.6005715270543,-9.40459872015476],[-35.6020313425723,-9.405446824911],[-35.6019344891853,-9.40721822314242],[-35.6032455640315,-9.40595094258191],[-35.6054579583181,-9.40844288033464],[-35.6069315865234,-9.40683718129083],[-35.6108013674891,-9.40761446353662],[-35.6109868436678,-9.40453735851225],[-35.6167719089964,-9.40645418970906],[-35.6210149256982,-9.40989595633329],[-35.6215777897831,-9.407787224201],[-35.6276836567753,-9.40483199440098],[-35.6335499434751,-9.40557964128738],[-35.6404385453026,-9.40180938019871],[-35.6506875466929,-9.40477974738741],[-35.6545198789892,-9.40274888755108],[-35.6574093170863,-9.40393328209523],[-35.6620451882348,-9.39983597085331],[-35.6660888288363,-9.39864284569075],[-35.6767931902535,-9.39844099825343],[-35.6876860594641,-9.37084708282658],[-35.5784468233622,-9.35914791384511],[-35.5676004724838,-9.35545246555882],[-35.5645504352543,-9.35549973482484],[-35.5612860464138,-9.35820824641337],[-35.5363196694171,-9.3468524089115],[-35.5321170637515,-9.34707421949959],[-35.5233561768461,-9.35479996514624],[-35.5186980528728,-9.35479728156924],[-35.5141849481768,-9.34683284685838],[-35.5150758147969,-9.3382758326635],[-35.5191135486513,-9.32905263487119],[-35.5199006317088,-9.3221149003823],[-35.5136051534551,-9.31427260259847],[-35.5136675538145,-9.30772913269329],[-35.4637636410791,-9.34773121382443],[-35.469521572381176,-9.355508129985186],[-35.4725,-9.358],[-35.47327712421662,-9.35926189460128],[-35.4832331207119,-9.36921315316444],[-35.4935119409233,-9.38695417719351],[-35.4958347341856,-9.3939408482915],[-35.49569473356324,-9.395663617263919],[-35.5245044465229,-9.44193963720443],[-35.5278129156335,-9.4360998094586]]]}},{"type":"Feature","properties":{"id":"147","arrangementId":"2704302","name":"Maceió/AL","state":"AL","municipality":"2704708","population2010":"45977","urbanPopulation2010":"43369","ruralPopulation2010":"2608"},"geometry":{"type":"Polygon","coordinates":[[[-35.9104960677393,-9.8092954134525],[-35.9147155833575,-9.8095689449508],[-35.9160221202246,-9.80532816756085],[-35.9219103584762,-9.80383967626],[-35.9223541568188,-9.79953066191046],[-35.9264927910095,-9.79571501743408],[-35.9334943827595,-9.79667595922809],[-35.9354942105893,-9.79437632170983],[-35.9373825818406,-9.79472433146271],[-35.9382709798218,-9.78960516914321],[-35.9414063231433,-9.78789142824679],[-35.956580238687,-9.78669125150003],[-35.9614615833853,-9.79000421991878],[-35.9676600751523,-9.78819399345798],[-35.9734930842384,-9.78442195440959],[-35.9777164570488,-9.78448981815052],[-35.9803225502454,-9.7863740255408],[-35.9887504047074,-9.78145281659414],[-35.9912442742038,-9.78182767920402],[-36.0007421177545,-9.77452849369496],[-36.0045628892659,-9.76709740731946],[-35.9879918832188,-9.73779173669925],[-35.9881562666983,-9.7005042258893],[-35.9926617271569,-9.69358020336364],[-36.0183570010747,-9.68748163796715],[-36.0298296398259,-9.6712971128714],[-36.0197941923481,-9.6597919321519],[-36.0243221169721,-9.64642144509355],[-35.9968306532121,-9.66159929067471],[-35.9801620302534,-9.6728562315298],[-35.986909952932,-9.66249394613868],[-35.9785466706923,-9.64380117498423],[-35.9722739758632,-9.64322119320343],[-35.9712940592734,-9.64426894025934],[-35.9696287702515,-9.64271002934436],[-35.9699408071225,-9.64101412020546],[-35.9676545344292,-9.64077908418734],[-35.9667937483327,-9.64233272327653],[-35.9614662832423,-9.64298280001617],[-35.957308473707,-9.6478341136534],[-35.9523982931466,-9.64120347066358],[-35.9442186012074,-9.63924917101241],[-35.8882397500644,-9.6479063427035],[-35.8682092355678,-9.62549420489358],[-35.8676819477636,-9.64085982172332],[-35.8644635637424,-9.65483704089667],[-35.8354313733591,-9.654633416399],[-35.8280161941919,-9.65527320129718],[-35.8262923071442,-9.65764912380798],[-35.8244660610598,-9.65785483293416],[-35.8150832363023,-9.65555541574981],[-35.810500596925,-9.65983798373595],[-35.8102437442533,-9.66361029707754],[-35.807641376948,-9.66691307977477],[-35.8046245399905,-9.67709392604383],[-35.8019802660764,-9.67927265151161],[-35.7911627078926,-9.6805798862527],[-35.7904587446753,-9.68379861471426],[-35.7844114181524,-9.69103467231224],[-35.7824859031019,-9.69770872827513],[-35.7855406536782,-9.70147844347536],[-35.7961817037226,-9.70820742553224],[-35.7964335840426,-9.71136164292546],[-35.7945054159921,-9.71313955944306],[-35.7968794751076,-9.71385186746966],[-35.8128283652368,-9.73221234362473],[-35.8199037634479,-9.74424762702631],[-35.8147480292981,-9.73780382628553],[-35.8163373049226,-9.74176242159843],[-35.8300460773645,-9.75596591469514],[-35.834436332980076,-9.76374139347731],[-35.83443633298013,-9.763741393477378],[-35.8435516488895,-9.77369901209966],[-35.85528919806654,-9.788287285052368],[-35.8553,-9.7883],[-35.85530565894706,-9.788307743822292],[-35.855305658947096,-9.788307743822337],[-35.905589199382,-9.81188670740557],[-35.9104960677393,-9.8092954134525]]]}},{"type":"Feature","properties":{"id":"148","arrangementId":"2704302","name":"Maceió/AL","state":"AL","municipality":"2702207","population2010":"5526","urbanPopulation2010":"4973","ruralPopulation2010":"553"},"geometry":{"type":"Polygon","coordinates":[[[-35.8553160205179,-9.63617515785723],[-35.8504536757965,-9.63898871026071],[-35.8468484825714,-9.63878091200945],[-35.8451492567328,-9.64152786421949],[-35.8399999671248,-9.642084628203],[-35.8328525682913,-9.6396880050973],[-35.8261278930877,-9.64014037218038],[-35.8231274624624,-9.63795654665729],[-35.8201318216262,-9.63077096530776],[-35.8143045079466,-9.62351241206814],[-35.8125309720267,-9.61791503255268],[-35.8054950099867,-9.61413645003711],[-35.8042182829474,-9.60897413644722],[-35.7936892290746,-9.60025655099901],[-35.7913755963067,-9.60215841298032],[-35.787958427939,-9.61327989704955],[-35.7824056467032,-9.62233785071117],[-35.7715988507064,-9.63205022124066],[-35.769130843014,-9.63829911910904],[-35.7802894798755,-9.65569972726058],[-35.7802427403102,-9.66691082697304],[-35.7855240665823,-9.66951998685785],[-35.7911627078926,-9.6805798862527],[-35.8019802660764,-9.67927265151161],[-35.8046245399905,-9.67709392604383],[-35.807641376948,-9.66691307977477],[-35.8102437442533,-9.66361029707754],[-35.810500596925,-9.65983798373595],[-35.8150832363023,-9.65555541574981],[-35.8244660610598,-9.65785483293416],[-35.8262923071442,-9.65764912380798],[-35.8280161941919,-9.65527320129718],[-35.8354313733591,-9.654633416399],[-35.8644635637424,-9.65483704089667],[-35.8676819477636,-9.64085982172332],[-35.8676569798857,-9.6265919776376],[-35.8553160205179,-9.63617515785723]]]}},{"type":"Feature","properties":{"id":"149","arrangementId":"2704302","name":"Maceió/AL","state":"AL","municipality":"2708907","population2010":"14603","urbanPopulation2010":"12792","ruralPopulation2010":"1811"},"geometry":{"type":"Polygon","coordinates":[[[-35.7965140652719,-9.53148034893889],[-35.8085206620988,-9.56715970735457],[-35.8158556451219,-9.5770965010027],[-35.825433895258,-9.57740953252386],[-35.8254385645381,-9.5824842854214],[-35.8284376839519,-9.58252203266563],[-35.845386141757,-9.60609922689775],[-35.852268168641,-9.606849302853],[-35.8502686546746,-9.61201344836191],[-35.8526291502151,-9.60875992063376],[-35.8550748439288,-9.61005516381472],[-35.8564126888944,-9.61564628944467],[-35.8676569798857,-9.6265919776376],[-35.8767102741598,-9.60830580077203],[-35.8773834931536,-9.60120246602094],[-35.8807703588649,-9.60149162144114],[-35.8806000380613,-9.59761636450356],[-35.8875747814509,-9.5902403067447],[-35.876990716948,-9.56394651601886],[-35.8341856288636,-9.554917793921],[-35.8302429848259,-9.5454531731254],[-35.8189604582585,-9.54415007166842],[-35.8176851764297,-9.53744285680233],[-35.806959564932,-9.53643424104735],[-35.7965140652719,-9.53148034893889]]]}},{"type":"Feature","properties":{"id":"150","arrangementId":"2704302","name":"Maceió/AL","state":"AL","municipality":"2707909","population2010":"6891","urbanPopulation2010":"6632","ruralPopulation2010":"259"},"geometry":{"type":"Polygon","coordinates":[[[-35.8564126888944,-9.61564628944467],[-35.8550748439288,-9.61005516381472],[-35.8526291502151,-9.60875992063376],[-35.8502686546746,-9.61201344836191],[-35.852268168641,-9.606849302853],[-35.845386141757,-9.60609922689775],[-35.8284376839519,-9.58252203266563],[-35.8254385645381,-9.5824842854214],[-35.825433895258,-9.57740953252386],[-35.8158556451219,-9.5770965010027],[-35.8140442216634,-9.58032606629491],[-35.8088838182336,-9.58196697919272],[-35.8091613679028,-9.58489539660525],[-35.8028482935139,-9.58785104458997],[-35.8011887223816,-9.5941101344751],[-35.7936892290746,-9.60025655099901],[-35.8042182829474,-9.60897413644722],[-35.8054950099867,-9.61413645003711],[-35.8125309720267,-9.61791503255268],[-35.8143045079466,-9.62351241206814],[-35.8201318216262,-9.63077096530776],[-35.8231274624624,-9.63795654665729],[-35.8261278930877,-9.64014037218038],[-35.8328525682913,-9.6396880050973],[-35.8399999671248,-9.642084628203],[-35.8451492567328,-9.64152786421949],[-35.8468484825714,-9.63878091200945],[-35.8504536757965,-9.63898871026071],[-35.8553160205179,-9.63617515785723],[-35.8676569798857,-9.6265919776376],[-35.8564126888944,-9.61564628944467]]]}},{"type":"Feature","properties":{"id":"151","arrangementId":"2704302","name":"Maceió/AL","state":"AL","municipality":"2704302","population2010":"932748","urbanPopulation2010":"932103","ruralPopulation2010":"645"},"geometry":{"type":"Polygon","coordinates":[[[-35.7945054159921,-9.71313955944306],[-35.7964335840426,-9.71136164292546],[-35.7961817037226,-9.70820742553224],[-35.7855406536782,-9.70147844347536],[-35.7824859031019,-9.69770872827513],[-35.7844114181524,-9.69103467231224],[-35.7894795178654,-9.6851504756139],[-35.7911627078926,-9.6805798862527],[-35.7855240665823,-9.66951998685785],[-35.7802427403102,-9.66691082697304],[-35.7802894798755,-9.65569972726058],[-35.769130843014,-9.63829911910904],[-35.7715988507064,-9.63205022124066],[-35.7824056467032,-9.62233785071117],[-35.787958427939,-9.61327989704955],[-35.7913755963067,-9.60215841298032],[-35.8011887223816,-9.5941101344751],[-35.8028482935139,-9.58785104458997],[-35.8091613679028,-9.58489539660525],[-35.8088838182336,-9.58196697919272],[-35.8140442216634,-9.58032606629491],[-35.8158556451219,-9.5770965010027],[-35.8085206620988,-9.56715970735457],[-35.7965140652719,-9.53148034893889],[-35.784937548529,-9.51122361987409],[-35.7696055402634,-9.38959344817903],[-35.6876860594641,-9.37084708282658],[-35.6657362496282,-9.42625311349037],[-35.665577125384,-9.42968502354495],[-35.6519870193854,-9.43595178104982],[-35.64187918008,-9.44435233569169],[-35.6391545211642,-9.44382112954146],[-35.6347106966413,-9.44704018175895],[-35.625796740627,-9.44796600232912],[-35.6243483312105,-9.45126402851208],[-35.6260112667065,-9.45783214883454],[-35.6250999018389,-9.46129309440073],[-35.6204608911572,-9.4637862453389],[-35.6176283369781,-9.46967742617221],[-35.6128233528154,-9.47117073154397],[-35.6091576729881,-9.47048684928859],[-35.6078481117009,-9.47303892830387],[-35.6044110080615,-9.47255945835229],[-35.6019038609743,-9.474054411282],[-35.5959045510542,-9.47206267555197],[-35.5946600161468,-9.46977351873284],[-35.5840428404047,-9.46983379309502],[-35.5675680825009,-9.4789870407193],[-35.5624022561591,-9.47975615442295],[-35.5585270064162,-9.487451272758],[-35.563442792113804,-9.492280383034403],[-35.5793229878656,-9.5019677398193],[-35.5809918265115,-9.50642153332705],[-35.5874640296412,-9.51140794851795],[-35.59024580878501,-9.518202712603575],[-35.6032536752474,-9.530783169705334],[-35.6052406083674,-9.53149623906011],[-35.623202036578085,-9.550076072557362],[-35.62320203657812,-9.550076072557397],[-35.630437941158,-9.55200409301443],[-35.6354630235996,-9.55499819511055],[-35.6435988744884,-9.56272565126773],[-35.6463790881244,-9.56752947530499],[-35.6499640088319,-9.56752982783923],[-35.6545423557451,-9.57657121329084],[-35.6654869791407,-9.59091906016648],[-35.6758760184634,-9.59897873488069],[-35.67787363857361,-9.602951288149224],[-35.73300603183172,-9.656272154434744],[-35.768475359137,-9.690576039078886],[-35.7750649655757,-9.69566496586544],[-35.77740186514057,-9.699209240086233],[-35.7898,-9.7112],[-35.78997026093753,-9.711400414019598],[-35.7929648566428,-9.7117033835043],[-35.7945054159921,-9.71313955944306]]]}},{"type":"Feature","properties":{"id":"153","arrangementId":"2704500","name":"Maragogi/AL - São José da Coroa Grande/PE","state":"AL","municipality":"2704500","population2010":"28749","urbanPopulation2010":"18625","ruralPopulation2010":"10124"},"geometry":{"type":"Polygon","coordinates":[[[-35.2513935081039,-9.07226583050363],[-35.2597677278983,-9.06918102368525],[-35.2871535177206,-9.03369423080409],[-35.2924072455979,-9.03361339164468],[-35.2950135474372,-9.03032518156181],[-35.3029930448931,-9.02846792865194],[-35.3100494782008,-9.02487594197112],[-35.3113525364903,-9.02305047649827],[-35.3106855479996,-9.01970753637364],[-35.3155148624209,-9.02001587433307],[-35.3212287257251,-9.01722298475289],[-35.321824731626,-9.01403212358361],[-35.3243216390323,-9.01432565510487],[-35.3265966773947,-9.01213042258086],[-35.3312125880904,-9.01317927130629],[-35.3320434546417,-9.01056917702584],[-35.3363180627284,-9.00878687721257],[-35.3388224048301,-9.003470283127],[-35.3444099592522,-9.00319746479113],[-35.3432065305569,-9.00028949706257],[-35.3583508557074,-8.98119062354841],[-35.3540154318666,-8.96362446909394],[-35.3663960504373,-8.94339198934882],[-35.3691262419824,-8.9374631503041],[-35.3687155377918,-8.93227140909817],[-35.3709607195615,-8.92885795582993],[-35.3694328019821,-8.9250328621768],[-35.3720729920749,-8.91237044733823],[-35.3669585332097,-8.90886343849685],[-35.3646815415199,-8.89743781000687],[-35.3595844611539,-8.88488625099962],[-35.3554870509866,-8.88367089369673],[-35.3506522228218,-8.87796835645446],[-35.3431037758186,-8.87682657088948],[-35.3418816313322,-8.87459242290197],[-35.3460201567048,-8.86767225397131],[-35.351128212397,-8.86312964341828],[-35.3507546600994,-8.86071291956552],[-35.2876485765205,-8.8765550089065],[-35.2775874021369,-8.87516415610088],[-35.2527821332888,-8.8872330156911],[-35.2378416916407,-8.88272354515544],[-35.2315646494889,-8.88403572436915],[-35.2201071130528,-8.8892732050943],[-35.2128062539055,-8.888574019975],[-35.2090939829009,-8.8917637147236],[-35.2030747467021,-8.88822748690894],[-35.1981006801022,-8.88735857993447],[-35.1858851168046,-8.89003506216835],[-35.1815923253255,-8.88807648983811],[-35.1712390817182,-8.89056161162904],[-35.1559829672401,-8.90276934632822],[-35.1538482518953,-8.91145775507129],[-35.1549313522001,-8.91350225762307],[-35.1527,-8.9139],[-35.15977911435073,-8.925948876344123],[-35.15977911435073,-8.925948876344126],[-35.1669867741203,-8.93475293539962],[-35.168699876731964,-8.941132295837242],[-35.16931457372054,-8.942178529537896],[-35.198220125941276,-8.991376692911329],[-35.2027776835432,-8.99397060046277],[-35.2203755310059,-9.01355491542694],[-35.2264510440804,-9.02989149609562],[-35.2388144856,-9.0490279927476],[-35.23929799908978,-9.061292531182147],[-35.23929799909044,-9.06129253118327],[-35.24242708476973,-9.06660221741805],[-35.242427084770284,-9.066602217418989],[-35.2452037280696,-9.06933120147375],[-35.2513935081039,-9.07226583050363]]]}},{"type":"Feature","properties":{"id":"155","arrangementId":"2706703","name":"Penedo/AL","state":"AL","municipality":"2706703","population2010":"60378","urbanPopulation2010":"46890","ruralPopulation2010":"13488"},"geometry":{"type":"Polygon","coordinates":[[[-36.6309732633054,-10.2540077937247],[-36.6351898795093,-10.2491437717676],[-36.6397514792473,-10.2472019924779],[-36.6446280494449,-10.249780859599],[-36.6470850988982,-10.2475657529571],[-36.6501575265486,-10.2482324167926],[-36.6601383608966,-10.2463297058512],[-36.6603353106261,-10.2438090527455],[-36.6431919823241,-10.2321507399646],[-36.6356076298882,-10.2221348725263],[-36.5999578996373,-10.1955788340959],[-36.5976233612291,-10.196340710955],[-36.5933960260057,-10.1927998678196],[-36.5765527277261,-10.1921636289483],[-36.5649118105316,-10.1870567945354],[-36.5635203533815,-10.1851068332138],[-36.5508657617454,-10.1810026943189],[-36.5236446530782,-10.1765056838901],[-36.511338920155,-10.1485966972797],[-36.5043822684269,-10.12591173304],[-36.5020844241568,-10.094618502242],[-36.4977419091617,-10.0930826148708],[-36.4955765179419,-10.0881345036044],[-36.4951771766853,-10.0794766996899],[-36.4913613280628,-10.0710942376089],[-36.454951935983,-10.0322699365083],[-36.4526061983174,-10.0419712291888],[-36.450332120431,-10.0426187311695],[-36.4499971526465,-10.0468524668678],[-36.4484144654552,-10.0476985625386],[-36.4481024591611,-10.0514841148],[-36.4498037786215,-10.0535961933096],[-36.4485536310452,-10.0552122858183],[-36.4486612043511,-10.0601878668765],[-36.440439672353,-10.0657351226777],[-36.4392713909619,-10.0691393902706],[-36.4348341467784,-10.0736733187686],[-36.4270571631575,-10.0706202193476],[-36.4244364604742,-10.0681254829047],[-36.420192440129,-10.0685744100809],[-36.4200786920779,-10.0655225463284],[-36.4181936222378,-10.0663961468646],[-36.4183282147753,-10.0747820281681],[-36.4142968993824,-10.083989212632],[-36.4127162779338,-10.084789824191],[-36.4108894697732,-10.0833117857103],[-36.4007752704623,-10.0823365734741],[-36.3993286084285,-10.0836814079706],[-36.3997124516683,-10.1017923798144],[-36.3920517395961,-10.1047764247921],[-36.388831110867,-10.103226980141],[-36.3782373112029,-10.103997284547],[-36.373582530909,-10.1075964640056],[-36.372216089301,-10.1114391124251],[-36.3620496016078,-10.1215877449784],[-36.3602698216949,-10.1347126118975],[-36.3624373245229,-10.1492994410164],[-36.3614673778172,-10.1552407275775],[-36.3601584550486,-10.1572174473273],[-36.3433843353188,-10.1647380360315],[-36.3367727408693,-10.1741604156706],[-36.3356922989604,-10.1803166581872],[-36.3381519528503,-10.185915918185],[-36.3476307046932,-10.1939652497964],[-36.3493810533928,-10.2009630625952],[-36.3537978766706,-10.2026625663243],[-36.3521300488626,-10.2064532501174],[-36.3534638846505,-10.2122675658954],[-36.3519706467279,-10.21263163754],[-36.3568279831249,-10.2204224266536],[-36.3647990845101,-10.2260537097109],[-36.3700808991141,-10.2259212881369],[-36.3723861636905,-10.224267264023],[-36.371660298384,-10.2298111401719],[-36.37369208722,-10.2326582058115],[-36.3788267835292,-10.2346308956992],[-36.3838589391387,-10.2329604796424],[-36.3864358727173,-10.2367992474872],[-36.3979134901155,-10.246681175296],[-36.3949705522492,-10.2516789417297],[-36.396666754567,-10.2582501278411],[-36.3925745748567,-10.2681132283428],[-36.3868354558915,-10.2698051579816],[-36.3830869646916,-10.2730579024002],[-36.3813535772058,-10.2808805607892],[-36.3781852008863,-10.2867069445698],[-36.3776864881409,-10.294173858137],[-36.3811925616873,-10.2992398471412],[-36.3865201355957,-10.3013177433192],[-36.3926318463826,-10.3099951353672],[-36.3984612455899,-10.3028814026546],[-36.400688047915,-10.308096767252],[-36.4083572163124,-10.3134044751364],[-36.4104463027546,-10.3197141285042],[-36.4169708077565,-10.3288825863622],[-36.4213556241627,-10.3295960095481],[-36.4283620776477,-10.3268609625633],[-36.4304721749509,-10.3287985276299],[-36.4407158442608,-10.3306732975346],[-36.4475559348585,-10.3352998382169],[-36.4602506515463,-10.3330160350619],[-36.4907745393135,-10.349466205501],[-36.4906666998083,-10.3508722136817],[-36.4947188992577,-10.3530750077054],[-36.4961933728259,-10.3553073471563],[-36.4939127352845,-10.357128550742],[-36.4905853732163,-10.3566097318536],[-36.4901687586812,-10.361012563479],[-36.491636456757,-10.364623313615],[-36.4955481677137,-10.367044240899],[-36.5044658424246,-10.3667354676676],[-36.5077130578113,-10.3684488605264],[-36.5084380534733,-10.378786388481],[-36.5015009359194,-10.3812645369288],[-36.4899360015452,-10.3787999529554],[-36.4881642417863,-10.3824236101614],[-36.4928573556824,-10.3887742528295],[-36.50388001595,-10.3907961653108],[-36.5061858740788,-10.39555887774],[-36.5022670126125,-10.4036461886207],[-36.4874136460229,-10.4229200018565],[-36.5100286493027,-10.4328153052821],[-36.5222293504041,-10.4330974747686],[-36.5221330267178,-10.4287779365525],[-36.5193077048866,-10.424703670438],[-36.5100476969436,-10.4222658673758],[-36.5105398410408,-10.4214064338598],[-36.538575554718,-10.4223633790667],[-36.5446533322854,-10.4300397177587],[-36.555208850508,-10.4227160275226],[-36.5593448146114,-10.4226876781938],[-36.5630267209064,-10.4196996887895],[-36.5653103738746,-10.4158091298874],[-36.5655816642624,-10.4118717981449],[-36.5619686433382,-10.4044164930267],[-36.5607621083846,-10.393390123955],[-36.5617749743356,-10.3840864215511],[-36.5679300837064,-10.3728519277742],[-36.5684920313821,-10.3625792868046],[-36.5657658373235,-10.3452713142197],[-36.5660764658562,-10.3416756601036],[-36.5679724264863,-10.3394018241348],[-36.5660825929373,-10.328135219165],[-36.5741297203103,-10.3152320558147],[-36.5889481977011,-10.3018295636834],[-36.5911818627527,-10.2873854048125],[-36.6064296683944,-10.2780650955277],[-36.6219399258868,-10.2592096585988],[-36.6309732633054,-10.2540077937247]]]}}]}