{"type":"FeatureCollection","features":[{"type":"Feature","properties":{"id":"63","arrangementId":"2304400","name":"Fortaleza/CE","state":"CE","municipality":"2307700","population2010":"113561","urbanPopulation2010":"87522","ruralPopulation2010":"26039"},"geometry":{"type":"Polygon","coordinates":[[[-38.9419444345879,-4.10127716750724],[-38.9413217484998,-4.10039858023027],[-38.9442644156702,-4.09625930392372],[-38.9463031940371,-4.09642934413887],[-38.9485967494404,-4.1024913520942],[-38.9513151949403,-4.10334527636337],[-38.9539482722949,-4.09881991480717],[-38.9516080456747,-4.09487428951678],[-38.9537320141211,-4.0917156798347],[-38.9520347281202,-4.08847270025484],[-38.953819883281,-4.08616554980023],[-38.9526301377706,-4.08360589669473],[-38.955858408039,-4.08053189613009],[-38.961042282875,-4.07839639387845],[-38.9575582121417,-4.07271062629434],[-38.9844042018923,-4.04436885803632],[-39.0051410052532,-3.9929288492869],[-38.9433257491839,-3.94528633939302],[-38.8726340873932,-3.96920689478231],[-38.8492870386659,-3.99238616329075],[-38.8113911328944,-3.96121383465072],[-38.800063171678,-3.96613574866581],[-38.7877197661542,-3.9666436830595],[-38.7848611667094,-3.96505867741598],[-38.7801089331807,-3.95430039984354],[-38.7654072912135,-3.94326307163339],[-38.7552837812215,-3.92860436689796],[-38.7491225456689,-3.93008076051865],[-38.7425618501492,-3.93487167748589],[-38.7371902355409,-3.93021105879331],[-38.7361320194771,-3.92377266747457],[-38.737079188154,-3.91883796779792],[-38.7318544265405,-3.91255937881226],[-38.7325193852614,-3.9078241451681],[-38.7248646482848,-3.90048437955046],[-38.7166705599983,-3.88125862248741],[-38.7108713870049,-3.87645424446776],[-38.703400461562,-3.87402421244742],[-38.6901514549257,-3.85970009598259],[-38.6895008736664,-3.85750918200314],[-38.6657925321995,-3.87034248152026],[-38.665038023486,-3.86953881676294],[-38.6561640900007,-3.87708291104746],[-38.6524840830739,-3.87731577610215],[-38.6498983532264,-3.87974977952865],[-38.6463636335748,-3.87554904445278],[-38.6390583767426,-3.88120793759618],[-38.6309309893736,-3.88371356572844],[-38.6374720158208,-3.88888797699849],[-38.6465056347272,-3.89983395567248],[-38.6573284098782,-3.90777389914609],[-38.657785844641,-3.92077128986307],[-38.6616809532134,-3.92062125506681],[-38.6671474175193,-3.92596945852364],[-38.6715703462944,-3.92687570894675],[-38.6738899379702,-3.93026472583637],[-38.6785318894351,-3.93207443788499],[-38.6788235485679,-3.93515931934707],[-38.6740741074341,-3.93687228502791],[-38.6743733397578,-3.94056156576357],[-38.6722729290524,-3.94417661375969],[-38.6716724948897,-3.94929578597168],[-38.6596110672969,-3.94966522926689],[-38.6563879645329,-3.9479338400746],[-38.658334969783,-3.95425772521378],[-38.6481797694807,-3.96385525861326],[-38.6509863395479,-3.97108509560064],[-38.6430697235888,-3.97486487241587],[-38.6465815033337,-3.98063502788421],[-38.6464080142184,-3.98645357856976],[-38.6518610516462,-3.99054821972453],[-38.6517700978117,-3.99196885447902],[-38.6579964775553,-3.99281045803616],[-38.6590483776804,-3.99996118615979],[-38.6678863535723,-4.00290219947687],[-38.6700567036539,-4.00504235661941],[-38.6684400643575,-4.0109436152556],[-38.6625575152171,-4.01407098159046],[-38.6661418423721,-4.01536200335374],[-38.6690695142466,-4.02023683785973],[-38.6679882638472,-4.02346011419287],[-38.6743152939156,-4.02850705195886],[-38.674505451965,-4.03315241365295],[-38.6718613902909,-4.0368868178723],[-38.6726099140163,-4.03965102357586],[-38.6858525003925,-4.04839037531554],[-38.699601143378,-4.0521279982085],[-38.7011861409276,-4.05518385854816],[-38.7097188851184,-4.06209441462551],[-38.7187616411368,-4.06768375959781],[-38.7227334295041,-4.06817409156105],[-38.7228106030269,-4.07206383028147],[-38.7263235878632,-4.07369171020423],[-38.7310592855575,-4.07305896250109],[-38.733627600933,-4.07103519651707],[-38.7456655040597,-4.07250762682549],[-38.7453875119241,-4.07786043571049],[-38.7484710902685,-4.09280042140228],[-38.7510949261899,-4.09206366260788],[-38.752040397846,-4.08644788745999],[-38.7550184236613,-4.08392492849259],[-38.7556024757736,-4.07746288770204],[-38.7607353590495,-4.07280516842372],[-38.7625406599234,-4.07962380929132],[-38.7686810258086,-4.08677040952671],[-38.771407185693,-4.09666658979126],[-38.7770628358811,-4.09868390763619],[-38.8309659195415,-4.0692805229777],[-38.8353513492853,-4.0751731903904],[-38.8314993838894,-4.07955757692059],[-38.830678620322,-4.08345984949238],[-38.8370387418444,-4.08575988091372],[-38.8416776014401,-4.09419174545264],[-38.8394294204314,-4.10288024592654],[-38.8473730897962,-4.1151109645993],[-38.8545153193265,-4.12075065811632],[-38.8583287784503,-4.13077226412867],[-38.8536975487029,-4.13815599490317],[-38.9419444345879,-4.10127716750724]]]}},{"type":"Feature","properties":{"id":"64","arrangementId":"2304400","name":"Fortaleza/CE","state":"CE","municipality":"2301000","population2010":"72628","urbanPopulation2010":"27641","ruralPopulation2010":"44987"},"geometry":{"type":"Polygon","coordinates":[[[-38.2278941927627,-4.01254028150873],[-38.2327719842397,-4.02207233167275],[-38.2387517437979,-4.02302843691279],[-38.2401785065328,-4.02535575466431],[-38.2477633140257,-4.02823132251747],[-38.2543668946164,-4.02838520911008],[-38.2645162583186,-4.02567069904348],[-38.2687673653216,-4.02714366624713],[-38.2736080390797,-4.02643994944407],[-38.2803522745378,-4.02333283853961],[-38.2912680782592,-4.02148072615456],[-38.2988219580669,-4.01596201033846],[-38.3099237757616,-4.01205076792855],[-38.3705516623293,-4.06495069921534],[-38.3725846841358,-4.07898268979926],[-38.3853587093369,-4.07125978870823],[-38.4108012674645,-4.06960887894656],[-38.4446018396032,-4.07129311758325],[-38.4488249830865,-4.06943716239511],[-38.4537155026683,-4.06937135900098],[-38.4614083457185,-4.06572002965561],[-38.4681542575129,-4.06570518094929],[-38.4745457599788,-4.06175784065175],[-38.4941294732965,-4.05991519273192],[-38.5022177014857,-4.06126847995632],[-38.5065784790136,-4.05986782903704],[-38.5358510995486,-4.0413507260551],[-38.5362060844432,-4.03972017604525],[-38.5331405240159,-4.03844375027882],[-38.5278248103667,-4.03048442281784],[-38.5279583147244,-4.02330350355379],[-38.5251249646454,-4.02044955810056],[-38.5187832837215,-4.01816395899948],[-38.5161281846679,-4.01522007234843],[-38.5183327215778,-4.00827726028728],[-38.5162999290984,-3.99919852419248],[-38.5168799297649,-3.98775230122766],[-38.5145201069174,-3.98079869010741],[-38.5157763465011,-3.96260157850003],[-38.508986405698,-3.93710724550295],[-38.5000054007286,-3.93779199290611],[-38.4927561338884,-3.93372841793212],[-38.4860214645189,-3.92464645057316],[-38.4791927926132,-3.92881520845504],[-38.4711780264447,-3.92717930118375],[-38.468064056411,-3.92436139426286],[-38.4685750134261,-3.92320160427057],[-38.4636238363709,-3.91366512224755],[-38.4515315656292,-3.92325725881541],[-38.448758539375,-3.9202703881678],[-38.447715530847,-3.91227897019826],[-38.4436433952264,-3.90234494556273],[-38.4397838746261,-3.90018333329414],[-38.4340044768251,-3.89364029596283],[-38.4335508740735,-3.88675554683096],[-38.4250848676725,-3.88542093762613],[-38.4168840029943,-3.880951317849],[-38.4143194341945,-3.87523577281263],[-38.4140972872599,-3.85611356818657],[-38.4169875689211,-3.85497166930702],[-38.4162720278318,-3.85244197171961],[-38.4178016127542,-3.84665961245111],[-38.4187416740889,-3.84588779268746],[-38.420743049652,-3.84731251036402],[-38.4228259028931,-3.84469702914453],[-38.4212700298879,-3.84076485591333],[-38.4221069704603,-3.83589371492298],[-38.4177962464995,-3.82798669562948],[-38.4200266038446,-3.82551353212376],[-38.4191600000339,-3.82309000040317],[-38.4155960002552,-3.82092000015787],[-38.4121060002916,-3.82192999996948],[-38.4093949858898,-3.81909400768229],[-38.4018,-3.8238],[-38.39539300172654,-3.83038287665744],[-38.3825339999441,-3.8535359996866],[-38.3604060002367,-3.88495399972726],[-38.3483580004213,-3.89848400043622],[-38.3229632961192,-3.92306482278332],[-38.3043718740627,-3.936390742139],[-38.3014868201606,-3.93654533469942],[-38.2916791943393,-3.9415323200605],[-38.2862944482294,-3.942476292407443],[-38.25107867724239,-3.9786587708333134],[-38.22355501310755,-4.0069379865326376],[-38.2273383739667,-4.00837588803676],[-38.2278941927627,-4.01254028150873]]]}},{"type":"Feature","properties":{"id":"65","arrangementId":"2304400","name":"Fortaleza/CE","state":"CE","municipality":"2307650","population2010":"209057","urbanPopulation2010":"208169","ruralPopulation2010":"888"},"geometry":{"type":"Polygon","coordinates":[[[-38.5758219769027,-3.84289922951581],[-38.5767220651711,-3.84569038520306],[-38.5641381782343,-3.85107289779598],[-38.5637410124377,-3.84856745132675],[-38.5461215713534,-3.85583573702956],[-38.5468216414056,-3.85823667957908],[-38.5421816549594,-3.86032481813579],[-38.5505907117919,-3.85958428039021],[-38.5647593237837,-3.86573384004464],[-38.5734568300686,-3.86712651217874],[-38.5752944588721,-3.87155762478448],[-38.5766744136932,-3.87115542638179],[-38.582131824524,-3.87752818427822],[-38.5880650522603,-3.88161678198884],[-38.5921728001346,-3.88127370501741],[-38.5969172770107,-3.88286406342576],[-38.603744540578,-3.88146157699015],[-38.6144536522143,-3.8858379541582],[-38.6208451142106,-3.89015558401292],[-38.625334209706,-3.89093795012628],[-38.614341906054,-3.92656850683108],[-38.6168169788204,-3.9307294711881],[-38.6170229829243,-3.93625633486193],[-38.621828550747,-3.94515922651703],[-38.6311093860892,-3.95303576239047],[-38.6348081825515,-3.95842927728928],[-38.6299727509416,-3.96881686330756],[-38.6303059452631,-3.97423815646568],[-38.6340125658272,-3.97853127799601],[-38.6392935206794,-3.98101780003139],[-38.6383951411228,-3.97638842018938],[-38.6509863395479,-3.97108509560064],[-38.6481797694807,-3.96385525861326],[-38.658334969783,-3.95425772521378],[-38.6563879645329,-3.9479338400746],[-38.6596110672969,-3.94966522926689],[-38.6716724948897,-3.94929578597168],[-38.6722729290524,-3.94417661375969],[-38.6743733397578,-3.94056156576357],[-38.6740741074341,-3.93687228502791],[-38.6788235485679,-3.93515931934707],[-38.6785318894351,-3.93207443788499],[-38.6738899379702,-3.93026472583637],[-38.6715703462944,-3.92687570894675],[-38.6671474175193,-3.92596945852364],[-38.6616809532134,-3.92062125506681],[-38.657785844641,-3.92077128986307],[-38.6573284098782,-3.90777389914609],[-38.6465056347272,-3.89983395567248],[-38.6374720158208,-3.88888797699849],[-38.6309309893736,-3.88371356572844],[-38.6390583767426,-3.88120793759618],[-38.6463636335748,-3.87554904445278],[-38.6498983532264,-3.87974977952865],[-38.6524840830739,-3.87731577610215],[-38.6561640900007,-3.87708291104746],[-38.665038023486,-3.86953881676294],[-38.6657925321995,-3.87034248152026],[-38.6895008736664,-3.85750918200314],[-38.6890108762509,-3.85235558284382],[-38.6849675603046,-3.84635959501923],[-38.6725102817241,-3.84240874107047],[-38.6661210068789,-3.84376506710413],[-38.6614027578309,-3.84145832314307],[-38.6533876957855,-3.84017732522335],[-38.6437171410332,-3.8353198908003],[-38.6429038436374,-3.82808002996939],[-38.6442490873255,-3.82569826276455],[-38.6410364598647,-3.8239227348463],[-38.6405277151819,-3.8208854221245],[-38.6444434775844,-3.8119497133086],[-38.646995256226,-3.81087736439878],[-38.6443630898846,-3.80698916441839],[-38.6408756655795,-3.80665461481857],[-38.6365725678697,-3.80059256099787],[-38.6340442435469,-3.80142330074466],[-38.6343820064244,-3.80400252489654],[-38.6318463948951,-3.80467245506969],[-38.6301058272221,-3.80781538507194],[-38.6277589357263,-3.80842666775647],[-38.6282729279532,-3.81028916371389],[-38.6198430239364,-3.81767958904174],[-38.620674098231,-3.81882380457489],[-38.6125895383764,-3.82345591026201],[-38.6132792635271,-3.8247581204908],[-38.584234733546,-3.83951889917779],[-38.5842539241792,-3.84069277704999],[-38.5758219769027,-3.84289922951581]]]}},{"type":"Feature","properties":{"id":"66","arrangementId":"2304400","name":"Fortaleza/CE","state":"CE","municipality":"2306256","population2010":"35817","urbanPopulation2010":"35565","ruralPopulation2010":"252"},"geometry":{"type":"Polygon","coordinates":[[[-38.5060762337312,-3.88693620803952],[-38.5055861400883,-3.8852769750523],[-38.5029526265624,-3.88734363510066],[-38.5016615742222,-3.88659617257526],[-38.5063164138713,-3.91068960733947],[-38.508986405698,-3.93710724550295],[-38.5157763465011,-3.96260157850003],[-38.5145201069174,-3.98079869010741],[-38.5168799297649,-3.98775230122766],[-38.5162999290984,-3.99919852419248],[-38.5183327215778,-4.00827726028728],[-38.5161281846679,-4.01522007234843],[-38.5187832837215,-4.01816395899948],[-38.5251249646454,-4.02044955810056],[-38.5279583147244,-4.02330350355379],[-38.5278248103667,-4.03048442281784],[-38.5331405240159,-4.03844375027882],[-38.5362060844432,-4.03972017604525],[-38.5391604472968,-4.05001616341514],[-38.5339938646251,-4.05857911583348],[-38.5347139697739,-4.06229944836082],[-38.5334374828535,-4.06816701029926],[-38.5376677822423,-4.07399806425922],[-38.5365884078287,-4.07723476747048],[-38.5406591450035,-4.08209792427971],[-38.5460471443602,-4.08340161928925],[-38.5437759505996,-4.08622438075055],[-38.5508897957275,-4.09413971427637],[-38.558465306029,-4.12021378803587],[-38.5621610915611,-4.12277747729872],[-38.566910128,-4.12318778308969],[-38.5658432082974,-4.11887282062412],[-38.570529135711,-4.11759560345428],[-38.5724968064824,-4.11538587116098],[-38.5772286307966,-4.10554785814708],[-38.6026989698815,-4.10766773467816],[-38.6069373856518,-4.10058259231273],[-38.613301025322,-4.1039100596015],[-38.6051580014405,-4.05915960573117],[-38.5746886530588,-4.05255587495361],[-38.5730535353923,-4.01025459517336],[-38.5657208780161,-3.96359104229271],[-38.5420663753629,-3.85979087804651],[-38.5331877564098,-3.87084633299185],[-38.5060762337312,-3.88693620803952]]]}},{"type":"Feature","properties":{"id":"67","arrangementId":"2304400","name":"Fortaleza/CE","state":"CE","municipality":"2304400","population2010":"2452185","urbanPopulation2010":"2452185","ruralPopulation2010":"0"},"geometry":{"type":"MultiPolygon","coordinates":[[[[-38.4301569603754,-3.80909799008015],[-38.4303153462762,-3.80511743242352],[-38.4397448719283,-3.804961150037],[-38.439785999724,-3.80301399999605],[-38.4429699046373,-3.8015628521439],[-38.4446268596418,-3.80626805562622],[-38.4422707833699,-3.81373203650424],[-38.4451896724653,-3.81926616040495],[-38.4457407824111,-3.82642006223602],[-38.4498887344775,-3.83787405444401],[-38.4588100388522,-3.84306713114314],[-38.4636241160601,-3.84361122907489],[-38.4644580124273,-3.8421662775516],[-38.4673126548551,-3.84535000260048],[-38.4678499089461,-3.84970119965061],[-38.4710599904262,-3.85069613491863],[-38.471309895835,-3.85362917574583],[-38.4758457992442,-3.85525209410885],[-38.4753447068926,-3.85781800919375],[-38.4777740248513,-3.85921116965972],[-38.4777740365425,-3.86200721136367],[-38.4831658022599,-3.86335827996062],[-38.4879937101415,-3.86746415184911],[-38.4944063862457,-3.88422752108317],[-38.4977850987033,-3.88728425736252],[-38.502025048717,-3.88804867390713],[-38.5016615742222,-3.88659617257526],[-38.5029526265624,-3.88734363510066],[-38.5055861400883,-3.8852769750523],[-38.5060762337312,-3.88693620803952],[-38.5076823230807,-3.88649531990303],[-38.5331877564098,-3.87084633299185],[-38.5420663753629,-3.85979087804651],[-38.5468216414056,-3.85823667957908],[-38.5461215713534,-3.85583573702956],[-38.5637410124377,-3.84856745132675],[-38.5641381782343,-3.85107289779598],[-38.5767220651711,-3.84569038520306],[-38.5758219769027,-3.84289922951581],[-38.5842539241792,-3.84069277704999],[-38.584234733546,-3.83951889917779],[-38.6132792635271,-3.8247581204908],[-38.6125895383764,-3.82345591026201],[-38.620674098231,-3.81882380457489],[-38.6198430239364,-3.81767958904174],[-38.6282729279532,-3.81028916371389],[-38.6277589357263,-3.80842666775647],[-38.6301058272221,-3.80781538507194],[-38.6318463948951,-3.80467245506969],[-38.6343820064244,-3.80400252489654],[-38.6340442435469,-3.80142330074466],[-38.6365725678697,-3.80059256099787],[-38.6343145114055,-3.79766595392061],[-38.6352483377406,-3.7951285869147],[-38.6330149667672,-3.79535316831403],[-38.6327099158299,-3.79248569166128],[-38.6305542246977,-3.79262804804591],[-38.6285593197567,-3.78667892299388],[-38.6269190363844,-3.78641009764784],[-38.6259317057836,-3.78293763086691],[-38.6245193043224,-3.78331891643478],[-38.6227309439778,-3.77710732064628],[-38.6213683838438,-3.77698275824764],[-38.617020960349,-3.76924728283581],[-38.6109679995735,-3.75581799990073],[-38.6008478521466,-3.74778018500746],[-38.5989250980148,-3.74218368053237],[-38.6011206408049,-3.74141060081853],[-38.6022834866935,-3.73693889821152],[-38.6011505306724,-3.73440798474064],[-38.6057151746156,-3.72809248218226],[-38.6094434184789,-3.72410592514831],[-38.6149986000053,-3.72268946144943],[-38.6162884013885,-3.72081809098205],[-38.6177479839822,-3.72192481557773],[-38.6168755399742,-3.71928161275617],[-38.6192478112375,-3.71947996093138],[-38.6204547877582,-3.71680837100945],[-38.6179686101632,-3.71042458292812],[-38.6210959998804,-3.7094290001482],[-38.6225334888294,-3.70328405491517],[-38.6055898253101,-3.70209109252983],[-38.5980458398436,-3.70354401024782],[-38.5942528034241,-3.70233278802773],[-38.58758667087345,-3.6964091395625562],[-38.4221608911122,-3.81009936089674],[-38.4301569603754,-3.80909799008015]]],[[[-38.40954634438005,-3.8184884592356436],[-38.40282379035795,-3.8230980038126874],[-38.4082070003527,-3.81972800004712],[-38.40954634438005,-3.8184884592356436]]]]}},{"type":"Feature","properties":{"id":"68","arrangementId":"2304400","name":"Fortaleza/CE","state":"CE","municipality":"2304285","population2010":"46033","urbanPopulation2010":"41556","ruralPopulation2010":"4477"},"geometry":{"type":"Polygon","coordinates":[[[-38.4121060002916,-3.82192999996948],[-38.4155960002552,-3.82092200025006],[-38.4191600000339,-3.82308700026483],[-38.4200266038446,-3.82551353212376],[-38.4177962464995,-3.82798669562948],[-38.4221069704603,-3.83589371492298],[-38.4212700298879,-3.84076485591333],[-38.4228259028931,-3.84469702914453],[-38.420743049652,-3.84731251036402],[-38.4187416740889,-3.84588779268746],[-38.4178016127542,-3.84665961245111],[-38.4162720278318,-3.85244197171961],[-38.4169875689211,-3.85497166930702],[-38.4140972872599,-3.85611356818657],[-38.4143194341945,-3.87523577281263],[-38.4168840029943,-3.880951317849],[-38.4250848676725,-3.88542093762613],[-38.4335508740735,-3.88675554683096],[-38.4340044768251,-3.89364029596283],[-38.4397838746261,-3.90018333329414],[-38.4436433952264,-3.90234494556273],[-38.447715530847,-3.91227897019826],[-38.448758539375,-3.9202703881678],[-38.4515315656292,-3.92325725881541],[-38.4636238363709,-3.91366512224755],[-38.4685750134261,-3.92320160427057],[-38.468064056411,-3.92436139426286],[-38.4711780264447,-3.92717930118375],[-38.4791927926132,-3.92881520845504],[-38.4860214645189,-3.92464645057316],[-38.4927561338884,-3.93372841793212],[-38.5000054007286,-3.93779199290611],[-38.508986405698,-3.93710724550295],[-38.5063164138713,-3.91068960733947],[-38.502025048717,-3.88804867390713],[-38.4977850987033,-3.88728425736252],[-38.4944063862457,-3.88422752108317],[-38.4879937101415,-3.86746415184911],[-38.4831658022599,-3.86335827996062],[-38.4777740365425,-3.86200721136367],[-38.4777740248513,-3.85921116965972],[-38.4753447068926,-3.85781800919375],[-38.4758457992442,-3.85525209410885],[-38.471309895835,-3.85362917574583],[-38.4710599904262,-3.85069613491863],[-38.4678499089461,-3.84970119965061],[-38.4673126548551,-3.84535000260048],[-38.4644580124273,-3.8421662775516],[-38.4636241160601,-3.84361122907489],[-38.4588100388522,-3.84306713114314],[-38.4498887344775,-3.83787405444401],[-38.4457407824111,-3.82642006223602],[-38.4451896724653,-3.81926616040495],[-38.4422707833699,-3.81373203650424],[-38.4446268596418,-3.80626805562622],[-38.4429699046373,-3.8015628521439],[-38.439785999724,-3.80301399999605],[-38.4397448719283,-3.804961150037],[-38.4303153462762,-3.80511743242352],[-38.4301569603754,-3.80909799008015],[-38.42198632546356,-3.8099585690847326],[-38.4093949858898,-3.81909400138699],[-38.4121060002916,-3.82192999996948]]]}},{"type":"Feature","properties":{"id":"69","arrangementId":"2304400","name":"Fortaleza/CE","state":"CE","municipality":"2309706","population2010":"72299","urbanPopulation2010":"62095","ruralPopulation2010":"10204"},"geometry":{"type":"Polygon","coordinates":[[[-38.603744540578,-3.88146157699015],[-38.5969172770107,-3.88286406342576],[-38.5921728001346,-3.88127370501741],[-38.5880650522603,-3.88161678198884],[-38.582131824524,-3.87752818427822],[-38.5766744136932,-3.87115542638179],[-38.5752944588721,-3.87155762478448],[-38.5734568300686,-3.86712651217874],[-38.5647593237837,-3.86573384004464],[-38.5505907117919,-3.85958428039021],[-38.5421816549594,-3.86032481813579],[-38.5657208780161,-3.96359104229271],[-38.5730535353923,-4.01025459517336],[-38.5746886530588,-4.05255587495361],[-38.6021321200013,-4.02036754442657],[-38.6075210240759,-4.01082969453473],[-38.6111659718321,-4.01421499722432],[-38.616913819617,-4.01606306625747],[-38.6216911118553,-4.01497327049998],[-38.6249298871045,-4.01591924397786],[-38.6276055113852,-4.02332078582555],[-38.63577110825,-4.02358642397422],[-38.6457720451437,-4.00943543869448],[-38.6499441826779,-4.00593152621889],[-38.6559107572756,-4.01448456001441],[-38.6677142709968,-4.01843267822545],[-38.6661418423721,-4.01536200335374],[-38.6625575152171,-4.01407098159046],[-38.6684400643575,-4.0109436152556],[-38.6700567036539,-4.00504235661941],[-38.6678863535723,-4.00290219947687],[-38.6590483776804,-3.99996118615979],[-38.6579964775553,-3.99281045803616],[-38.6517700978117,-3.99196885447902],[-38.6518610516462,-3.99054821972453],[-38.6464080142184,-3.98645357856976],[-38.6465815033337,-3.98063502788421],[-38.6430697235888,-3.97486487241587],[-38.6383951411228,-3.97638842018938],[-38.6392935206794,-3.98101780003139],[-38.6340125658272,-3.97853127799601],[-38.6303059452631,-3.97423815646568],[-38.6299727509416,-3.96881686330756],[-38.6348081825515,-3.95842927728928],[-38.6311093860892,-3.95303576239047],[-38.621828550747,-3.94515922651703],[-38.6170229829243,-3.93625633486193],[-38.6168169788204,-3.9307294711881],[-38.614341906054,-3.92656850683108],[-38.625334209706,-3.89093795012628],[-38.6208451142106,-3.89015558401292],[-38.6144536522143,-3.8858379541582],[-38.603744540578,-3.88146157699015]]]}},{"type":"Feature","properties":{"id":"70","arrangementId":"2304400","name":"Fortaleza/CE","state":"CE","municipality":"2303709","population2010":"325441","urbanPopulation2010":"277497","ruralPopulation2010":"47944"},"geometry":{"type":"Polygon","coordinates":[[[-38.5980458398436,-3.70354401024782],[-38.6055898253101,-3.70209109252983],[-38.6225334888294,-3.70328405491517],[-38.6210959998804,-3.7094290001482],[-38.6179686101632,-3.71042458292812],[-38.6204547877582,-3.71680837100945],[-38.6192478112375,-3.71947996093138],[-38.6168755399742,-3.71928161275617],[-38.6177479839822,-3.72192481557773],[-38.6162884013885,-3.72081809098205],[-38.6149986000053,-3.72268946144943],[-38.6094434184789,-3.72410592514831],[-38.6057151746156,-3.72809248218226],[-38.6011505306724,-3.73440798474064],[-38.6022834866935,-3.73693889821152],[-38.6011206408049,-3.74141060081853],[-38.5989250980148,-3.74218368053237],[-38.6008478521466,-3.74778018500746],[-38.6109679995735,-3.75581799990073],[-38.617020960349,-3.76924728283581],[-38.6213683838438,-3.77698275824764],[-38.6227309439778,-3.77710732064628],[-38.6245193043224,-3.78331891643478],[-38.6259317057836,-3.78293763086691],[-38.6269190363844,-3.78641009764784],[-38.6285593197567,-3.78667892299388],[-38.6305542246977,-3.79262804804591],[-38.6327099158299,-3.79248569166128],[-38.6330149667672,-3.79535316831403],[-38.6352483377406,-3.7951285869147],[-38.6343145114055,-3.79766595392061],[-38.6408756655795,-3.80665461481857],[-38.6443630898846,-3.80698916441839],[-38.646995256226,-3.81087736439878],[-38.6444434775844,-3.8119497133086],[-38.6405277151819,-3.8208854221245],[-38.6410364598647,-3.8239227348463],[-38.6442490873255,-3.82569826276455],[-38.6429038436374,-3.82808002996939],[-38.6437171410332,-3.8353198908003],[-38.6533876957855,-3.84017732522335],[-38.6614027578309,-3.84145832314307],[-38.6661210068789,-3.84376506710413],[-38.6725102817241,-3.84240874107047],[-38.6849675603046,-3.84635959501923],[-38.6890108762509,-3.85235558284382],[-38.6901514549257,-3.85970009598259],[-38.703400461562,-3.87402421244742],[-38.7108713870049,-3.87645424446776],[-38.7166705599983,-3.88125862248741],[-38.7248646482848,-3.90048437955046],[-38.7325193852614,-3.9078241451681],[-38.7318544265405,-3.91255937881226],[-38.737079188154,-3.91883796779792],[-38.7361320194771,-3.92377266747457],[-38.7371902355409,-3.93021105879331],[-38.7425618501492,-3.93487167748589],[-38.7491225456689,-3.93008076051865],[-38.7552837812215,-3.92860436689796],[-38.7654072912135,-3.94326307163339],[-38.7801089331807,-3.95430039984354],[-38.7848611667094,-3.96505867741598],[-38.7877197661542,-3.9666436830595],[-38.800063171678,-3.96613574866581],[-38.8113911328944,-3.96121383465072],[-38.8492870386659,-3.99238616329075],[-38.8726340873932,-3.96920689478231],[-38.9433257491839,-3.94528633939302],[-38.9464908996353,-3.94286253877511],[-38.9490207087387,-3.93653973282239],[-38.9548779401647,-3.93365136941515],[-38.954231772778,-3.93043586862041],[-38.9626609195657,-3.92291899501555],[-38.9610403763123,-3.91594534430215],[-38.9584892739608,-3.91490076285987],[-38.9619883390905,-3.90603593950698],[-38.9686289690516,-3.89741583427327],[-38.9767766703071,-3.8971843874495],[-38.9792478283246,-3.89449825728872],[-38.9768583215542,-3.88925454426175],[-38.9784975958873,-3.88421157070736],[-38.9817749475557,-3.88224828413098],[-38.9813623520909,-3.87871834167805],[-38.9849149889355,-3.87691531788755],[-38.9843287002093,-3.87547124769987],[-38.9858583867551,-3.87353893197611],[-38.9845851661725,-3.87123578800118],[-38.9875001863845,-3.86888041409981],[-38.9858954631051,-3.86407872505305],[-38.9843870410291,-3.86473487311588],[-38.9838609637125,-3.86294299642208],[-38.9862193611345,-3.85948501142411],[-38.9872735383431,-3.8604036868806],[-38.9908562296313,-3.85455321296035],[-38.9921095401231,-3.85641964345172],[-38.9949181246717,-3.8512972525661],[-38.9961659142255,-3.85171467918906],[-38.9981324554484,-3.84885390608286],[-38.9986379373909,-3.84425515355247],[-38.9976998257863,-3.83996146365058],[-38.9990038643368,-3.83591581126563],[-38.9938103955333,-3.82877183794989],[-38.9939123588682,-3.82602879329414],[-38.9859659303833,-3.82172573515454],[-38.9863048434937,-3.81942748978679],[-38.9837178015353,-3.81755707619806],[-38.9812658332515,-3.81892849465425],[-38.9774715683582,-3.81440849485608],[-38.9771934530154,-3.81181572331696],[-38.979216907834,-3.809928143469],[-38.9785254344012,-3.80784336388008],[-38.9814127348098,-3.80568004289961],[-38.9792726559083,-3.79941150743509],[-38.9770459390188,-3.79905393339226],[-38.9757989408684,-3.7953834116151],[-38.9813223889171,-3.78383266584478],[-38.9797192430486,-3.78007313097016],[-38.9731294409709,-3.7740730602235],[-38.9577202861622,-3.76914868566326],[-38.9568301192146,-3.76046372582022],[-38.9588783017921,-3.75759714938891],[-38.9561169442416,-3.7490016612976],[-38.9562953058836,-3.74595697683298],[-38.957898457148,-3.74479380718839],[-38.9565627732533,-3.7415700380268],[-38.9573649442368,-3.73584037093634],[-38.9553159963361,-3.73225862393628],[-38.9562956044585,-3.72894484612772],[-38.9527335472154,-3.72751234481883],[-38.9521085822452,-3.72384154964777],[-38.9553202258477,-3.72061805028273],[-38.9605698006557,-3.71954386225941],[-38.961258496982,-3.71154254635139],[-38.9408898544832,-3.68466758314242],[-38.9317184378556,-3.68153363556878],[-38.9231677971561,-3.68475614478024],[-38.9213880568133,-3.6810871095824],[-38.9238804136501,-3.67257994390923],[-38.9199633256469,-3.66648974040914],[-38.8828484280125,-3.68629487670717],[-38.8320892923869,-3.57078889569096],[-38.80662426846347,-3.5484839306030738],[-38.8047966490234,-3.5497178794951583],[-38.7893604533222,-3.57261144466241],[-38.7800771907097,-3.58187053349826],[-38.77591867071,-3.59029304418858],[-38.7628630578837,-3.60591432208827],[-38.7466578645688,-3.61802577087258],[-38.7238709999466,-3.62634399977571],[-38.6994489996716,-3.63975699958581],[-38.6751965449845,-3.66577355270727],[-38.6664242339912,-3.67267821103059],[-38.6519735028748,-3.68216739860651],[-38.6418617641091,-3.68661958232781],[-38.6339580003614,-3.68595200028454],[-38.6194876550312,-3.68965687706316],[-38.6112812999919,-3.68871361773922],[-38.6065838684507,-3.69133587804828],[-38.58758667087345,-3.6964091395625562],[-38.5942528034241,-3.70233278802773],[-38.5980458398436,-3.70354401024782]]]}},{"type":"Feature","properties":{"id":"71","arrangementId":"2307304","name":"Juazeiro do Norte/CE","state":"CE","municipality":"2304202","population2010":"121428","urbanPopulation2010":"92343","ruralPopulation2010":"29085"},"geometry":{"type":"Polygon","coordinates":[[[-39.5528279127779,-7.48065683934163],[-39.5574548401687,-7.47254485825857],[-39.5646961686932,-7.45365807995637],[-39.5715905036988,-7.42983128338699],[-39.5754515243683,-7.42781881288784],[-39.58797760828,-7.43235733602223],[-39.593077892031,-7.43235130067194],[-39.5992018839597,-7.4286525716588],[-39.5991134563209,-7.0804753182813],[-39.5955171376058,-7.08159453086285],[-39.5923348856464,-7.07744731983792],[-39.5886085033797,-7.07532588837899],[-39.5844195548186,-7.07754385216703],[-39.5789261639113,-7.07685782952519],[-39.5786948771668,-7.0630573370264],[-39.5815538507296,-7.05827237536977],[-39.5785293722327,-7.05471627883316],[-39.584251859136,-7.04902926119138],[-39.5803982066119,-7.04396789200456],[-39.5800281769587,-7.03206401484238],[-39.5821662521707,-7.02595991771597],[-39.5814718478475,-7.02235793327196],[-39.5780066331995,-7.01936017902898],[-39.5695543297684,-7.01831094269579],[-39.5655027004892,-7.01990916117882],[-39.5623876836447,-7.01876289519141],[-39.5580607727864,-7.01351369090407],[-39.5442574977852,-7.01173734820004],[-39.5370834115702,-7.00768394275969],[-39.5169732666029,-7.00333844920999],[-39.5099450207461,-7.00773468430816],[-39.5049477849123,-7.00796322362384],[-39.5029874741925,-7.01154783406526],[-39.4881208974614,-7.00846904461066],[-39.4840221338144,-7.0055941980138],[-39.4800828550397,-7.00996434018209],[-39.4715360418548,-7.01357105775804],[-39.4655926679672,-7.01290711976771],[-39.4601099861869,-7.00950509238607],[-39.453821689919,-7.00818161678813],[-39.4303899907055,-7.0468011098833],[-39.4267553365895,-7.04972010419942],[-39.4252185184198,-7.04924063604648],[-39.4270093420075,-7.04496720067573],[-39.4229113167038,-7.04679634167781],[-39.4208619874907,-7.04478411849221],[-39.4163394246247,-7.04864874904047],[-39.4219434573246,-7.05135664729141],[-39.4233284456512,-7.0531305807117],[-39.4227156664948,-7.05553042698757],[-39.4121178558543,-7.05827392130437],[-39.4089414845618,-7.05837491247217],[-39.4078129046418,-7.05549563941219],[-39.3981339412284,-7.05756708295446],[-39.3986957890793,-7.05416068396836],[-39.3937798393681,-7.05646749088197],[-39.3922917041987,-7.05373348351339],[-39.3878898636262,-7.0563300807686],[-39.3884003754769,-7.05469790118713],[-39.3839433363159,-7.05378800581179],[-39.380458308704,-7.05120038379062],[-39.3782582944847,-7.05384080410977],[-39.3514806442163,-7.05660214996919],[-39.3524978988589,-7.06251031360006],[-39.3558059641738,-7.06634222141633],[-39.3576908091835,-7.07198241225848],[-39.3574983254873,-7.07484283822635],[-39.3496401088039,-7.08298730462036],[-39.3490029535234,-7.09065499453233],[-39.3446802380025,-7.0911068921693],[-39.3436143426277,-7.09223026501468],[-39.34535609201,-7.09396757444398],[-39.3448238111699,-7.09542705631356],[-39.3371984127765,-7.09949331396525],[-39.3408315155619,-7.10933519226529],[-39.3375976443158,-7.11737879249722],[-39.3382829834729,-7.1231926721041],[-39.3419749801612,-7.12736255413853],[-39.3437632155,-7.13290723967731],[-39.3429438908478,-7.14056238494607],[-39.3481861262887,-7.14347030680915],[-39.352791226234,-7.15161612668288],[-39.3634649360579,-7.15913751398507],[-39.3671380236009,-7.16439560357418],[-39.3655900664284,-7.21293534189249],[-39.3575826270365,-7.22749173525534],[-39.3472984001011,-7.27758316383188],[-39.4398211711101,-7.3496329970651],[-39.4409248047359,-7.57302480465097],[-39.4476342058539,-7.57224312921699],[-39.4601622898577,-7.5760136771894],[-39.4658043126189,-7.57461799142709],[-39.4716808389995,-7.57580061430685],[-39.4754551254536,-7.56328911739882],[-39.4765267989725,-7.55332769131985],[-39.4842438580675,-7.54108977357412],[-39.4851642152563,-7.53444902220458],[-39.4825305038796,-7.53005109728026],[-39.4766528308634,-7.52704671413449],[-39.4696884215833,-7.52056863753257],[-39.4573058011218,-7.50618295977574],[-39.4556774814306,-7.50186092234367],[-39.4567375105277,-7.48044241758345],[-39.4582774178685,-7.47449548867581],[-39.4607476118128,-7.47121899855791],[-39.4678565853131,-7.46959060871956],[-39.4755118843659,-7.47267042340127],[-39.4897325158429,-7.47242325283083],[-39.5023605460024,-7.46414844229673],[-39.5121026670045,-7.46714786208412],[-39.5364439441327,-7.48253032771243],[-39.5432490690892,-7.48476055015919],[-39.5528279127779,-7.48065683934163]]]}},{"type":"Feature","properties":{"id":"72","arrangementId":"2307304","name":"Juazeiro do Norte/CE","state":"CE","municipality":"2307304","population2010":"249939","urbanPopulation2010":"240128","ruralPopulation2010":"9811"},"geometry":{"type":"Polygon","coordinates":[[[-39.3472984001011,-7.27758316383188],[-39.3575826270365,-7.22749173525534],[-39.3655900664284,-7.21293534189249],[-39.3671380236009,-7.16439560357418],[-39.3634649360579,-7.15913751398507],[-39.352791226234,-7.15161612668288],[-39.3481861262887,-7.14347030680915],[-39.3429438908478,-7.14056238494607],[-39.3437632155,-7.13290723967731],[-39.3419749801612,-7.12736255413853],[-39.3382829834729,-7.1231926721041],[-39.3375976443158,-7.11737879249722],[-39.3408315155619,-7.10933519226529],[-39.2925008066669,-7.11111342264627],[-39.2857981612561,-7.1036586481281],[-39.2814697934961,-7.09416023710521],[-39.2673045161904,-7.09474136552154],[-39.263662301474,-7.09865799397118],[-39.2501372668213,-7.10574150226847],[-39.2432762085302,-7.11979922065746],[-39.2360561345829,-7.12292114609397],[-39.2379747437394,-7.1277031498804],[-39.2432514771739,-7.13102740209292],[-39.2431620395964,-7.13323451645971],[-39.2374423127125,-7.13367589922331],[-39.227521139389,-7.12769245604199],[-39.2154145649302,-7.13008606282148],[-39.2125031707847,-7.12716797502197],[-39.2082170954425,-7.12667527334515],[-39.2074705322392,-7.12872682118582],[-39.2100010482098,-7.1319063329109],[-39.2092766748786,-7.1363161414767],[-39.2075858091378,-7.13680754183451],[-39.2058298225882,-7.14010896115958],[-39.2003046010764,-7.14005653068432],[-39.1960490199463,-7.14251825931017],[-39.1936413216896,-7.14745164597662],[-39.1980690411533,-7.15635711778669],[-39.200527010613,-7.15719288204582],[-39.201100095493,-7.16159994138417],[-39.2047710597366,-7.16149793398244],[-39.2049528073261,-7.16714084797173],[-39.2028858487029,-7.17114606234089],[-39.2020703848403,-7.1788613893416],[-39.1981153085746,-7.18223736875951],[-39.2060670232744,-7.18680846443904],[-39.209310582917,-7.18717426458062],[-39.2124731109453,-7.19604321402307],[-39.2152143362725,-7.22145236773253],[-39.2346552687256,-7.22677949377857],[-39.3472984001011,-7.27758316383188]]]}},{"type":"Feature","properties":{"id":"73","arrangementId":"2307304","name":"Juazeiro do Norte/CE","state":"CE","municipality":"2301901","population2010":"55323","urbanPopulation2010":"38022","ruralPopulation2010":"17301"},"geometry":{"type":"Polygon","coordinates":[[[-39.3760949708062,-7.61177236300409],[-39.3839739276546,-7.60857376496722],[-39.419656147713,-7.60441227900344],[-39.4232728189854,-7.58680580794164],[-39.4349334295341,-7.57372289349666],[-39.4409248047359,-7.57302480465097],[-39.4398211711101,-7.3496329970651],[-39.3472984001011,-7.27758316383188],[-39.2349341457942,-7.22699790313067],[-39.2340820084778,-7.2800701391256],[-39.2273825457679,-7.28516724737051],[-39.2540538359157,-7.39795468036414],[-39.2540966652289,-7.48774143401994],[-39.3689157980256,-7.45952099689646],[-39.3695890538917,-7.61928155729799],[-39.3700691992341,-7.61779912652845],[-39.3760949708062,-7.61177236300409]]]}},{"type":"Feature","properties":{"id":"74","arrangementId":"2307403","name":"Jucás - Cariús/CE","state":"CE","municipality":"2307403","population2010":"23807","urbanPopulation2010":"14150","ruralPopulation2010":"9657"},"geometry":{"type":"Polygon","coordinates":[[[-39.705756677029,-6.34645061580323],[-39.7041248122103,-6.34252425578973],[-39.7019124431047,-6.34165255911825],[-39.7028392772108,-6.33859492441616],[-39.6981835463335,-6.33641725295382],[-39.6950429437768,-6.33707818451058],[-39.693646505282,-6.33555012573766],[-39.6957374353343,-6.33401880962032],[-39.6891005375597,-6.32966148638844],[-39.6860802490043,-6.33337714693772],[-39.6835214286709,-6.33338064170323],[-39.6806179980222,-6.33753355982588],[-39.674447830403,-6.33317467896819],[-39.6693522447103,-6.33666857929143],[-39.6613082047098,-6.33582838946853],[-39.6535825858676,-6.33751615074971],[-39.647559058104,-6.33126743544375],[-39.6405588405181,-6.32839461142215],[-39.6388361828435,-6.32545367005076],[-39.6284181727604,-6.32130699502176],[-39.6264147989038,-6.31863851045887],[-39.6181412096491,-6.32088326235266],[-39.6179168135101,-6.32435064976261],[-39.616058381589,-6.32516737537402],[-39.6130587486623,-6.3222108406577],[-39.6094505921711,-6.32133867543945],[-39.605755602539,-6.32274195237915],[-39.6054070298105,-6.31933217014348],[-39.6024417419928,-6.31909999127152],[-39.5990012065404,-6.31671065357376],[-39.5971935017786,-6.31480193516114],[-39.5978915330678,-6.31217197665536],[-39.5906983740307,-6.30727120929884],[-39.5895913994235,-6.31193094036059],[-39.5860875831754,-6.31204127278648],[-39.5837500347363,-6.31445780778153],[-39.5783601557965,-6.31421835968951],[-39.5727558110318,-6.31865429625874],[-39.5706640230262,-6.32292316577145],[-39.5626135186989,-6.32816094147421],[-39.5604429761624,-6.33232654633298],[-39.5524424165842,-6.32425564358306],[-39.5416101086196,-6.31953474513233],[-39.5351442025429,-6.32372705176198],[-39.5240569916368,-6.32633091374061],[-39.5241341678575,-6.32841885444652],[-39.5288628166656,-6.33194941383431],[-39.5247531847116,-6.33783731214221],[-39.522473448291,-6.33848495081981],[-39.5189484170358,-6.33752244780266],[-39.5166724631636,-6.33298854178771],[-39.512973878042,-6.33393094855439],[-39.5090584762676,-6.32915119127444],[-39.5018039879636,-6.33462896545433],[-39.49561219075,-6.3311456951177],[-39.4915531483591,-6.32490619066812],[-39.4839165057421,-6.33018199060632],[-39.4854245824785,-6.33154656432243],[-39.4853248566567,-6.33564389355081],[-39.475502052078,-6.33770314138684],[-39.4689160037705,-6.3298271693883],[-39.4684695821055,-6.32417957172982],[-39.4627235212735,-6.32624856641816],[-39.4597271375973,-6.32514257207202],[-39.4585600001438,-6.3283366645054],[-39.4645547406088,-6.34736284581862],[-39.4634180874747,-6.35131151081755],[-39.4649150899594,-6.35586836303446],[-39.4696417476685,-6.35783695651032],[-39.4732537064933,-6.37495183206136],[-39.468834270685,-6.37525106258642],[-39.4647470327493,-6.37745533689423],[-39.4634797234104,-6.38193238866877],[-39.4589185211728,-6.38454423572785],[-39.4495239818463,-6.39483157791495],[-39.4466981249185,-6.39592771928875],[-39.4335298585161,-6.3973131186055],[-39.4299220581564,-6.39386601810218],[-39.421914053091,-6.39245332076411],[-39.4203350297378,-6.39702073821645],[-39.4178090769273,-6.39590751961629],[-39.4168529384123,-6.40322193244618],[-39.4121011023839,-6.40776664651349],[-39.4073906144852,-6.4078296844923],[-39.4121921965126,-6.44220838940561],[-39.4014821891517,-6.46390283674646],[-39.4201956968739,-6.46329570623181],[-39.4251396146015,-6.46442332387727],[-39.4327780297822,-6.4746901543271],[-39.4317704599387,-6.48092712808443],[-39.4359790568879,-6.48218273724347],[-39.4402816239977,-6.48748338095323],[-39.4460787447383,-6.49058015505005],[-39.4472534958521,-6.49305134364454],[-39.4548309765682,-6.49465598238766],[-39.4620819467244,-6.50886641825054],[-39.4722213648241,-6.51227944524016],[-39.4841088698284,-6.51037434839742],[-39.4899973769773,-6.51094946844319],[-39.4964702510012,-6.51750507829667],[-39.5121075701082,-6.52498618226645],[-39.5176073174237,-6.5351119999188],[-39.5168858057353,-6.54150208865042],[-39.5254977739031,-6.54639927670519],[-39.5378650285482,-6.55927497116295],[-39.5605610454558,-6.56723072921472],[-39.5672516246627,-6.57131059900491],[-39.5816015624621,-6.57535825957598],[-39.5841935650809,-6.57829861998528],[-39.5841876439446,-6.57275027420575],[-39.5905282267962,-6.57415697036783],[-39.6000634821439,-6.57871655922179],[-39.5994492505824,-6.58154647568927],[-39.6007974566373,-6.58350324667743],[-39.598781146033,-6.58479149403218],[-39.6227793425925,-6.59520560555421],[-39.6339840867961,-6.60372605781129],[-39.6472773220907,-6.61060358538708],[-39.6653370739468,-6.61601984683841],[-39.6781103662004,-6.62311787828742],[-39.6927511627359,-6.61846339297115],[-39.6972853565339,-6.61871193950436],[-39.7213401231481,-6.62425505482685],[-39.7394944018451,-6.63243415231421],[-39.7389285493131,-6.62489104638462],[-39.7344306647433,-6.61787567432288],[-39.7384766022134,-6.61140796240751],[-39.7195432417272,-6.61855617242936],[-39.7213333647429,-6.61362596036975],[-39.7282516046278,-6.61401954326727],[-39.7297529598312,-6.61285904730716],[-39.7335834575105,-6.6052779090482],[-39.733891787376,-6.60002091213534],[-39.7733680564906,-6.62427930594516],[-39.775807748129,-6.62434974894172],[-39.7779181080342,-6.62086050171076],[-39.7706689958774,-6.61227767697318],[-39.7746665201437,-6.61076477627336],[-39.775311532801,-6.6091834155821],[-39.7671141395059,-6.60140769011275],[-39.7635617643639,-6.59541107995733],[-39.7655320656523,-6.59202415399148],[-39.7706404927645,-6.58813676250157],[-39.7707840632339,-6.58634139553891],[-39.7611971454319,-6.58222937678426],[-39.7561135719837,-6.58368003720393],[-39.75155545532,-6.58180740678638],[-39.7528921986161,-6.57627914556605],[-39.7502278932027,-6.56523315688463],[-39.7417481811336,-6.56221881284791],[-39.7396711123319,-6.55898366906104],[-39.737430194248,-6.54866973661899],[-39.7299840334363,-6.54258132187045],[-39.7304637183259,-6.53819790211145],[-39.7357734496849,-6.53681611267342],[-39.7390871663396,-6.53251397094295],[-39.7391710676906,-6.52976675343285],[-39.7422696431295,-6.52993259831072],[-39.74513761351,-6.52348448352206],[-39.7499584707068,-6.52107243344603],[-39.7508990698362,-6.51140292100798],[-39.7449190350853,-6.50479135443743],[-39.725128455214,-6.4955251177899],[-39.7270910259301,-6.49467842676796],[-39.7290868544747,-6.4904399885146],[-39.7382264045249,-6.48677647065756],[-39.7402219255014,-6.4822235475786],[-39.7463573019479,-6.48144124261922],[-39.7487770313349,-6.47747975958322],[-39.7529202592625,-6.47649553254274],[-39.7545287776809,-6.47752140628785],[-39.7602757540228,-6.47488421993074],[-39.7632837542418,-6.47083568701732],[-39.7686177610008,-6.46874954135819],[-39.770700206849,-6.46362852913325],[-39.7742800418904,-6.46073177774929],[-39.7723653951468,-6.45845047111232],[-39.7670530107878,-6.44238427791203],[-39.7761121020918,-6.43001563111641],[-39.7755296363836,-6.42060749224192],[-39.7766998720015,-6.41280979633502],[-39.7751454244217,-6.40929222045957],[-39.7671481338792,-6.40237941877513],[-39.7585029330639,-6.39980355718837],[-39.751084040596,-6.38906375708666],[-39.7486149069524,-6.38712986575064],[-39.743666080725,-6.38623077752834],[-39.7409169026928,-6.38182166054117],[-39.7397242038089,-6.37505950069532],[-39.734727967122,-6.37360033628642],[-39.7342566872962,-6.37113755815176],[-39.7280577161906,-6.37131964928232],[-39.7275643643039,-6.36729873095164],[-39.7240862821562,-6.36590584927547],[-39.7200253170147,-6.35984922825924],[-39.7145095815519,-6.3592459774199],[-39.714727220185,-6.35370174064275],[-39.7100403529799,-6.35099031255283],[-39.705756677029,-6.34645061580323]]]}},{"type":"Feature","properties":{"id":"75","arrangementId":"2307403","name":"Jucás - Cariús/CE","state":"CE","municipality":"2303303","population2010":"18567","urbanPopulation2010":"8310","ruralPopulation2010":"10257"},"geometry":{"type":"Polygon","coordinates":[[[-39.2884408694505,-6.53428540514727],[-39.289987734846,-6.54699367821565],[-39.2946939356765,-6.54960258629029],[-39.2973490104484,-6.55884413025234],[-39.2946284128709,-6.56272452591612],[-39.2956428364477,-6.56428104913106],[-39.2946186795084,-6.56736252486058],[-39.3004386763038,-6.57532870875287],[-39.3083095275626,-6.58015789007454],[-39.3094240717634,-6.58452333598313],[-39.313186591488,-6.58481969857018],[-39.3137098701144,-6.59834414506622],[-39.3168771060935,-6.60137893878692],[-39.3172188187934,-6.60403089920658],[-39.3111472015821,-6.60707436958643],[-39.3084143651308,-6.61075709156649],[-39.3025875110048,-6.60877099098838],[-39.2969176362399,-6.60880856826077],[-39.2912518740747,-6.61817001613326],[-39.2806367478876,-6.6283944525419],[-39.2798075909475,-6.62948307108683],[-39.2838115318767,-6.6338218709825],[-39.2814156731947,-6.64148667317137],[-39.2815823787238,-6.64850599235763],[-39.2898089199456,-6.65649609102172],[-39.2916071179741,-6.66721209236413],[-39.2908061313978,-6.67481787204714],[-39.304051320412,-6.68168394945468],[-39.3083971179326,-6.68569041747873],[-39.313578966596,-6.68664355405674],[-39.3149567126821,-6.68457729960267],[-39.3170248467193,-6.68457398560093],[-39.315822375802,-6.68879783325338],[-39.3199595656814,-6.69362203143158],[-39.319104328402,-6.70301613098962],[-39.3296243521821,-6.71680263273527],[-39.3270403031674,-6.71826965721886],[-39.3277298457557,-6.71930334067656],[-39.3291101675002,-6.72068036640576],[-39.332038161332,-6.72033426861157],[-39.3366944668761,-6.72507180991608],[-39.3349725889138,-6.72627735831338],[-39.335663759275,-6.72938324703916],[-39.3301523009878,-6.7310227255183],[-39.3286039220333,-6.73550644666512],[-39.3253301640558,-6.73705920441871],[-39.3162001728996,-6.73715179771722],[-39.3122345844584,-6.73948232155186],[-39.2982745729132,-6.73414790290337],[-39.3025863760604,-6.7400921032679],[-39.2968992361108,-6.73957938268234],[-39.3008350965624,-6.75381400311369],[-39.3135295650374,-6.75825936008136],[-39.3295833862642,-6.77115786224551],[-39.3385798622708,-6.76587810529025],[-39.3485790266008,-6.76934620676201],[-39.3537763103284,-6.76173536299654],[-39.3596380365661,-6.77128648058658],[-39.3617943158549,-6.76997453789454],[-39.3657930182331,-6.75871885878826],[-39.3675019288709,-6.76318418789993],[-39.3823825907839,-6.76983856939443],[-39.38278441327,-6.7652442379312],[-39.3871900552768,-6.76618134049642],[-39.3989187400078,-6.75555447186133],[-39.4029750925264,-6.76009286549328],[-39.4055261292274,-6.76629403274337],[-39.421495648905,-6.77461309621736],[-39.4178458780848,-6.77873768389697],[-39.4192456161922,-6.7808109620562],[-39.4171494583808,-6.78317250530682],[-39.4249807844356,-6.78684864694748],[-39.4317862790135,-6.78691706646942],[-39.4425586957272,-6.78989792065249],[-39.4487995131869,-6.78692729715698],[-39.4503985959184,-6.78025822433756],[-39.4527454937095,-6.77830144255751],[-39.4632079635766,-6.77819308774076],[-39.4679614795386,-6.7753976953473],[-39.4671704583499,-6.77146226657032],[-39.4715312484683,-6.77070405804579],[-39.4703497245601,-6.76873591602965],[-39.4746426302531,-6.76489325681831],[-39.4785024503278,-6.75583496950822],[-39.4828663889726,-6.75802808143078],[-39.4885692760512,-6.7524458770755],[-39.4956192171531,-6.75174973076542],[-39.5019258416042,-6.75502309843722],[-39.5067224908502,-6.76952157186299],[-39.5099397938864,-6.77266757394933],[-39.5123555986319,-6.77802898664839],[-39.5446133873979,-6.769250674479],[-39.5494434995178,-6.77796823204824],[-39.5550310071752,-6.77603168501423],[-39.5566383366898,-6.77674452993608],[-39.5593654822312,-6.78979473513885],[-39.561084320485,-6.7906503366437],[-39.5675630077266,-6.78890796672926],[-39.5710884940388,-6.7944561029667],[-39.5678950617077,-6.79738434591081],[-39.569520770667,-6.80417745142819],[-39.5679199855189,-6.81671387034879],[-39.5753587242257,-6.81808007903237],[-39.5737455122455,-6.82066975780305],[-39.5789327550426,-6.83238864711831],[-39.5672967886158,-6.83782255956346],[-39.567464443829,-6.84283528442081],[-39.5710218866507,-6.84258968766392],[-39.5705416963422,-6.84647155281988],[-39.5747417299468,-6.8430697214904],[-39.5758741859449,-6.8437148366703],[-39.5755558070548,-6.84719102574518],[-39.5874445845998,-6.84970759143216],[-39.5876741896121,-6.84014327988842],[-39.5897690784801,-6.83116195476038],[-39.5955892740257,-6.83212712966326],[-39.6001135995629,-6.82718659428588],[-39.6004293056679,-6.82298015660889],[-39.5970221710363,-6.81352337430423],[-39.6009007617607,-6.81157945282945],[-39.6013795167513,-6.80664440511515],[-39.6039636565974,-6.80437611976208],[-39.6055822429261,-6.80534648195453],[-39.6060637849157,-6.80162365111057],[-39.6086482889873,-6.80121662154977],[-39.6107490899985,-6.79814127020341],[-39.6095680292411,-6.79193979808314],[-39.6168459403878,-6.79036772738868],[-39.6128246263554,-6.78037399136656],[-39.6070841422193,-6.77075050623085],[-39.604380584996,-6.76881857092025],[-39.6001945988016,-6.75674037097127],[-39.6010721248786,-6.75423234884381],[-39.5977498835503,-6.7501313063147],[-39.6106988574663,-6.7482951029366],[-39.6108133582498,-6.74578703404432],[-39.6051941315039,-6.73838452632482],[-39.6068359212407,-6.73633153597154],[-39.6194733070474,-6.74212846695514],[-39.6255795445603,-6.73972823307145],[-39.6258384090153,-6.73602408024704],[-39.6276578895,-6.73419696092094],[-39.6350343771347,-6.7390883591404],[-39.6398218200209,-6.73817043012122],[-39.6417033078613,-6.73924962287174],[-39.6458698462164,-6.73776296618792],[-39.6418427063758,-6.73303891921069],[-39.6426874926336,-6.72819492695426],[-39.6391000376366,-6.72443719252237],[-39.6388893507629,-6.72147303964903],[-39.6462563298657,-6.71605119880372],[-39.6464433780594,-6.70425512967047],[-39.6484978855689,-6.70208680306348],[-39.6467579842935,-6.69650437567634],[-39.6492456889374,-6.69148648781112],[-39.6479472216869,-6.68550516702976],[-39.6508457492319,-6.67883274963164],[-39.6491968440591,-6.67513309161882],[-39.6518102415493,-6.67524284757928],[-39.6531005474523,-6.67347463924319],[-39.6555072096899,-6.67426897803086],[-39.657353935136,-6.67027660598052],[-39.6551757456641,-6.66577856762678],[-39.6595085704641,-6.65778796354363],[-39.6586398037839,-6.6516853682851],[-39.6648765967775,-6.64390226297901],[-39.6661169750183,-6.63737886054594],[-39.6700826803714,-6.64021781699859],[-39.6764164922273,-6.64095874684864],[-39.6873130135847,-6.63718416631616],[-39.6893834759666,-6.63943925951419],[-39.6970996096592,-6.64227109603422],[-39.6990846949027,-6.64469149271815],[-39.701368289415,-6.64468965720187],[-39.7055571444466,-6.640269440782],[-39.7055806293425,-6.63824307755597],[-39.7129433564507,-6.63522500672861],[-39.7191933865655,-6.63789191208202],[-39.7198850794328,-6.63981289724735],[-39.7215230470509,-6.64022901895402],[-39.7232868738901,-6.63771935736242],[-39.7306127072106,-6.64063138642927],[-39.7351329075576,-6.63769922064245],[-39.7394944018451,-6.63243415231421],[-39.7213401231481,-6.62425505482685],[-39.6972853565339,-6.61871193950436],[-39.6927511627359,-6.61846339297115],[-39.6781103662004,-6.62311787828742],[-39.6653370739468,-6.61601984683841],[-39.6472773220907,-6.61060358538708],[-39.6339840867961,-6.60372605781129],[-39.6227793425925,-6.59520560555421],[-39.598781146033,-6.58479149403218],[-39.6007974566373,-6.58350324667743],[-39.5994492505824,-6.58154647568927],[-39.6000634821439,-6.57871655922179],[-39.5905282267962,-6.57415697036783],[-39.5841876439446,-6.57275027420575],[-39.5841935650809,-6.57829861998528],[-39.5816015624621,-6.57535825957598],[-39.5672516246627,-6.57131059900491],[-39.5605610454558,-6.56723072921472],[-39.5378650285482,-6.55927497116295],[-39.5254977739031,-6.54639927670519],[-39.5168858057353,-6.54150208865042],[-39.5176073174237,-6.5351119999188],[-39.5121075701082,-6.52498618226645],[-39.4964702510012,-6.51750507829667],[-39.4899973769773,-6.51094946844319],[-39.4841088698284,-6.51037434839742],[-39.4722213648241,-6.51227944524016],[-39.4620819467244,-6.50886641825054],[-39.4548309765682,-6.49465598238766],[-39.4472534958521,-6.49305134364454],[-39.4460787447383,-6.49058015505005],[-39.4402816239977,-6.48748338095323],[-39.4359790568879,-6.48218273724347],[-39.4317704599387,-6.48092712808443],[-39.4327780297822,-6.4746901543271],[-39.4251396146015,-6.46442332387727],[-39.4201956968739,-6.46329570623181],[-39.4014821891517,-6.46390283674646],[-39.4006362526609,-6.46601234949031],[-39.3979456088028,-6.46740187669519],[-39.386272758481,-6.46477060158195],[-39.3846359770686,-6.47092654372495],[-39.3767492509771,-6.47170395277517],[-39.3753557910369,-6.47511054241755],[-39.3562579598369,-6.46598302709498],[-39.3517902043544,-6.46930261902061],[-39.3515368140727,-6.47815272137097],[-39.3484291761655,-6.48554385716324],[-39.3563296295088,-6.48722551744363],[-39.3526999126708,-6.4925316973799],[-39.3551664625622,-6.49476407640095],[-39.353136840193,-6.50039536035757],[-39.3548778926006,-6.50498457108103],[-39.3591158892868,-6.50909456276384],[-39.3489154045223,-6.52046467340591],[-39.3446435618508,-6.52268379552072],[-39.3456640000935,-6.52475045736765],[-39.3423593387125,-6.53498975687171],[-39.3331656413812,-6.53450256444177],[-39.3192225406876,-6.53042156870038],[-39.3026124779834,-6.52930419882966],[-39.2905572979809,-6.52559104648958],[-39.2816759369949,-6.52604071740513],[-39.2884408694505,-6.53428540514727]]]}},{"type":"Feature","properties":{"id":"76","arrangementId":"2311603","name":"Redenção - Acarape/CE","state":"CE","municipality":"2311603","population2010":"26415","urbanPopulation2010":"13504","ruralPopulation2010":"12911"},"geometry":{"type":"Polygon","coordinates":[[[-38.8037279521832,-4.16001602362053],[-38.8067249042309,-4.15229168990953],[-38.8036879359494,-4.1445665908754],[-38.8000317637549,-4.1447362057113],[-38.7960684425046,-4.14241893698432],[-38.7932429731846,-4.14447191834432],[-38.7911428097928,-4.14322803544542],[-38.7910169946385,-4.15220338547784],[-38.7850680089814,-4.15431064811788],[-38.7807911588848,-4.1585168510718],[-38.7766224216874,-4.16752363780558],[-38.7773665414327,-4.17035934410843],[-38.7698365674036,-4.16938482165216],[-38.7682133315799,-4.17157328587836],[-38.7634309096088,-4.17092188803469],[-38.7621786144515,-4.17813842494831],[-38.750197020576,-4.18064730143175],[-38.7373832174614,-4.17585889896895],[-38.7333066409886,-4.17837110204465],[-38.7330598715158,-4.17066969025394],[-38.7299410604315,-4.16985120017273],[-38.7218628938574,-4.20348945547398],[-38.7116685343753,-4.23544572224223],[-38.713791791458,-4.23454471486667],[-38.7170717205834,-4.23669061058314],[-38.7168906196064,-4.24266404790745],[-38.7206144963619,-4.24481766880035],[-38.7242720247341,-4.24496199559957],[-38.723050017844,-4.25226829114865],[-38.7248032587634,-4.26534468191148],[-38.7271929355055,-4.26880485765799],[-38.7296338439267,-4.28218140075097],[-38.7372704505708,-4.29336157367767],[-38.7097454861652,-4.29120537532776],[-38.7012832011588,-4.28735781750926],[-38.6974224979499,-4.28217333023496],[-38.6887343679966,-4.28145604715883],[-38.6841301511855,-4.27824485321736],[-38.7006237534834,-4.33072611861543],[-38.6939850004074,-4.38022498749314],[-38.713790964981,-4.38399689613982],[-38.7141740617835,-4.38250527969484],[-38.7128345692599,-4.38157223037411],[-38.7140330256036,-4.37849535557615],[-38.7199231964983,-4.37374057336871],[-38.7238972412646,-4.36760269141104],[-38.7307432637905,-4.3661931336062],[-38.7319421410169,-4.35854509028365],[-38.7385017933231,-4.35668229125469],[-38.7455397707438,-4.35211382159554],[-38.7477943989922,-4.34484135494456],[-38.7511929495949,-4.34139268962088],[-38.7508597327904,-4.33374626238004],[-38.7536877795673,-4.32835660647215],[-38.7569422299999,-4.32686765921506],[-38.7586100632038,-4.32100881620386],[-38.7574798105448,-4.31674748480851],[-38.7616240699948,-4.31072166737102],[-38.7598952150921,-4.30925201596773],[-38.7603480642118,-4.30807623602942],[-38.795629550863,-4.29538180982264],[-38.7969175032401,-4.29322757918937],[-38.7963816691786,-4.29085560380304],[-38.7904836669876,-4.28805283247221],[-38.7859799700995,-4.28201911449049],[-38.7811536549172,-4.28040005421906],[-38.7805249748477,-4.27820565536667],[-38.7828716289225,-4.27188799533469],[-38.7911320476058,-4.26865742010381],[-38.7952085845085,-4.26424301510303],[-38.796493882087,-4.27070673852512],[-38.8004604094203,-4.2724314547478],[-38.804431025971,-4.26715328149869],[-38.8028252684713,-4.25842467306018],[-38.8062571875191,-4.25971776506277],[-38.8057914169403,-4.25262616196773],[-38.8071875667528,-4.25100952806726],[-38.8248837523832,-4.24982893945395],[-38.8261703332942,-4.25101552294797],[-38.8313188081165,-4.25101396712086],[-38.8330352182007,-4.24821441536295],[-38.8408646206057,-4.24595318339266],[-38.8435490357593,-4.23884092197091],[-38.8409737317523,-4.23614774382327],[-38.8414035492344,-4.23302404402438],[-38.8476932817196,-4.23218714841812],[-38.849702379761,-4.23014962640411],[-38.8443414634877,-4.22459335759732],[-38.855970344156,-4.17735562266381],[-38.8037279521832,-4.16001602362053]]]}},{"type":"Feature","properties":{"id":"77","arrangementId":"2311603","name":"Redenção - Acarape/CE","state":"CE","municipality":"2300150","population2010":"15338","urbanPopulation2010":"8190","ruralPopulation2010":"7148"},"geometry":{"type":"Polygon","coordinates":[[[-38.725966286315,-4.1706813634541],[-38.7246414887137,-4.17671878754197],[-38.7158551500951,-4.19120944585922],[-38.7126353766213,-4.18690403509312],[-38.7100749267165,-4.18704781240655],[-38.7069074856919,-4.18459676862591],[-38.6991108950517,-4.17572253746511],[-38.6976931875905,-4.17225586951269],[-38.6884702245212,-4.168571556632],[-38.6861051901024,-4.17058615672573],[-38.6786611741738,-4.16764367031908],[-38.6789438517773,-4.16515243403756],[-38.6674173328436,-4.16083837898794],[-38.6642247593651,-4.16242857911562],[-38.6608836439649,-4.15939881800103],[-38.6561631574037,-4.15842269834884],[-38.6479115799554,-4.16141401884186],[-38.6414679303007,-4.1606814059221],[-38.6364714265151,-4.16365165529958],[-38.6266345124727,-4.16458433589832],[-38.6241870614837,-4.16616192033633],[-38.6197741529547,-4.1643761887101],[-38.6171461513737,-4.18404644558695],[-38.5708168558132,-4.23503428870141],[-38.6841301511855,-4.27824485321736],[-38.6887343679966,-4.28145604715883],[-38.6974224979499,-4.28217333023496],[-38.7012832011588,-4.28735781750926],[-38.7097454861652,-4.29120537532776],[-38.7372704505708,-4.29336157367767],[-38.7296338439267,-4.28218140075097],[-38.7271929355055,-4.26880485765799],[-38.7248032587634,-4.26534468191148],[-38.723050017844,-4.25226829114865],[-38.7242720247341,-4.24496199559957],[-38.7206144963619,-4.24481766880035],[-38.7168906196064,-4.24266404790745],[-38.7170717205834,-4.23669061058314],[-38.713791791458,-4.23454471486667],[-38.7116685343753,-4.23544572224223],[-38.7218628938574,-4.20348945547398],[-38.7299410604315,-4.16985120017273],[-38.725966286315,-4.1706813634541]]]}},{"type":"Feature","properties":{"id":"78","arrangementId":"2312908","name":"Sobral/CE","state":"CE","municipality":"2304350","population2010":"21786","urbanPopulation2010":"15473","ruralPopulation2010":"6313"},"geometry":{"type":"Polygon","coordinates":[[[-40.324843155787,-3.86196788041332],[-40.337565075168,-3.86394643927674],[-40.3421313963468,-3.87068230204653],[-40.3545975125651,-3.87465705098209],[-40.3593750746,-3.87252909494174],[-40.3610209706412,-3.86949793358276],[-40.3662495399843,-3.87013662220732],[-40.3686593075809,-3.86791848485012],[-40.3710718387943,-3.86182085834588],[-40.366719836851,-3.85537687324404],[-40.364667196334,-3.84518673158238],[-40.3601201539219,-3.8369913087019],[-40.3615250757216,-3.82922279219804],[-40.3567265891607,-3.8041401004852],[-40.3465399962238,-3.78002512605866],[-40.3344771495008,-3.78629259582658],[-40.3219493433874,-3.78791738477946],[-40.3175147953715,-3.7901203388825],[-40.3096558385461,-3.78918845598242],[-40.306854203059,-3.78534238654185],[-40.2972431258695,-3.78649113555741],[-40.3024512248441,-3.77448075977918],[-40.3060610405845,-3.77328151023347],[-40.3085181628829,-3.77457837669067],[-40.3116619409458,-3.7704764159538],[-40.3114563568254,-3.76427602931523],[-40.3061282676054,-3.76154516147994],[-40.3021370448887,-3.75678529900228],[-40.2979679416671,-3.75840086450825],[-40.2906512850287,-3.76667742332438],[-40.2832195628325,-3.77041958959234],[-40.2844968519481,-3.75874053754575],[-40.286298835223,-3.75792499724076],[-40.288008419453,-3.75420049545648],[-40.2866562410926,-3.74483567242828],[-40.2782026849059,-3.74184490052171],[-40.2776127934956,-3.7467354938479],[-40.2726284584365,-3.75274214493402],[-40.2713886080978,-3.76235420148515],[-40.2623458394888,-3.76283511125132],[-40.26105552819,-3.76385615203976],[-40.2609542339507,-3.76811036350244],[-40.2579456015082,-3.76774847091514],[-40.2567940789835,-3.7657747647935],[-40.251052834021,-3.76608993490254],[-40.2503707621009,-3.77242106318147],[-40.2470278966201,-3.77173396584982],[-40.2407031319439,-3.77485811710835],[-40.2375459243049,-3.77264433696656],[-40.233494351683,-3.77252643674564],[-40.2320277175051,-3.76988348213694],[-40.2263642099403,-3.76714421013714],[-40.2224077864901,-3.7614252593682],[-40.2190887224666,-3.75959073232639],[-40.2228233793954,-3.75655160477271],[-40.2203894353241,-3.74850857291227],[-40.2234562494063,-3.74612176410808],[-40.2222187534927,-3.74219313150775],[-40.2247236792543,-3.74105016243499],[-40.2252821168762,-3.73781000672637],[-40.2280866994416,-3.73758042869378],[-40.2278433383993,-3.73147652851895],[-40.2294381349619,-3.73111588419068],[-40.2330053120455,-3.73491051870542],[-40.2369512242196,-3.73333670872211],[-40.2400862051142,-3.73390144699414],[-40.2426292360503,-3.73080385631289],[-40.2420173238404,-3.72561259264701],[-40.2432438974878,-3.72200610709609],[-40.2418184567563,-3.71883218825485],[-40.2386214954856,-3.71734812161844],[-40.2368633721468,-3.71454369193777],[-40.2390882391309,-3.70739497200032],[-40.236641570552,-3.70525877817005],[-40.239448017412,-3.69975201524324],[-40.1265761416756,-3.70692957553945],[-40.124207000053,-3.77494399876651],[-40.1306030512898,-3.78856933480694],[-40.1316258160785,-3.79660823518186],[-40.1352466907821,-3.80416248281227],[-40.1347610424881,-3.8061160450194],[-40.1258727225481,-3.80900882589657],[-40.1214038141347,-3.80890879520467],[-40.1214756600736,-3.82064469159917],[-40.1246119845554,-3.82470149467822],[-40.1269349702726,-3.8483083899202],[-40.1289779925403,-3.85082558962921],[-40.1302108857237,-3.85626817153883],[-40.1362853331016,-3.85681804491679],[-40.136710769986,-3.8676245756136],[-40.1402872109859,-3.87491839306933],[-40.1401277000333,-3.87731290636549],[-40.1359689821827,-3.88345082609471],[-40.1354577247941,-3.88863032572892],[-40.1392557200754,-3.8973989090324],[-40.1423363342544,-3.89864160122886],[-40.1474574714851,-3.89799794295067],[-40.1509520373066,-3.90388938638603],[-40.1480686003856,-3.90917449610606],[-40.1484313913955,-3.91289380340623],[-40.1521953842096,-3.91564858691271],[-40.1571113465114,-3.92445903006012],[-40.1608155631877,-3.92546082985337],[-40.16226553023,-3.92861968145309],[-40.1663543006105,-3.92983514667463],[-40.1679714561178,-3.93724135960099],[-40.1725225526736,-3.93774118840509],[-40.1730717839356,-3.94480780923294],[-40.1786034248082,-3.94948667337121],[-40.1855984245277,-3.95294060332612],[-40.1889205885143,-3.9577456558373],[-40.3054866058222,-3.93407943501786],[-40.3208362030283,-3.86444356831601],[-40.324843155787,-3.86196788041332]]]}},{"type":"Feature","properties":{"id":"79","arrangementId":"2312908","name":"Sobral/CE","state":"CE","municipality":"2312908","population2010":"188233","urbanPopulation2010":"168007","ruralPopulation2010":"20226"},"geometry":{"type":"Polygon","coordinates":[[[-40.1474574714851,-3.89799794295067],[-40.1423363342544,-3.89864160122886],[-40.1392557200754,-3.8973989090324],[-40.1354577247941,-3.88863032572892],[-40.1359689821827,-3.88345082609471],[-40.1401277000333,-3.87731290636549],[-40.1402872109859,-3.87491839306933],[-40.136710769986,-3.8676245756136],[-40.1362853331016,-3.85681804491679],[-40.1302108857237,-3.85626817153883],[-40.1289779925403,-3.85082558962921],[-40.1269349702726,-3.8483083899202],[-40.1246119845554,-3.82470149467822],[-40.1214756600736,-3.82064469159917],[-40.1214038141347,-3.80890879520467],[-40.1258727225481,-3.80900882589657],[-40.1347610424881,-3.8061160450194],[-40.1352466907821,-3.80416248281227],[-40.1316258160785,-3.79660823518186],[-40.1306030512898,-3.78856933480694],[-40.124207000053,-3.77494399876651],[-40.1265761416756,-3.70692957553945],[-40.239448017412,-3.69975201524324],[-40.236641570552,-3.70525877817005],[-40.2390882391309,-3.70739497200032],[-40.2368633721468,-3.71454369193777],[-40.2386214954856,-3.71734812161844],[-40.2418184567563,-3.71883218825485],[-40.2432438974878,-3.72200610709609],[-40.2420173238404,-3.72561259264701],[-40.2426292360503,-3.73080385631289],[-40.2400862051142,-3.73390144699414],[-40.2369512242196,-3.73333670872211],[-40.2330053120455,-3.73491051870542],[-40.2294381349619,-3.73111588419068],[-40.2278433383993,-3.73147652851895],[-40.2280866994416,-3.73758042869378],[-40.2252821168762,-3.73781000672637],[-40.2247236792543,-3.74105016243499],[-40.2222187534927,-3.74219313150775],[-40.2234562494063,-3.74612176410808],[-40.2203894353241,-3.74850857291227],[-40.2228233793954,-3.75655160477271],[-40.2190887224666,-3.75959073232639],[-40.2224077864901,-3.7614252593682],[-40.2263642099403,-3.76714421013714],[-40.2320277175051,-3.76988348213694],[-40.233494351683,-3.77252643674564],[-40.2375459243049,-3.77264433696656],[-40.2407031319439,-3.77485811710835],[-40.2470278966201,-3.77173396584982],[-40.2503707621009,-3.77242106318147],[-40.251052834021,-3.76608993490254],[-40.2567940789835,-3.7657747647935],[-40.2579456015082,-3.76774847091514],[-40.2609542339507,-3.76811036350244],[-40.26105552819,-3.76385615203976],[-40.2623458394888,-3.76283511125132],[-40.2713886080978,-3.76235420148515],[-40.2726284584365,-3.75274214493402],[-40.2776127934956,-3.7467354938479],[-40.2782026849059,-3.74184490052171],[-40.2866562410926,-3.74483567242828],[-40.288008419453,-3.75420049545648],[-40.286298835223,-3.75792499724076],[-40.2844968519481,-3.75874053754575],[-40.2832195628325,-3.77041958959234],[-40.2906512850287,-3.76667742332438],[-40.2979679416671,-3.75840086450825],[-40.3021370448887,-3.75678529900228],[-40.3061282676054,-3.76154516147994],[-40.3114563568254,-3.76427602931523],[-40.3116619409458,-3.7704764159538],[-40.3085181628829,-3.77457837669067],[-40.3060610405845,-3.77328151023347],[-40.3024512248441,-3.77448075977918],[-40.2972431258695,-3.78649113555741],[-40.306854203059,-3.78534238654185],[-40.3096558385461,-3.78918845598242],[-40.3175147953715,-3.7901203388825],[-40.3219493433874,-3.78791738477946],[-40.3344771495008,-3.78629259582658],[-40.3465399962238,-3.78002512605866],[-40.3567265891607,-3.8041401004852],[-40.3615250757216,-3.82922279219804],[-40.3601201539219,-3.8369913087019],[-40.364667196334,-3.84518673158238],[-40.366719836851,-3.85537687324404],[-40.3710718387943,-3.86182085834588],[-40.380496719448,-3.84716823572547],[-40.380021691248,-3.83755625651599],[-40.3855499812466,-3.82707435319878],[-40.3885060033493,-3.81210415388353],[-40.387489947503,-3.80898099457721],[-40.3907319747008,-3.80269096891305],[-40.3896638651952,-3.79949400224638],[-40.4162645756496,-3.80664004490211],[-40.4851675605344,-3.85130448761197],[-40.5334105477585,-3.85262847222618],[-40.5352456674535,-3.84733486751009],[-40.5787466149642,-3.86186017400781],[-40.5884974512963,-3.85612321611348],[-40.5889574653147,-3.85235132185596],[-40.5920603314191,-3.85122647232379],[-40.5946895210046,-3.8471056896758],[-40.5964637323153,-3.84855193082688],[-40.5984146676028,-3.8463652724393],[-40.600047075612,-3.84761833202038],[-40.600779828826,-3.84480029199983],[-40.6144429507815,-3.84277000862897],[-40.6220732315943,-3.8275266429402],[-40.6289125460771,-3.81904151515375],[-40.6669171070388,-3.83668044724482],[-40.6661898190049,-3.83821206553432],[-40.6702046579186,-3.84616858531195],[-40.6888445390442,-3.83746476848421],[-40.6939715092777,-3.83632743456343],[-40.6959981153207,-3.83377000997791],[-40.705398573985,-3.82815482478532],[-40.7086132878729,-3.82188370376985],[-40.7117001892123,-3.82123375023735],[-40.7149125297894,-3.81705577880109],[-40.7124992521387,-3.81107724771676],[-40.7151911964165,-3.80746023919863],[-40.7141179301983,-3.8050353432065],[-40.7116539919381,-3.80454469558118],[-40.6570401506823,-3.79840463096889],[-40.6113087100289,-3.65098706240298],[-40.5499874812372,-3.65418977843547],[-40.5460126450675,-3.65468347746048],[-40.5443102608098,-3.65663967378185],[-40.5320482700116,-3.65574192554937],[-40.5339055067337,-3.65372470213328],[-40.5312527243337,-3.65199004300605],[-40.5160567924869,-3.64878599957416],[-40.5206522912702,-3.63828696057471],[-40.511915895602,-3.6436170327998],[-40.4975229369339,-3.64042525342269],[-40.4932472253791,-3.63612684028141],[-40.5002300230971,-3.63001638494814],[-40.4856326476286,-3.63229896592446],[-40.473794555874,-3.63801045052186],[-40.4691058369648,-3.63441805285084],[-40.4661242012708,-3.64112004625309],[-40.4595048672558,-3.64147344024701],[-40.4554520985355,-3.6401690833365],[-40.4512641985838,-3.63585306596616],[-40.4351532272396,-3.6374316927184],[-40.4247909094728,-3.64279337971066],[-40.4131718619918,-3.64260393032708],[-40.4093411772535,-3.64414932982766],[-40.4072020570293,-3.64027300719346],[-40.4030405872533,-3.64119778724803],[-40.4028758179646,-3.63778162522181],[-40.3979545937295,-3.63640654742421],[-40.3982220368175,-3.63085502164188],[-40.4033952295062,-3.62656288846649],[-40.363986233278,-3.61726340658089],[-40.3624927012771,-3.6138397576986],[-40.3567797804624,-3.61344293004714],[-40.3551488896095,-3.61490349739842],[-40.3528287493473,-3.61409732982787],[-40.3434005142223,-3.61637116309868],[-40.3346717403085,-3.62270621871699],[-40.3255968748958,-3.61987130022027],[-40.3214035106635,-3.61682167218238],[-40.3133369543369,-3.62128492026284],[-40.3012683672413,-3.62166443686426],[-40.3004715337343,-3.61567563192484],[-40.2937729766415,-3.60867866089144],[-40.2933014207239,-3.60660558238169],[-40.2990223922695,-3.59873349725302],[-40.2992753688632,-3.59198471662131],[-40.2930934623934,-3.59017451264362],[-40.2880088736106,-3.58593450687192],[-40.2819828259466,-3.58453203842277],[-40.2812897103518,-3.57610302203683],[-40.2790932529512,-3.57313547871934],[-40.2722065972566,-3.57321786381334],[-40.2706743764213,-3.57210547258945],[-40.2604805700223,-3.57949147774946],[-40.253151288701,-3.58198808298358],[-40.2455369070026,-3.58257103522504],[-40.2420324072697,-3.57908974069892],[-40.2371999802948,-3.581419564861],[-40.2310341689916,-3.5789735258075],[-40.2260922801346,-3.58493963455647],[-40.2258711620245,-3.5899913315347],[-40.2226732690561,-3.59779252760302],[-40.217565920231,-3.60082871167566],[-40.2055336675447,-3.60313931372833],[-40.1997873629963,-3.60796820726688],[-40.2133131198046,-3.62629961913206],[-40.2102034260473,-3.62894464667807],[-40.2082050928907,-3.63707910361768],[-40.2041968406117,-3.6412301250702],[-40.1982013402196,-3.64296777893981],[-40.1944752268502,-3.64812549519541],[-40.1906456626672,-3.6491060889748],[-40.1877592399969,-3.65172397857868],[-40.1800398273761,-3.65373496429715],[-40.1801185998934,-3.66022264206124],[-40.1842190776483,-3.66777537523337],[-40.1841382987434,-3.67126661086536],[-40.1776164431443,-3.6704854624341],[-40.1764250878475,-3.67148163426999],[-40.1768569485893,-3.6758030529685],[-40.1751539806716,-3.67646982921918],[-40.163637495474,-3.66834225029459],[-40.1531131153779,-3.66847960285134],[-40.1408150419805,-3.67504210420969],[-40.1339011665056,-3.68468339861988],[-40.1193724749597,-3.69145901322281],[-40.1132061096742,-3.68829452287389],[-40.113731347024,-3.6724196676335],[-40.1118736606409,-3.66484113201261],[-40.1137691257445,-3.65994363818828],[-40.1131199510249,-3.64961504859559],[-40.1140597902271,-3.64719994801914],[-40.1190331220809,-3.6445818866447],[-40.1203044558859,-3.63926529615646],[-40.108494732346,-3.63093154765279],[-40.1057195693027,-3.62507929937011],[-40.099676789752,-3.62233749847673],[-40.092057924034,-3.61593615922629],[-40.0708478722315,-3.59443179619042],[-40.0661491627536,-3.59400879107278],[-40.061032404322,-3.59029268086249],[-40.0534020623552,-3.59014584945134],[-40.0435822516196,-3.58110686339098],[-40.0375884356577,-3.58108022727061],[-40.0333402199751,-3.58319700473794],[-40.0223743689819,-3.58301990304603],[-40.0108636682237,-3.57849719089262],[-39.997930308337,-3.58098054101914],[-39.9877535656745,-3.57757469331739],[-39.982181126158,-3.57320336404399],[-39.9780160465033,-3.57194259907164],[-39.9760188051237,-3.57641955102139],[-39.9772739835075,-3.57744849505196],[-39.9773872216429,-3.58482685057862],[-39.9810031743569,-3.59588321383921],[-39.9867047385328,-3.6052492455562],[-39.9865228299646,-3.61262611989947],[-39.9939281588574,-3.61847689599193],[-39.9941913229711,-3.62764244184518],[-39.9988337088086,-3.6315429733295],[-40.0097070420463,-3.64764804871845],[-40.0083482419777,-3.65724626560263],[-40.0158220227681,-3.67112410879053],[-40.0166386863262,-3.68233564287556],[-40.0155448310291,-3.68324192477497],[-40.016810169054,-3.68451450144306],[-40.0155262924045,-3.68638478552936],[-40.0205722472114,-3.69395952960856],[-40.0195710211856,-3.70185531187309],[-40.0168353042059,-3.70538149515983],[-40.0157351203795,-3.71234564363652],[-40.0154799431448,-3.71590544088331],[-40.0181798617112,-3.72190765381516],[-40.0172139808405,-3.72441587829013],[-40.0145376748737,-3.7253449220305],[-40.0123999054313,-3.73698064743889],[-40.0158019076319,-3.74168121761403],[-40.0131329841998,-3.74793195459597],[-40.0139718349322,-3.75139289926283],[-40.0124078365524,-3.76099112603959],[-39.9760867444077,-3.77783116607543],[-39.9241367544076,-3.94748415297125],[-40.0073015714103,-3.89903335400601],[-40.0025902939069,-3.90659381055588],[-40.0028917601466,-3.91145160830501],[-39.9994033339966,-3.91956991521937],[-39.9974447301901,-3.92004383995124],[-40.0001451991416,-3.9287546562024],[-39.9938490365038,-3.93655532616731],[-39.9766791476245,-3.94403486441741],[-39.9691022460718,-3.95168670467763],[-39.9622759258932,-3.95525427116764],[-39.9600270362187,-3.95992879877503],[-39.9524427098631,-3.96430259488881],[-39.9457536163363,-3.97560419247947],[-39.9419779629126,-3.97619655882409],[-39.9414482613282,-3.98588593009158],[-39.9398013607442,-3.98940029089067],[-39.936021765592,-3.98974650739536],[-39.9318258454863,-3.9864721414761],[-39.9282436641138,-3.98966350716506],[-39.9247163180036,-3.9883967275269],[-39.9224321865961,-3.99099943567535],[-39.9228522221523,-3.99802447185187],[-39.9160892349302,-3.99787903618852],[-39.9147917704239,-4.00261549291065],[-39.9104748177586,-4.00391889653981],[-39.9111435608267,-4.00611600684817],[-39.916161965802,-4.0073474089557],[-39.9142710602612,-4.01948233184408],[-39.9167525532877,-4.02101467318858],[-39.9222430654651,-4.02049323907169],[-39.9214541352001,-4.02578783933729],[-39.926957941156,-4.03416716458292],[-39.9238829243574,-4.03822491284939],[-39.917367599635,-4.034116195506],[-39.9140350988407,-4.03514245506022],[-39.9121963332941,-4.03885823252137],[-39.9059416374965,-4.04087616730124],[-39.9023684997064,-4.0386852677109],[-39.8986710117578,-4.04314450931162],[-39.8934951193042,-4.04287086000216],[-39.8913323037428,-4.04002617756601],[-39.8881870094229,-4.03931815840622],[-39.8819963993143,-4.04214082184143],[-39.8757413006205,-4.04192958907925],[-39.8687562833757,-4.04428820863388],[-39.8730475280209,-4.04691603214913],[-39.8718142391358,-4.05171562397681],[-39.8746743179653,-4.05332217467856],[-39.8770028255199,-4.06306702242512],[-39.8670366087525,-4.06914405175656],[-39.8589447904697,-4.07692098591474],[-39.8532631858473,-4.07862918428936],[-39.8528544925408,-4.08305528407408],[-39.8493331592978,-4.08816619241582],[-39.8573172585846,-4.09827791499374],[-39.8576079167719,-4.10276349863649],[-39.8548796299909,-4.10536712948937],[-39.8504747002472,-4.10522982279804],[-39.8428787321677,-4.11033226851936],[-39.8406260383609,-4.11352744103852],[-39.8434447447791,-4.11861375202301],[-39.849390540541,-4.12017344804616],[-39.8509221750183,-4.1238510097163],[-39.853814700488,-4.12603994878459],[-39.8532588744974,-4.13112873110601],[-39.8548652903008,-4.13190874189485],[-39.8578456102866,-4.1384043975449],[-39.8654774280408,-4.13878697274055],[-39.8693300805188,-4.13565095582692],[-39.8732689411087,-4.13776085258122],[-39.8794529897636,-4.13610986188058],[-39.8810616161007,-4.13641949036713],[-39.8818677315106,-4.13986468970365],[-39.8893372692995,-4.13930857143339],[-39.8940836131682,-4.14439086514624],[-39.9033130567521,-4.13741386805555],[-39.9112693472026,-4.13873574016225],[-39.91938081837,-4.13739583125255],[-39.9250784875821,-4.13183070862028],[-39.9290151601215,-4.1322181860204],[-39.9403396040894,-4.12836853637879],[-39.9429125905436,-4.13055691337081],[-39.9454022287298,-4.13016254536512],[-39.9478075662661,-4.12718621657058],[-39.9512639261892,-4.12788576231805],[-39.9530351580461,-4.13022986141891],[-39.9552819280185,-4.12991643329673],[-39.960981846435,-4.12701415108217],[-39.9639493933498,-4.12160791437373],[-39.972376299027,-4.11635391759915],[-39.9731754338991,-4.11306416338039],[-39.968589354615,-4.10626034693741],[-39.9707566568941,-4.10539558763623],[-39.9750958803705,-4.10664376839516],[-39.9762197649302,-4.10554512960402],[-39.9775874278175,-4.10750036455017],[-39.9880375859658,-4.1076244503081],[-39.9916399831986,-4.10396162762698],[-39.9911557666253,-4.10145584481137],[-39.9942842921863,-4.09839865257573],[-39.987288483077,-4.09284981756498],[-39.9876049275254,-4.08830985551537],[-39.9896102888837,-4.0866631347958],[-39.9970814031842,-4.08704471354264],[-39.9970801998913,-4.08563607304626],[-40.0007732334979,-4.0835954609617],[-40.0141933820189,-4.08929279652529],[-40.0337804884787,-4.07893582253013],[-40.0431786098049,-4.0782189513435],[-40.0483933026088,-4.07296738093983],[-40.0537741676437,-4.0717870828076],[-40.0536078101523,-4.06771555333007],[-40.0557780325302,-4.0681025774719],[-40.0568974690429,-4.06528417232665],[-40.0538411581429,-4.0623147161512],[-40.057451713126,-4.05847441586156],[-40.0642795216825,-4.05885611691623],[-40.0662038550238,-4.05697518485687],[-40.0694973809993,-4.05673528530514],[-40.0722301158272,-4.05688829685738],[-40.0771324578966,-4.06009350311262],[-40.0821126236986,-4.05977207372217],[-40.0877176186731,-4.05373314866586],[-40.0891670308338,-4.04942981893095],[-40.096155350389,-4.04886578662672],[-40.0982405859342,-4.0473034241137],[-40.1031473787485,-4.05238532662151],[-40.1061125451578,-4.04870268018448],[-40.1056273959875,-4.04604126609149],[-40.1070739267203,-4.04603905106132],[-40.1102002822172,-4.04125982078404],[-40.1187960275146,-4.04195217914969],[-40.1212045855232,-4.04069631278457],[-40.1232048414303,-4.03623184612275],[-40.1256133032113,-4.03544684409656],[-40.1313195771367,-4.03676919554193],[-40.1322753559229,-4.03191459038602],[-40.1402270445424,-4.03229524912638],[-40.1386972518766,-4.02940091332147],[-40.140616508545,-4.0234496478829],[-40.1482391837912,-4.01850468334442],[-40.1554944994716,-4.00871309603253],[-40.1554926432708,-4.00698279591928],[-40.1641112862068,-3.99979830724601],[-40.1641070279169,-3.99720230534207],[-40.169616930377,-3.99045393120389],[-40.1698615729532,-3.98513501956546],[-40.1806337342594,-3.97559744126886],[-40.1862655497153,-3.96563690282074],[-40.1902612924247,-3.96383605718825],[-40.1911404543685,-3.95950869127301],[-40.1855984245277,-3.95294060332612],[-40.1786034248082,-3.94948667337121],[-40.1730717839356,-3.94480780923294],[-40.1725225526736,-3.93774118840509],[-40.1679714561178,-3.93724135960099],[-40.1663543006105,-3.92983514667463],[-40.16226553023,-3.92861968145309],[-40.1608155631877,-3.92546082985337],[-40.1571113465114,-3.92445903006012],[-40.1521953842096,-3.91564858691271],[-40.1484313913955,-3.91289380340623],[-40.1480686003856,-3.90917449610606],[-40.1509520373066,-3.90388938638603],[-40.1474574714851,-3.89799794295067]]]}}]}