{"type":"FeatureCollection","features":[{"type":"Feature","properties":{"id":"91","arrangementId":"2503605","name":"Caiçara - Logradouro/PB","state":"PB","municipality":"2503605","population2010":"7220","urbanPopulation2010":"5190","ruralPopulation2010":"2030"},"geometry":{"type":"Polygon","coordinates":[[[-35.5084329886914,-6.64806257982417],[-35.5036294506386,-6.64492282352944],[-35.5033706707199,-6.63276305956748],[-35.5004471321294,-6.63268260172066],[-35.4964135486463,-6.63608484673824],[-35.4944612751677,-6.63555271158834],[-35.4920218605204,-6.62583866921915],[-35.4892488243737,-6.62148202857271],[-35.4816101393964,-6.61667361619437],[-35.4729643756054,-6.61644047145057],[-35.4712407232807,-6.61232706144467],[-35.4608325553781,-6.61131158386247],[-35.4571911176759,-6.61363478721564],[-35.4541656598173,-6.61228211242952],[-35.447974922005,-6.62853756525641],[-35.4457522826417,-6.63083066380403],[-35.4290451129415,-6.61651604507939],[-35.4236001451305,-6.5646036530361],[-35.4046226863878,-6.52624851925374],[-35.4077584137198,-6.4895837610817],[-35.4007491264709,-6.49160322560834],[-35.364512485163,-6.51204007448979],[-35.3967272314765,-6.56282288207029],[-35.3896606439235,-6.5988822966806],[-35.3760464621744,-6.60332462023502],[-35.3723508304264,-6.59850690257144],[-35.3690021022651,-6.60025271329204],[-35.3643793971914,-6.59839401786956],[-35.3594544182868,-6.59943549485218],[-35.3541967864525,-6.5963541962891],[-35.3478079216982,-6.59837078928046],[-35.3448384709187,-6.59181644657172],[-35.3409474488656,-6.58959544307521],[-35.3382188976839,-6.58955698266858],[-35.3351902984934,-6.59221976732835],[-35.3327616280466,-6.5892273091929],[-35.3309005979842,-6.58905546493769],[-35.331225474476,-6.59671609247363],[-35.3289232747892,-6.59774643764791],[-35.326636862701,-6.60259102615488],[-35.3283298292582,-6.60548519468591],[-35.3273181036475,-6.61368518792103],[-35.3287042682873,-6.62122896024829],[-35.3477871338691,-6.62075812019106],[-35.3570036955641,-6.61335493528202],[-35.3595826202417,-6.63208383669968],[-35.3622982859371,-6.62997052162224],[-35.3750454870595,-6.62815734628447],[-35.3790565110491,-6.64804082972046],[-35.3820736124072,-6.64648845327946],[-35.3912257457715,-6.64958248894066],[-35.3930686481995,-6.66248413513467],[-35.4027272185862,-6.65967243353595],[-35.4055444006535,-6.66550276713895],[-35.4161012417788,-6.67442174406818],[-35.418359083305,-6.66955699006298],[-35.422876122535,-6.66737525006766],[-35.5084329886914,-6.64806257982417]]]}},{"type":"Feature","properties":{"id":"92","arrangementId":"2503605","name":"Caiçara - Logradouro/PB","state":"PB","municipality":"2508554","population2010":"3942","urbanPopulation2010":"1723","ruralPopulation2010":"2219"},"geometry":{"type":"Polygon","coordinates":[[[-35.4123940510446,-6.48824748543308],[-35.4077584137198,-6.4895837610817],[-35.4046226863878,-6.52624851925374],[-35.4236001451305,-6.5646036530361],[-35.4290451129415,-6.61651604507939],[-35.4457522826417,-6.63083066380403],[-35.447974922005,-6.62853756525641],[-35.4541656598173,-6.61228211242952],[-35.4484214479914,-6.60387677519298],[-35.4487751585467,-6.59824287061196],[-35.445933253217,-6.59249857694773],[-35.4461181187561,-6.58548096467473],[-35.4437756096566,-6.57643220208439],[-35.4439944156097,-6.57497525270571],[-35.4489006004823,-6.57339282541852],[-35.4495452686991,-6.57107012208843],[-35.4431007233197,-6.56458793828268],[-35.4356698698685,-6.56042010940047],[-35.4366921274397,-6.55484967177489],[-35.4353780164822,-6.54840330436895],[-35.4310849866827,-6.53800662350682],[-35.4351010648622,-6.53310622037572],[-35.4294299229525,-6.5284604818657],[-35.4296532039322,-6.52398098033791],[-35.4259514621902,-6.51396964728134],[-35.4294288401688,-6.50672564597176],[-35.4361856364579,-6.5047866734662],[-35.4406250156319,-6.50054608493384],[-35.44209943614,-6.48659212942317],[-35.4416221110715,-6.48772965669827],[-35.4348247985256,-6.48891201427802],[-35.4123940510446,-6.48824748543308]]]}},{"type":"Feature","properties":{"id":"93","arrangementId":"2504009","name":"Campina Grande/PB","state":"PB","municipality":"2512507","population2010":"41049","urbanPopulation2010":"24476","ruralPopulation2010":"16573"},"geometry":{"type":"Polygon","coordinates":[[[-35.8868080095819,-7.29450260591051],[-35.8788200333178,-7.2982863091658],[-35.8655317613816,-7.29867281529812],[-35.8616677954324,-7.30102102160282],[-35.841995696744,-7.30138645122372],[-35.8372124500945,-7.34138164624591],[-35.838713202752,-7.34953343581937],[-35.8366861740276,-7.35747842718763],[-35.8380653860087,-7.36003342270424],[-35.8370879371585,-7.36510425815493],[-35.8391125440086,-7.36953171051999],[-35.838005152116,-7.37382854625037],[-35.8406284250617,-7.38576826229542],[-35.8368878209162,-7.39539227353453],[-35.829276718146,-7.40584213040995],[-35.8296091957077,-7.4091023940602],[-35.8256670498944,-7.41129200941867],[-35.8248246288535,-7.41433407325883],[-35.8209731940576,-7.41857086035685],[-35.8204105116358,-7.42217368926431],[-35.8215942226952,-7.42414645109778],[-35.8320819761022,-7.42829241476307],[-35.8342786313537,-7.43446520120802],[-35.83695455331,-7.43626966841044],[-35.8382052314862,-7.44764730457939],[-35.8354802937805,-7.45070206414891],[-35.8374323010598,-7.45581391318149],[-35.8342220217289,-7.45606156668788],[-35.8277418227269,-7.45363725075844],[-35.8248573740685,-7.46032070103946],[-35.832037462359,-7.46370371315578],[-35.8370438011304,-7.46826466268396],[-35.8358602906198,-7.47309170631712],[-35.8372106208734,-7.47627151931511],[-35.8351576098358,-7.47996694421903],[-35.8362840619599,-7.49009432938977],[-35.8472927341723,-7.49262717370505],[-35.8505905427193,-7.49652962524197],[-35.8511918042583,-7.50163233086732],[-35.8539513119035,-7.5061173470379],[-35.8595527140864,-7.50425294181975],[-35.8644488778134,-7.51055445632306],[-35.8669185537482,-7.51073529289943],[-35.8691735902889,-7.50841144023571],[-35.8717909771718,-7.51304044865771],[-35.8721253343167,-7.51006152801704],[-35.8742287361672,-7.51231549616319],[-35.891206137753,-7.51038845496317],[-35.9006012472497,-7.51612176520723],[-35.9027273866595,-7.50811426106424],[-35.9150489152752,-7.5062495329895],[-35.9174583132505,-7.50867014551074],[-35.9178152208957,-7.51160879361089],[-35.9211441909516,-7.51396383116582],[-35.9341002182504,-7.50609365349924],[-35.9380562972603,-7.5057389410992],[-35.9433660699881,-7.5016634213298],[-35.948296078801,-7.49457436691347],[-35.951763784571,-7.49366418375502],[-35.9534786361301,-7.49573742953867],[-35.9581313830569,-7.49364688079885],[-35.964120123245,-7.48862124527421],[-35.9651960505573,-7.48203017785039],[-35.9729641668628,-7.47967692994633],[-35.9738850294705,-7.47748273254201],[-35.977347274557,-7.47629769678122],[-35.9817557116567,-7.47002476992714],[-35.9917148912292,-7.46752025695424],[-35.9930163172492,-7.45998179512373],[-36.0019575847747,-7.45651366577301],[-36.0049270004806,-7.45339586192944],[-36.0097589598081,-7.45364712891183],[-36.0082312175966,-7.4508077758581],[-36.009092056753,-7.44980831610088],[-36.0213412555945,-7.44398898570307],[-36.0155450917326,-7.44278090031827],[-36.017630224755,-7.43989674393953],[-36.0166306318981,-7.43842050050563],[-36.0089106581003,-7.43938841024686],[-36.005797803226,-7.43230569605101],[-36.0050541322424,-7.42376772320182],[-36.0174146455694,-7.42225970672007],[-36.017255163395,-7.42078838077913],[-36.0097170226225,-7.41371539724777],[-36.0038338700371,-7.41106388469046],[-36.0006152144206,-7.41401042434154],[-35.9986408014318,-7.41275390866588],[-35.9997338959025,-7.40819824445338],[-36.0064847530688,-7.40615225172503],[-36.0099411903336,-7.40102818540237],[-36.0069604287807,-7.39537403348482],[-36.0018763013502,-7.3945993772594],[-36.0000619568938,-7.39202915082461],[-35.9990215114336,-7.3883162152211],[-36.0018739379318,-7.38424826504536],[-36.0033454509318,-7.3846767029674],[-36.0038982408111,-7.38096976224467],[-36.000597385361,-7.38019410327518],[-35.9973285898425,-7.37463385586773],[-35.9900599255251,-7.37316580435833],[-35.9900232125012,-7.3712654964055],[-35.9860252592583,-7.36736341988587],[-35.9856102311272,-7.35925171489469],[-35.9877777906125,-7.35443798752306],[-35.9858278256935,-7.34958725574723],[-35.9879071410017,-7.34651707370392],[-35.9858010097088,-7.34452380912643],[-35.9821447421861,-7.3443208869993],[-35.9833257930509,-7.34050722013205],[-35.9798863259931,-7.33960352198488],[-35.9812375456762,-7.33598963231567],[-35.9811870865148,-7.3247839402266],[-35.9831104539842,-7.3223581395165],[-35.9790158973657,-7.32158159381543],[-35.9770570921111,-7.31736601632856],[-35.978998372277,-7.30916615439447],[-35.9771780545236,-7.305672007657],[-35.97720234791,-7.30186513246986],[-35.9829509844004,-7.2976186848544],[-35.982908866451,-7.29618157092273],[-35.9757864300996,-7.29663269784066],[-35.9729383599174,-7.29528298722005],[-35.9620088451321,-7.29817770793483],[-35.9606554005263,-7.293913281073],[-35.9623431905857,-7.28858112511882],[-35.9596148894155,-7.28641751365729],[-35.9576269083551,-7.287766023683],[-35.9573831489132,-7.28555029381096],[-35.9541321374881,-7.28513598243961],[-35.9529174303951,-7.28303691532137],[-35.9536546757226,-7.28092063697778],[-35.9511651337639,-7.27964691277475],[-35.944500879512,-7.28018019815756],[-35.945002774958,-7.28503023116019],[-35.9395609205999,-7.28622298850008],[-35.8974730067738,-7.28792519918852],[-35.8958461116087,-7.28648272619683],[-35.8927637698321,-7.2879562446849],[-35.8925024286441,-7.28639931947299],[-35.8882764909673,-7.28676744795934],[-35.8880744888465,-7.29192291680915],[-35.8868080095819,-7.29450260591051]]]}},{"type":"Feature","properties":{"id":"94","arrangementId":"2504009","name":"Campina Grande/PB","state":"PB","municipality":"2509206","population2010":"12902","urbanPopulation2010":"6695","ruralPopulation2010":"6207"},"geometry":{"type":"Polygon","coordinates":[[[-35.8417299857502,-7.25034864897095],[-35.8146733981587,-7.20747597143891],[-35.8150441769471,-7.20599890692398],[-35.82233652581,-7.20125257654513],[-35.8258557978068,-7.20132198082474],[-35.8342809183297,-7.19491112225047],[-35.8219679584545,-7.18644027389945],[-35.8220381343524,-7.18314117482532],[-35.8252852831892,-7.17798361325311],[-35.8244255609908,-7.17358369183387],[-35.806424162545,-7.16029391982852],[-35.8030285949936,-7.15623943250375],[-35.7926005232954,-7.15472635643613],[-35.7815971579824,-7.14989707349111],[-35.7706982920924,-7.13955371613106],[-35.7646659491742,-7.13982389046015],[-35.7613591851782,-7.13612526936567],[-35.7524321494241,-7.13391960380665],[-35.7486503788119,-7.12834663279086],[-35.7400072356454,-7.12250495603883],[-35.7345466960731,-7.12406146756262],[-35.7296728813983,-7.12192938903002],[-35.7305683588426,-7.11941816081941],[-35.723855769628,-7.1145990321196],[-35.7207157938987,-7.11442070465176],[-35.7196935723005,-7.1128557673797],[-35.7130953912393,-7.11049034715176],[-35.7126727629376,-7.10764380671628],[-35.7079371947457,-7.10425971631281],[-35.6805353502262,-7.14875513234342],[-35.6827296717369,-7.15315419041349],[-35.6869408326532,-7.15456340647597],[-35.6882748006415,-7.15640290497005],[-35.6952796137631,-7.1562882620936],[-35.6971713583715,-7.16031272645115],[-35.7026274768765,-7.16152459168648],[-35.7117003772706,-7.16882942134066],[-35.7088039523405,-7.17918264066629],[-35.7096896415637,-7.18460972635773],[-35.7075156276441,-7.18533949382255],[-35.7024996697239,-7.19279999972014],[-35.7008241994771,-7.19903487176185],[-35.6975631192425,-7.20030015133086],[-35.6950146033412,-7.20378472388586],[-35.6968248648756,-7.20713128558032],[-35.6960705414223,-7.21037150244286],[-35.6984914732029,-7.21882112859215],[-35.7041393820268,-7.26023221714309],[-35.714484722392,-7.26219964509749],[-35.7273672076305,-7.27443667071572],[-35.732332116434,-7.27735765792955],[-35.7443246091933,-7.27802326326292],[-35.7502870855805,-7.2727315489218],[-35.7521876066727,-7.27253560103714],[-35.7648003564512,-7.28130973855354],[-35.7697485153817,-7.28155559701315],[-35.7735235887426,-7.27655400036678],[-35.7829376154785,-7.27585130609288],[-35.7884189923426,-7.26982340762414],[-35.800581025294,-7.2672600628016],[-35.8044532389258,-7.2626246044419],[-35.8128923852753,-7.25740904649024],[-35.83588646269,-7.25265306098993],[-35.8417299857502,-7.25034864897095]]]}},{"type":"Feature","properties":{"id":"95","arrangementId":"2504009","name":"Campina Grande/PB","state":"PB","municipality":"2508307","population2010":"25900","urbanPopulation2010":"14536","ruralPopulation2010":"11364"},"geometry":{"type":"Polygon","coordinates":[[[-35.9208215816506,-7.15617004710993],[-35.9219964757567,-7.15029125173982],[-35.9335293528973,-7.13623638959763],[-35.930076541699,-7.12899362395655],[-35.9300712896583,-7.10772413955732],[-35.9224902188485,-7.10284079116952],[-35.9174333291847,-7.1046808616324],[-35.9102426432833,-7.10194272727501],[-35.9074798414215,-7.09617044401074],[-35.9029409522631,-7.09261827031685],[-35.8962806262498,-7.09325963532388],[-35.8954912544178,-7.0851685715723],[-35.8893442956027,-7.08854502223494],[-35.880559048761,-7.10078477999354],[-35.8664309512274,-7.11532242608905],[-35.8642831102773,-7.12030194887581],[-35.8545781267791,-7.11701093380749],[-35.849272115016,-7.11803421840443],[-35.8457408298753,-7.12050642143413],[-35.8420633554394,-7.11609766867242],[-35.8395353719598,-7.12404044321181],[-35.8365344395127,-7.12233519911013],[-35.8299486133378,-7.12608477938904],[-35.8284253092805,-7.13427746473314],[-35.8225561447502,-7.13457109877715],[-35.8203790704377,-7.13803537183492],[-35.8135614529986,-7.13201864474463],[-35.8125794185053,-7.12626237301004],[-35.8104237183799,-7.12660561365812],[-35.8066416707765,-7.13186075616892],[-35.8012326776459,-7.12904816424135],[-35.7978854765335,-7.13292312979855],[-35.78497756836,-7.13450576303052],[-35.7832893727063,-7.13719562627711],[-35.7893494893874,-7.14329040552775],[-35.7860998386366,-7.15105335432878],[-35.7926005232954,-7.15472635643613],[-35.8030285949936,-7.15623943250375],[-35.806424162545,-7.16029391982852],[-35.8244255609908,-7.17358369183387],[-35.8252852831892,-7.17798361325311],[-35.8220381343524,-7.18314117482532],[-35.8219679584545,-7.18644027389945],[-35.8342809183297,-7.19491112225047],[-35.83627214954,-7.19388473049588],[-35.8411338791252,-7.19588125331717],[-35.8437747697898,-7.192362192661],[-35.8471221435721,-7.19529198873426],[-35.849628376948,-7.20080818554925],[-35.8566873049751,-7.20426556530356],[-35.8614838642889,-7.21078086574431],[-35.8639604389231,-7.21159441674888],[-35.8669918224146,-7.20982354911746],[-35.8655492954636,-7.20219015125446],[-35.8691151676309,-7.19688726823278],[-35.8715022813052,-7.19631268688096],[-35.8716772902747,-7.1935669424604],[-35.8737073191375,-7.19137081511099],[-35.8733177184379,-7.18729359202558],[-35.8783386738906,-7.18412194756979],[-35.878700982864,-7.18126880700981],[-35.8846464800509,-7.17422581317072],[-35.887958684046,-7.15680315903853],[-35.9050920406651,-7.18194337408739],[-35.9085711318522,-7.17720117609338],[-35.9085071900547,-7.16873367951564],[-35.9139128431032,-7.16069658497935],[-35.9208215816506,-7.15617004710993]]]}},{"type":"Feature","properties":{"id":"96","arrangementId":"2504009","name":"Campina Grande/PB","state":"PB","municipality":"2504009","population2010":"385213","urbanPopulation2010":"371266","ruralPopulation2010":"13947"},"geometry":{"type":"Polygon","coordinates":[[[-36.0208103714015,-7.16693278621905],[-35.9985605864019,-7.16329262735281],[-35.9967630259928,-7.16441003049847],[-35.9865760805217,-7.16099500611461],[-35.9784278873371,-7.17293310158135],[-35.9726515544256,-7.1767544027934],[-35.9709701540493,-7.18627166720365],[-35.9640514078462,-7.19457751963676],[-35.9584709292899,-7.19529415969765],[-35.9555905716475,-7.19719140186168],[-35.9476136894202,-7.19317963593141],[-35.9421914330881,-7.1929388064807],[-35.9382685813299,-7.19449990094961],[-35.9415238330584,-7.17458023149243],[-35.9050920406651,-7.18194337408739],[-35.887958684046,-7.15680315903853],[-35.8846464800509,-7.17422581317072],[-35.878700982864,-7.18126880700981],[-35.8783386738906,-7.18412194756979],[-35.8733177184379,-7.18729359202558],[-35.8737073191375,-7.19137081511099],[-35.8716772902747,-7.1935669424604],[-35.8715022813052,-7.19631268688096],[-35.8691151676309,-7.19688726823278],[-35.8655492954636,-7.20219015125446],[-35.8669918224146,-7.20982354911746],[-35.8639604389231,-7.21159441674888],[-35.8614838642889,-7.21078086574431],[-35.8566873049751,-7.20426556530356],[-35.849628376948,-7.20080818554925],[-35.8471221435721,-7.19529198873426],[-35.8437747697898,-7.192362192661],[-35.8411338791252,-7.19588125331717],[-35.83627214954,-7.19388473049588],[-35.8258557978068,-7.20132198082474],[-35.82233652581,-7.20125257654513],[-35.8150441769471,-7.20599890692398],[-35.8146733981587,-7.20747597143891],[-35.8417299857502,-7.25034864897095],[-35.8128923852753,-7.25740904649024],[-35.8044532389258,-7.2626246044419],[-35.800581025294,-7.2672600628016],[-35.7884189923426,-7.26982340762414],[-35.7829376154785,-7.27585130609288],[-35.7735235887426,-7.27655400036678],[-35.7697485153817,-7.28155559701315],[-35.7648003564512,-7.28130973855354],[-35.7521876066727,-7.27253560103714],[-35.7502870855805,-7.2727315489218],[-35.7443246091933,-7.27802326326292],[-35.732332116434,-7.27735765792955],[-35.7273672076305,-7.27443667071572],[-35.714484722392,-7.26219964509749],[-35.7041393820268,-7.26023221714309],[-35.7360615788787,-7.32408831372465],[-35.7382762439535,-7.32246531891929],[-35.7401271629382,-7.31806759454382],[-35.7415412371383,-7.32039343740718],[-35.7454533051259,-7.32006887118145],[-35.7468121024965,-7.32200662420627],[-35.7574692000435,-7.32671621997753],[-35.7630979056438,-7.32307390543633],[-35.7682722009013,-7.32344935530347],[-35.7825545258706,-7.3185854700434],[-35.7958029497463,-7.32120907933552],[-35.8019009773482,-7.31913749819694],[-35.8088854172282,-7.31974851018555],[-35.8106874220868,-7.32201837834544],[-35.8200442159677,-7.32547987339741],[-35.8239425459117,-7.3286201836745],[-35.8307051068551,-7.32788832528593],[-35.838454843716,-7.33100718853087],[-35.841995696744,-7.30138645122372],[-35.8616677954324,-7.30102102160282],[-35.8655317613816,-7.29867281529812],[-35.8788200333178,-7.2982863091658],[-35.8868080095819,-7.29450260591051],[-35.8882764909673,-7.28676744795934],[-35.8925024286441,-7.28639931947299],[-35.8927637698321,-7.2879562446849],[-35.8958461116087,-7.28648272619683],[-35.8974730067738,-7.28792519918852],[-35.9395609205999,-7.28622298850008],[-35.945002774958,-7.28503023116019],[-35.944500879512,-7.28018019815756],[-35.9511651337639,-7.27964691277475],[-35.9536546757226,-7.28092063697778],[-35.9529174303951,-7.28303691532137],[-35.9541321374881,-7.28513598243961],[-35.9573831489132,-7.28555029381096],[-35.9576269083551,-7.287766023683],[-35.9596148894155,-7.28641751365729],[-35.9623431905857,-7.28858112511882],[-35.9606554005263,-7.293913281073],[-35.9620088451321,-7.29817770793483],[-35.9729383599174,-7.29528298722005],[-35.9757864300996,-7.29663269784066],[-35.982908866451,-7.29618157092273],[-35.9829509844004,-7.2976186848544],[-35.97720234791,-7.30186513246986],[-35.9771780545236,-7.305672007657],[-35.978998372277,-7.30916615439447],[-35.9770570921111,-7.31736601632856],[-35.9790158973657,-7.32158159381543],[-35.9831104539842,-7.3223581395165],[-35.9811870865148,-7.3247839402266],[-35.9812375456762,-7.33598963231567],[-35.9798863259931,-7.33960352198488],[-35.9833257930509,-7.34050722013205],[-35.9821447421861,-7.3443208869993],[-35.9858010097088,-7.34452380912643],[-35.9879071410017,-7.34651707370392],[-35.9858278256935,-7.34958725574723],[-35.9877777906125,-7.35443798752306],[-35.9856102311272,-7.35925171489469],[-35.9860252592583,-7.36736341988587],[-35.9900232125012,-7.3712654964055],[-35.9900599255251,-7.37316580435833],[-35.9973285898425,-7.37463385586773],[-36.000597385361,-7.38019410327518],[-36.0038982408111,-7.38096976224467],[-36.0033454509318,-7.3846767029674],[-36.0050795884522,-7.38602291882262],[-36.0087501309138,-7.38341764221036],[-36.0122473659231,-7.38678509785394],[-36.0139239324435,-7.38647160767853],[-36.0167501005367,-7.37996463765785],[-36.0194193090538,-7.38186620556087],[-36.0294722150706,-7.37225867529759],[-36.0394898047107,-7.36766241748655],[-36.1286126581476,-7.35865449580831],[-36.1142838076515,-7.27075898673781],[-36.114891672013,-7.25557649885627],[-36.1106802421993,-7.25660347517022],[-36.1108885260846,-7.25436257597205],[-36.1088563856136,-7.25192702391297],[-36.1097555412852,-7.24805296487239],[-36.1062361910473,-7.24441791325603],[-36.1062369905446,-7.23856624143884],[-36.1028732302154,-7.23600501451978],[-36.1049444282427,-7.23095525108391],[-36.1030491771778,-7.22735464799855],[-36.1026277863432,-7.22014936699964],[-36.0999507528249,-7.21886147038048],[-36.097208411439,-7.21208230255616],[-36.0942761017607,-7.20964907884189],[-36.0940784910295,-7.20460005644742],[-36.0915103060557,-7.20118537650388],[-36.0948422294853,-7.15400970468409],[-36.0632569708325,-7.16618004197535],[-36.0469102494084,-7.1651046353706],[-36.0338337318412,-7.17391753186854],[-36.0321912397339,-7.16986291773942],[-36.0329385709583,-7.16659809182841],[-36.029720267876,-7.16552467362477],[-36.0208103714015,-7.16693278621905]]]}},{"type":"Feature","properties":{"id":"97","arrangementId":"2504009","name":"Campina Grande/PB","state":"PB","municipality":"2512408","population2010":"12923","urbanPopulation2010":"6596","ruralPopulation2010":"6327"},"geometry":{"type":"Polygon","coordinates":[[[-35.9794891808809,-7.10087655490901],[-35.9716673255866,-7.1086260021882],[-35.9644171522298,-7.11210820413027],[-35.9543526593477,-7.11191086139707],[-35.9529712584168,-7.10934540226845],[-35.9466562819618,-7.11052946046619],[-35.9300712896583,-7.10772413955732],[-35.930076541699,-7.12899362395655],[-35.9335293528973,-7.13623638959763],[-35.9219964757567,-7.15029125173982],[-35.9208215816506,-7.15617004710993],[-35.9140438077754,-7.16052858352725],[-35.9085071900547,-7.16873367951564],[-35.9085711318522,-7.17720117609338],[-35.9050920406651,-7.18194337408739],[-35.9415238330584,-7.17458023149243],[-35.9382685813299,-7.19449990094961],[-35.9421914330881,-7.1929388064807],[-35.9476136894202,-7.19317963593141],[-35.9555905716475,-7.19719140186168],[-35.9584709292899,-7.19529415969765],[-35.9640514078462,-7.19457751963676],[-35.9709701540493,-7.18627166720365],[-35.9726515544256,-7.1767544027934],[-35.9784278873371,-7.17293310158135],[-35.9865760805217,-7.16099500611461],[-35.9967630259928,-7.16441003049847],[-35.9985605864019,-7.16329262735281],[-36.0208103714015,-7.16693278621905],[-36.029720267876,-7.16552467362477],[-35.9794891808809,-7.10087655490901]]]}},{"type":"Feature","properties":{"id":"98","arrangementId":"2505105","name":"Cuité - Nova Floresta/PB","state":"PB","municipality":"2510105","population2010":"10533","urbanPopulation2010":"9421","ruralPopulation2010":"1112"},"geometry":{"type":"Polygon","coordinates":[[[-36.1885158530242,-6.43232144607782],[-36.180345371042,-6.4303576603777],[-36.1744649380065,-6.43076463597914],[-36.1807299454306,-6.4706873600336],[-36.2250639988044,-6.55936666693811],[-36.2265349335403,-6.43402751845514],[-36.1956805629076,-6.43109358190321],[-36.1885158530242,-6.43232144607782]]]}},{"type":"Feature","properties":{"id":"99","arrangementId":"2505105","name":"Cuité - Nova Floresta/PB","state":"PB","municipality":"2505105","population2010":"19978","urbanPopulation2010":"13462","ruralPopulation2010":"6516"},"geometry":{"type":"Polygon","coordinates":[[[-36.1807299454306,-6.4706873600336],[-36.1744649380065,-6.43076463597914],[-36.1437507159227,-6.42532462523122],[-36.1411751034482,-6.42666905952944],[-36.1369539681511,-6.42570852332966],[-36.1318122787136,-6.42815583222586],[-36.1285047853675,-6.42521043561306],[-36.1101890001222,-6.42918065556274],[-36.1031143357579,-6.42154733594078],[-36.0993785870521,-6.42202768542927],[-36.0867444486973,-6.4158361571129],[-36.0846170439414,-6.41142242390572],[-36.0806298169124,-6.40801677585347],[-36.0800135286014,-6.40518941795722],[-36.0777206252067,-6.40509063372571],[-36.0722087595266,-6.41168788218995],[-36.0737626648151,-6.41487172055344],[-36.0672253264876,-6.41508760460919],[-36.0617380033062,-6.4102455467945],[-36.0556818877089,-6.42620090484787],[-36.0512485420865,-6.43220296399556],[-36.0331823528832,-6.44595307647324],[-36.0168212378098,-6.4520262432165],[-36.0132848732982,-6.45504094428413],[-36.008337262055,-6.46511963566264],[-36.0129129352837,-6.47279032751158],[-36.007355918241,-6.47452186958856],[-36.0053483814226,-6.48105330746409],[-35.9919775822995,-6.48543266048887],[-35.9872214762901,-6.48522245115516],[-35.9808421047792,-6.48802919299283],[-35.9746742691022,-6.48881707015164],[-35.965241534669,-6.48435958762479],[-35.9501542265362,-6.49234846411031],[-35.9441837308944,-6.49300619228188],[-35.8530906553095,-6.48761381322686],[-35.8769484137383,-6.5784902888957],[-35.8784762692643,-6.56284950110354],[-35.9665383912337,-6.5847378692572],[-35.9695066315258,-6.5894340498415],[-36.0007400007504,-6.61850105388049],[-36.0114808224819,-6.62194612281525],[-36.0250186275076,-6.63178191540306],[-36.0376607167686,-6.63866573013929],[-36.0501448158305,-6.63971660323859],[-36.0573029076031,-6.64648672388313],[-36.0706974713112,-6.65452653617063],[-36.0809429959225,-6.65710198946523],[-36.1279366341683,-6.67751322565483],[-36.131962330597,-6.67661329296902],[-36.1395685194715,-6.67979048444324],[-36.1492155236774,-6.67743176596322],[-36.1572437203214,-6.68050792669943],[-36.1662567690347,-6.67794119323145],[-36.1749333561894,-6.67870875740317],[-36.1797160299708,-6.67534792166919],[-36.188212938876,-6.67508501206361],[-36.2138222169218,-6.66142969892144],[-36.2259182243465,-6.64879531325306],[-36.2348510400434,-6.64170746662626],[-36.2430676509513,-6.64185830901369],[-36.2342237044604,-6.59483846002683],[-36.2250639988044,-6.55936666693811],[-36.1807299454306,-6.4706873600336]]]}},{"type":"Feature","properties":{"id":"100","arrangementId":"2505808","name":"Duas Estradas - Serra da Raiz/PB","state":"PB","municipality":"2515609","population2010":"3204","urbanPopulation2010":"2506","ruralPopulation2010":"698"},"geometry":{"type":"Polygon","coordinates":[[[-35.418359083305,-6.66955699006298],[-35.4161012417788,-6.67442174406818],[-35.4175577666775,-6.68438228341558],[-35.4209787121978,-6.68822509731035],[-35.4213483938133,-6.69066447418607],[-35.4246551703998,-6.69301606014301],[-35.4259761953451,-6.69940864179535],[-35.4281679978548,-6.70105868640922],[-35.430878762245,-6.70690459806872],[-35.4359740466649,-6.70793420489958],[-35.4394755597492,-6.71230892911377],[-35.4420045945363,-6.72344948960223],[-35.4522010962036,-6.72587097896246],[-35.4616519636671,-6.73432820348377],[-35.4752738822838,-6.74071208689327],[-35.4984685121121,-6.73246499526328],[-35.466800523925,-6.70513378259795],[-35.4467350671696,-6.6763573656998],[-35.422876122535,-6.66737525006766],[-35.418359083305,-6.66955699006298]]]}},{"type":"Feature","properties":{"id":"101","arrangementId":"2505808","name":"Duas Estradas - Serra da Raiz/PB","state":"PB","municipality":"2505808","population2010":"3638","urbanPopulation2010":"2839","ruralPopulation2010":"799"},"geometry":{"type":"Polygon","coordinates":[[[-35.4087382044046,-6.67665764483439],[-35.4038731185495,-6.70415147920732],[-35.3990029164514,-6.71131435986979],[-35.3877128886389,-6.71719171542526],[-35.3780030937677,-6.71929229790117],[-35.3737896674592,-6.72280611371116],[-35.3697089684941,-6.72370829290333],[-35.3663947689034,-6.73044057277417],[-35.3542209800142,-6.74303510228811],[-35.353324849662,-6.74655568010053],[-35.3500943598668,-6.74927010653017],[-35.3562763490742,-6.75223208034618],[-35.3744636310917,-6.75639917897889],[-35.3723384818354,-6.74809211066236],[-35.3772915852384,-6.74328933703322],[-35.3910478904477,-6.73647752831522],[-35.4124924773459,-6.73254876891053],[-35.4211485536628,-6.72514228798616],[-35.4256498331732,-6.71399040503315],[-35.4334097449637,-6.7098071464826],[-35.4340032129779,-6.70748229557142],[-35.430878762245,-6.70690459806872],[-35.4281679978548,-6.70105868640922],[-35.4259761953451,-6.69940864179535],[-35.4246551703998,-6.69301606014301],[-35.4213483938133,-6.69066447418607],[-35.4209787121978,-6.68822509731035],[-35.4175577666775,-6.68438228341558],[-35.4161012417788,-6.67442174406818],[-35.4087382044046,-6.67665764483439]]]}},{"type":"Feature","properties":{"id":"102","arrangementId":"2506301","name":"Guarabira/PB","state":"PB","municipality":"2511707","population2010":"5155","urbanPopulation2010":"2747","ruralPopulation2010":"2408"},"geometry":{"type":"Polygon","coordinates":[[[-35.5032172202984,-6.81966527713081],[-35.5057251264134,-6.8203469173763],[-35.5083043280822,-6.82338354841198],[-35.508537612221,-6.83462401548588],[-35.5309191290145,-6.85902285552033],[-35.5309144291575,-6.88036916270665],[-35.5654097779388,-6.8864520628124],[-35.5878156213938,-6.83928455683679],[-35.5803547791497,-6.82232564801018],[-35.5032172202984,-6.81966527713081]]]}},{"type":"Feature","properties":{"id":"103","arrangementId":"2506301","name":"Guarabira/PB","state":"PB","municipality":"2506301","population2010":"55326","urbanPopulation2010":"49290","ruralPopulation2010":"6036"},"geometry":{"type":"Polygon","coordinates":[[[-35.4745514065222,-6.91769942818604],[-35.4824440555487,-6.91772480885282],[-35.4844158721947,-6.91065692447746],[-35.4810628749516,-6.90748142013138],[-35.4825293139766,-6.90162082973746],[-35.4990673167032,-6.88987831253406],[-35.5042078747936,-6.87565897518153],[-35.5309144291575,-6.88036916270665],[-35.5309191290145,-6.85902285552033],[-35.508537612221,-6.83462401548588],[-35.5083043280822,-6.82338354841198],[-35.5057251264134,-6.8203469173763],[-35.486586724098,-6.81948908915012],[-35.4648208292178,-6.81205560338333],[-35.4585332784879,-6.82320745396078],[-35.4320431162967,-6.81226540082753],[-35.4283232469203,-6.81555766955074],[-35.4238159257643,-6.81538943337564],[-35.4196229500391,-6.81324000332347],[-35.4181000929449,-6.81751189365895],[-35.4210684177732,-6.81867745819807],[-35.4226266389082,-6.82310085192274],[-35.4211366826117,-6.82531763580022],[-35.4177334690243,-6.82520331218308],[-35.4191486718736,-6.82753591525022],[-35.419178368387,-6.83293448793621],[-35.4171128252966,-6.83115420710096],[-35.4117305546213,-6.83071951079672],[-35.4099342289815,-6.8354987617584],[-35.4064150990775,-6.8329161381692],[-35.4048567682252,-6.83350908907318],[-35.4036721335621,-6.84776319601462],[-35.4002435743814,-6.84468579960992],[-35.3985074106884,-6.84709255537706],[-35.3934668715988,-6.84589934208094],[-35.3903475667867,-6.84755168805992],[-35.3920073708434,-6.85508188152358],[-35.3890760531173,-6.85669369325928],[-35.38131519524,-6.93294639296164],[-35.3901649729351,-6.92936946632779],[-35.4017335108928,-6.92857198081219],[-35.4104080305062,-6.93158647143843],[-35.4134601838403,-6.93055101451768],[-35.4157609077396,-6.93232397127423],[-35.4225129520111,-6.93292685519015],[-35.4268555200662,-6.93519812719177],[-35.4271375789361,-6.94105895770468],[-35.4293178773181,-6.9437238566706],[-35.4344077613091,-6.94293366016024],[-35.4414202564396,-6.94455366561915],[-35.4444941158107,-6.94785154880987],[-35.4432401838873,-6.95167992318983],[-35.4449061653872,-6.95358447504345],[-35.4489910731794,-6.95560069121888],[-35.4546357255583,-6.96347298229228],[-35.4602267090953,-6.9640642568599],[-35.458730366713,-6.95758246425925],[-35.4647599118404,-6.95415005148363],[-35.4666703173812,-6.95105793047907],[-35.4672424480805,-6.94496351635314],[-35.4722914992532,-6.93484224657238],[-35.4726911768563,-6.92347194797197],[-35.4745514065222,-6.91769942818604]]]}},{"type":"Feature","properties":{"id":"104","arrangementId":"2507309","name":"Jacaraú/PB","state":"PB","municipality":"2512721","population2010":"5765","urbanPopulation2010":"2148","ruralPopulation2010":"3617"},"geometry":{"type":"Polygon","coordinates":[[[-35.3194430219779,-6.67126709140308],[-35.3336364597548,-6.65248276836502],[-35.3406855572926,-6.65127934956228],[-35.3287042682873,-6.62122896024829],[-35.3221253983684,-6.62429370049381],[-35.3089610871844,-6.6250341510052],[-35.3053666831259,-6.62670269287492],[-35.2976658442033,-6.62641426950291],[-35.2924402687034,-6.62783686567877],[-35.2876338708065,-6.62603199198282],[-35.274515808158,-6.63192961915655],[-35.2716004246199,-6.6353885403488],[-35.2623027000096,-6.64067864580284],[-35.2594498904001,-6.648948533448],[-35.2449284276048,-6.66211029955065],[-35.2451325431323,-6.66769565782829],[-35.2500591632997,-6.6636690045209],[-35.2505880096289,-6.6651720405572],[-35.2572867277003,-6.66849124667363],[-35.2428811272622,-6.69544841781022],[-35.2448896380463,-6.69800941540217],[-35.244482626472,-6.70035827101736],[-35.2483286977112,-6.70094712191212],[-35.2495107045554,-6.70277885745828],[-35.2634297456861,-6.70989056309895],[-35.2758405194244,-6.70612494520998],[-35.2771209103017,-6.70949869790656],[-35.2852255232393,-6.70745934757077],[-35.2882485565256,-6.71302513120481],[-35.295717743579,-6.71549777400304],[-35.2977604160104,-6.71758634963028],[-35.3011073545208,-6.71562529337257],[-35.3098564630053,-6.71418219085536],[-35.3128280550707,-6.70863434599824],[-35.3174899993639,-6.70999694390377],[-35.3201198841253,-6.70821834929734],[-35.3194430219779,-6.67126709140308]]]}},{"type":"Feature","properties":{"id":"105","arrangementId":"2507309","name":"Jacaraú/PB","state":"PB","municipality":"2507309","population2010":"13942","urbanPopulation2010":"8032","ruralPopulation2010":"5910"},"geometry":{"type":"Polygon","coordinates":[[[-35.2572867277003,-6.66849124667363],[-35.2505880096289,-6.6651720405572],[-35.2500591632997,-6.6636690045209],[-35.2451325431323,-6.66769565782829],[-35.2449284276048,-6.66211029955065],[-35.2594498904001,-6.648948533448],[-35.2623027000096,-6.64067864580284],[-35.2716004246199,-6.6353885403488],[-35.274515808158,-6.63192961915655],[-35.2876338708065,-6.62603199198282],[-35.2924402687034,-6.62783686567877],[-35.2976658442033,-6.62641426950291],[-35.3053666831259,-6.62670269287492],[-35.3089610871844,-6.6250341510052],[-35.3221253983684,-6.62429370049381],[-35.3287042682873,-6.62122896024829],[-35.3273181036475,-6.61368518792103],[-35.3283298292582,-6.60548519468591],[-35.326636862701,-6.60259102615488],[-35.3289232747892,-6.59774643764791],[-35.331225474476,-6.59671609247363],[-35.3309005979842,-6.58905546493769],[-35.3327616280466,-6.5892273091929],[-35.3351902984934,-6.59221976732835],[-35.3382188976839,-6.58955698266858],[-35.3409474488656,-6.58959544307521],[-35.3448384709187,-6.59181644657172],[-35.3478079216982,-6.59837078928046],[-35.3541967864525,-6.5963541962891],[-35.3594544182868,-6.59943549485218],[-35.3643793971914,-6.59839401786956],[-35.3690021022651,-6.60025271329204],[-35.3723508304264,-6.59850690257144],[-35.3760464621744,-6.60332462023502],[-35.3896606439235,-6.5988822966806],[-35.3967272314765,-6.56282288207029],[-35.364512485163,-6.51204007448979],[-35.3412637467245,-6.53861642410862],[-35.3307728591801,-6.54434141292581],[-35.274564803223,-6.54387791763173],[-35.2532105343386,-6.53401042394188],[-35.2323483708806,-6.53177656283805],[-35.2273973458108,-6.5276058687158],[-35.2234604214613,-6.51623217877198],[-35.219374184471,-6.51751033933068],[-35.2140762234389,-6.52873560066741],[-35.2097969658573,-6.53429965760306],[-35.2101258839024,-6.53863882442215],[-35.2073098889402,-6.54371848492009],[-35.1994745824859,-6.54994409394476],[-35.1940068015726,-6.55031952942272],[-35.2063933988363,-6.59848979926477],[-35.1448123505095,-6.65566634232778],[-35.1444264199433,-6.65830836523884],[-35.1504024590062,-6.65908468610935],[-35.1513501456926,-6.66233156784756],[-35.1552969275111,-6.66279228783378],[-35.1576254467569,-6.66091948924299],[-35.1580717649999,-6.65855770227608],[-35.1599341710252,-6.66204221547583],[-35.1631018422761,-6.6581712357139],[-35.1691562581548,-6.66067563267428],[-35.172326407038,-6.66359017354762],[-35.1771008942908,-6.66115204852815],[-35.1798804613142,-6.66341611066491],[-35.1820153700133,-6.66231840537006],[-35.1890187181393,-6.66923607328613],[-35.1981873891366,-6.67240937249448],[-35.2033234479188,-6.67575807817275],[-35.2066537489713,-6.67549211267084],[-35.2114078962573,-6.67270058196624],[-35.2152316166457,-6.68049555922261],[-35.2278155476493,-6.6884726141198],[-35.2329045350162,-6.68793189853824],[-35.2350334461366,-6.69248425954089],[-35.2375389177868,-6.69316702034167],[-35.2377376742542,-6.69470952582389],[-35.2428811272622,-6.69544841781022],[-35.2572867277003,-6.66849124667363]]]}},{"type":"Feature","properties":{"id":"106","arrangementId":"2507507","name":"João Pessoa/PB","state":"PB","municipality":"2513703","population2010":"120310","urbanPopulation2010":"103717","ruralPopulation2010":"16593"},"geometry":{"type":"Polygon","coordinates":[[[-34.8896167049469,-7.09231816295285],[-34.9045197869585,-7.08913203311681],[-34.9065371524676,-7.08805479908967],[-34.909220444368,-7.08025954214413],[-34.9129809711948,-7.08018119770407],[-34.9137644137966,-7.08157180859206],[-34.9124325610138,-7.08484268334315],[-34.9170142695928,-7.09104862509394],[-34.9153181554085,-7.09230629010318],[-34.9155967662777,-7.09402651331288],[-34.9143768988748,-7.09374149747209],[-34.9086993861677,-7.09850696002814],[-34.9081977587196,-7.10115190573584],[-34.9145732631455,-7.10301428028476],[-34.9150158285177,-7.10450783836598],[-34.9118485916392,-7.10717291809568],[-34.9141578123331,-7.11020364328347],[-34.9136453876245,-7.11410316303051],[-34.9156599139738,-7.11722153884291],[-34.9177959216444,-7.11554501099341],[-34.9199649281389,-7.11722153884291],[-34.9194130034073,-7.12009154888586],[-34.9215379134439,-7.12191290085963],[-34.9234696509036,-7.11865654386435],[-34.9264500455332,-7.11824260031568],[-34.9322097391881,-7.11938241007011],[-34.9315972244323,-7.12095364439512],[-34.9346065367622,-7.12434466857156],[-34.9415350001401,-7.12296199959655],[-34.9449208424229,-7.13127283067656],[-34.9430639996039,-7.13257999976713],[-34.9515240003323,-7.13710199965749],[-34.9499586340837,-7.13865664778603],[-34.9577513333573,-7.14839476050975],[-34.9603405642656,-7.15696958218041],[-34.9644820052403,-7.15850430852698],[-34.9652090000952,-7.16353199990181],[-34.9679431819322,-7.16570325739934],[-34.9681602099257,-7.16874968834741],[-34.9705354399586,-7.16974025740689],[-34.9737906242379,-7.1755844099925],[-34.9682186595634,-7.21594349769424],[-34.9604284415193,-7.21394171024168],[-34.9527941991929,-7.21530443405238],[-34.9374875302253,-7.21320426256659],[-34.9354341441704,-7.21397408583533],[-34.929847700411,-7.22591654121539],[-34.9352616910741,-7.23903989907207],[-34.9413260489579,-7.24169506017881],[-34.9437601513099,-7.24475866548],[-34.9431295269061,-7.25167990640251],[-34.9448255241786,-7.26226731008825],[-34.9500439347797,-7.2757573979855],[-34.9555939173254,-7.27693202769087],[-34.9586538219163,-7.28157437845477],[-34.9689363482339,-7.28253546144237],[-34.9741265399078,-7.27427255973077],[-34.9893722708136,-7.26783282752291],[-34.992656134473,-7.26880618535712],[-34.9977622746092,-7.2674798139422],[-35.0051812291304,-7.2686329489514],[-35.0061295417449,-7.270353738734],[-35.0235704710004,-7.27147678692415],[-35.0438051172123,-7.27878135127826],[-35.0451858625375,-7.2776901399879],[-35.0449500944712,-7.27483838618252],[-35.055696052231,-7.26715621988359],[-35.0675047703289,-7.22929282820143],[-35.0419768674384,-7.14215288994387],[-35.0435456205339,-7.13668845450854],[-35.0393037081996,-7.12920537652684],[-35.041230499388,-7.12749148094701],[-35.0473777801604,-7.12894106937483],[-35.0478270229987,-7.12768979225007],[-35.0445078681436,-7.12295440482188],[-35.0592167172776,-7.08109880746396],[-35.1620561258895,-7.03157035448822],[-35.1277058674318,-7.00983483870682],[-35.1349568285947,-7.00704626407379],[-35.1384939116646,-6.9836954750661],[-35.1462859292522,-6.97325079109106],[-35.1414310327159,-6.96726985072298],[-35.1398566786428,-6.96309831213734],[-35.1374663957575,-6.95263718495807],[-35.1373734301396,-6.94484628252986],[-35.1326399501735,-6.94082544423884],[-35.1202261187403,-6.94070444765208],[-35.109606071463,-6.93635858088374],[-35.0959929320281,-6.94043082802022],[-35.0903144480533,-6.93995420622162],[-35.0757630765048,-6.93517816673898],[-35.0592372982626,-6.93483014889222],[-35.049891027349,-6.92934840600408],[-35.0374446503503,-6.91932175839242],[-35.031965442651,-6.91946304278515],[-35.0250663079637,-6.91575192471152],[-35.015662538895,-6.91545122019762],[-35.0137351253757,-6.91384042109849],[-35.0044040260249,-6.91193847727885],[-35.0024770936429,-6.9101853370836],[-35.0009601082224,-6.91093289493711],[-34.9992723739209,-6.90922058306342],[-34.9934695505793,-6.90970043882414],[-34.9891449932468,-6.90818103692527],[-34.9207667510847,-6.95658504326508],[-34.9137786212863,-6.95292810484813],[-34.910957585624,-6.94974446343623],[-34.9076300373962,-6.95420444338033],[-34.9080164967639,-6.95211264728079],[-34.9057821797038,-6.95057772218411],[-34.9023699180373,-6.95556606372282],[-34.8995342072378,-6.95429201126729],[-34.8987752945442,-6.95729489344455],[-34.8949098618006,-6.95653890354755],[-34.8908925317649,-6.95990152353642],[-34.8879786635844,-6.96042631212458],[-34.8826420820664,-6.95598704536582],[-34.8791401669851,-6.95951832061393],[-34.8820337842317,-6.96465302321838],[-34.8810511094211,-6.96560159933432],[-34.8745288752074,-6.96472549238751],[-34.87241413225996,-6.965537647311919],[-34.86884771718195,-6.97938889043679],[-34.868847717181936,-6.979388890436849],[-34.8709017079474,-6.98544311230973],[-34.8683302332536,-7.0069160053693],[-34.85900690376355,-7.0296647292872025],[-34.859,-7.0297],[-34.85897846564896,-7.0297341176766475],[-34.85897846564896,-7.029734117676653],[-34.86414573184,-7.05929073617848],[-34.8896167049469,-7.09231816295285]]]}},{"type":"Feature","properties":{"id":"107","arrangementId":"2507507","name":"João Pessoa/PB","state":"PB","municipality":"2503209","population2010":"57944","urbanPopulation2010":"57936","ruralPopulation2010":"8"},"geometry":{"type":"MultiPolygon","coordinates":[[[[-34.8675179790714,-6.99179602486664],[-34.86727926228451,-6.987401986744487],[-34.86700024059208,-6.988827483707834],[-34.8625153427242,-7.011740427270441],[-34.8655967402973,-7.00470611299665],[-34.8675179790714,-6.99179602486664]]],[[[-34.85950418597675,-7.027124158772242],[-34.85935928090776,-7.027864465857403],[-34.8595975679734,-7.02711580734859],[-34.85950418597675,-7.027124158772242]]],[[[-34.8488199252993,-7.05987624519253],[-34.8447038838771,-7.09986475645332],[-34.8489261640112,-7.09977117929646],[-34.8548017119294,-7.09526191020893],[-34.85894884921,-7.0954298810841],[-34.8580150678411,-7.08812158814073],[-34.8626290980544,-7.08775160165504],[-34.8657301817025,-7.07956331669368],[-34.8636260217235,-7.07684882551285],[-34.8590152074858,-7.07508586741881],[-34.8594220436923,-7.06949186485764],[-34.8568962671489,-7.0636774924223],[-34.86414573184,-7.05929073617848],[-34.85897846564896,-7.029734117676653],[-34.842411694003296,-7.055981472753812],[-34.8464321794015,-7.05672361690137],[-34.8488199252993,-7.05987624519253]]]]}},{"type":"Feature","properties":{"id":"108","arrangementId":"2507507","name":"João Pessoa/PB","state":"PB","municipality":"2508604","population2010":"11730","urbanPopulation2010":"10152","ruralPopulation2010":"1578"},"geometry":{"type":"Polygon","coordinates":[[[-34.8810511094211,-6.96560159933432],[-34.8820337842317,-6.96465302321838],[-34.8791401669851,-6.95951832061393],[-34.8808442482634,-6.95685214281207],[-34.8826420820664,-6.95598704536582],[-34.8879786635844,-6.96042631212458],[-34.8908925317649,-6.95990152353642],[-34.8949098618006,-6.95653890354755],[-34.8987752945442,-6.95729489344455],[-34.8995342072378,-6.95429201126729],[-34.9023699180373,-6.95556606372282],[-34.9057821797038,-6.95057772218411],[-34.9080164967639,-6.95211264728079],[-34.9076300373962,-6.95420444338033],[-34.910957585624,-6.94974446343623],[-34.9137786212863,-6.95292810484813],[-34.9207667510847,-6.95658504326508],[-34.9891449932468,-6.90818103692527],[-34.975515810806,-6.90191652143029],[-34.9636659424293,-6.90042491307924],[-34.9499879312979,-6.89243836493853],[-34.9382169172769,-6.89154100611251],[-34.9323482446757,-6.88915638805679],[-34.9234117588455,-6.87684032911784],[-34.9092212348721,-6.86704428566521],[-34.9027616258483,-6.86526772082863],[-34.8998781412632,-6.86648220848708],[-34.89763020943544,-6.869955084504849],[-34.87241413225996,-6.965537647311919],[-34.8745288752074,-6.96472549238751],[-34.8810511094211,-6.96560159933432]]]}},{"type":"Feature","properties":{"id":"109","arrangementId":"2507507","name":"João Pessoa/PB","state":"PB","municipality":"2501807","population2010":"99716","urbanPopulation2010":"98793","ruralPopulation2010":"923"},"geometry":{"type":"Polygon","coordinates":[[[-34.9705354399586,-7.16974025740689],[-34.9681602099257,-7.16874968834741],[-34.9679431819322,-7.16570325739934],[-34.9652090000952,-7.16353199990181],[-34.9644820052403,-7.15850430852698],[-34.9603405642656,-7.15696958218041],[-34.9577513333573,-7.14839476050975],[-34.9499586340837,-7.13865664778603],[-34.9515240003323,-7.13710199965749],[-34.9430639996039,-7.13257999976713],[-34.9449208424229,-7.13127283067656],[-34.9415350001401,-7.12296199959655],[-34.9346065367622,-7.12434466857156],[-34.9315972244323,-7.12095364439512],[-34.9322097391881,-7.11938241007011],[-34.9264500455332,-7.11824260031568],[-34.9234696509036,-7.11865654386435],[-34.9215379134439,-7.12191290085963],[-34.9194130034073,-7.12009154888586],[-34.9199649281389,-7.11722153884291],[-34.9177959216444,-7.11554501099341],[-34.9156599139738,-7.11722153884291],[-34.9136453876245,-7.11410316303051],[-34.9141578123331,-7.11020364328347],[-34.9118485916392,-7.10717291809568],[-34.9150158285177,-7.10450783836598],[-34.9145732631455,-7.10301428028476],[-34.9081977587196,-7.10115190573584],[-34.9086993861677,-7.09850696002814],[-34.9143768988748,-7.09374149747209],[-34.9155967662777,-7.09402651331288],[-34.9153181554085,-7.09230629010318],[-34.9170142695928,-7.09104862509394],[-34.9124325610138,-7.08484268334315],[-34.9137644137966,-7.08157180859206],[-34.9129809711948,-7.08018119770407],[-34.909220444368,-7.08025954214413],[-34.9065371524676,-7.08805479908967],[-34.9045197869585,-7.08913203311681],[-34.8896167049469,-7.09231816295285],[-34.8930444799188,-7.09625570423731],[-34.8960997377127,-7.10446236774402],[-34.8910949151982,-7.10952015493114],[-34.8907637596397,-7.1117530258814],[-34.8939649243417,-7.1168123374194],[-34.8939442840015,-7.12073139223991],[-34.895402598551,-7.12225283380122],[-34.8981779513513,-7.12082299178758],[-34.9013055254296,-7.12131972422583],[-34.9020782202336,-7.12453928635892],[-34.9082370366099,-7.12821597748536],[-34.9114233669948,-7.1274244688641],[-34.9193428311067,-7.13473647420886],[-34.9155231100035,-7.14402771200924],[-34.909892298191,-7.1508406655642],[-34.9123017465283,-7.15434053288925],[-34.9132720214865,-7.16173174602324],[-34.9233002096369,-7.17175170267888],[-34.9277224252497,-7.16709158311006],[-34.9344247576964,-7.16860905326513],[-34.9393736837484,-7.16463519375913],[-34.9474848185695,-7.16390416724346],[-34.9518745218916,-7.1686488968291],[-34.9624487442142,-7.16704066619377],[-34.9737906242379,-7.1755844099925],[-34.9705354399586,-7.16974025740689]]]}},{"type":"Feature","properties":{"id":"110","arrangementId":"2507507","name":"João Pessoa/PB","state":"PB","municipality":"2504603","population2010":"21400","urbanPopulation2010":"15997","ruralPopulation2010":"5403"},"geometry":{"type":"Polygon","coordinates":[[[-34.8065680686614,-7.3759552009717],[-34.8090087639433,-7.37672330653533],[-34.808401492235,-7.37469138190169],[-34.8108759921333,-7.37145580194369],[-34.8093779896025,-7.3701636335448],[-34.8102645610606,-7.36734274716998],[-34.8129015648553,-7.368160725537],[-34.8144872782652,-7.36633022206206],[-34.8132970516176,-7.36427546633968],[-34.8179297625484,-7.36494379931685],[-34.8155641939323,-7.36149511061081],[-34.8156304496854,-7.35480116704019],[-34.8188235474687,-7.35286249580748],[-34.8201585074091,-7.34977573925892],[-34.8293515068665,-7.34810995201264],[-34.8320153428338,-7.34626527252425],[-34.8358184174859,-7.34740367933632],[-34.8418726220238,-7.34600823998824],[-34.8442046881958,-7.34393638185849],[-34.8464889185287,-7.34394130204942],[-34.8503774107888,-7.3478111117933],[-34.8522067046756,-7.3476295539607],[-34.8563767782657,-7.34460700990554],[-34.8574619488098,-7.34178639512601],[-34.8598496236612,-7.34334173393382],[-34.8740966646293,-7.33380418171754],[-34.8796774084856,-7.3254768660645],[-34.8914908830977,-7.31904750843576],[-34.8923717870283,-7.31658679604375],[-34.8982118063298,-7.31589517152492],[-34.9062656318534,-7.30919053411583],[-34.9096240430151,-7.30867509398036],[-34.9195957357546,-7.30249511925434],[-34.9196541710032,-7.29662855646268],[-34.9169207724756,-7.28927336027732],[-34.9202206089939,-7.28082984681993],[-34.9263752830928,-7.2730198877576],[-34.9395960366277,-7.27342129925353],[-34.9379555122371,-7.26133306466915],[-34.934665276881,-7.25251521560467],[-34.9438442469144,-7.24894386836479],[-34.9437601513099,-7.24475866548],[-34.9413260489579,-7.24169506017881],[-34.9352616910741,-7.23903989907207],[-34.929847700411,-7.22591654121539],[-34.9118246058209,-7.21321162711485],[-34.9044920006053,-7.21284301928984],[-34.8992913030511,-7.21465266928522],[-34.8878233938345,-7.21539096232301],[-34.8758194185313,-7.22152636844708],[-34.8727125954099,-7.22109417045953],[-34.8714373954194,-7.22215673114818],[-34.8725103486736,-7.22504679067679],[-34.8694010263363,-7.22554410497639],[-34.8698382209571,-7.22784111017904],[-34.8656559435669,-7.22625966135423],[-34.8655120403483,-7.22806181280237],[-34.8629837151263,-7.22805812917926],[-34.8624899531488,-7.23023397052129],[-34.8582680066631,-7.22895961949081],[-34.8577366485275,-7.23054302164308],[-34.8507874836554,-7.23192912602833],[-34.851154979019,-7.23455160846994],[-34.8494318689855,-7.23515869851509],[-34.8454060187727,-7.23232273500617],[-34.846766275743,-7.235225685417],[-34.8442084194829,-7.235046550358],[-34.842439399059,-7.23678540302388],[-34.8402652799187,-7.23444345060472],[-34.8387885499516,-7.23774514062569],[-34.8375678398838,-7.23561100984018],[-34.8383207091334,-7.23182600436655],[-34.8352866510581,-7.2315944568187],[-34.8322917746456,-7.22860254007515],[-34.831046172243,-7.2307660247322],[-34.8267896603145,-7.22945506859652],[-34.8225684090048,-7.23143892176876],[-34.8229289948771,-7.23255938800532],[-34.8251498994483,-7.23213350775512],[-34.8250140694437,-7.23546353451445],[-34.8186839618953,-7.23427720912587],[-34.8176820227071,-7.2354470274583],[-34.818593050329,-7.2388341557716],[-34.8091545062754,-7.23603170370012],[-34.80733619143591,-7.236588194380643],[-34.8073361914359,-7.236588194380653],[-34.8086556937052,-7.24347859566064],[-34.806464466497694,-7.241077815988656],[-34.80559553022658,-7.253958375970328],[-34.80350630515484,-7.350601884127748],[-34.80280570264141,-7.383010400394366],[-34.8052005370751,-7.38080903630794],[-34.8065680686614,-7.3759552009717]]]}},{"type":"Feature","properties":{"id":"111","arrangementId":"2507507","name":"João Pessoa/PB","state":"PB","municipality":"2507507","population2010":"723515","urbanPopulation2010":"721860","ruralPopulation2010":"1655"},"geometry":{"type":"MultiPolygon","coordinates":[[[[-34.818593050329,-7.2388341557716],[-34.8176820227071,-7.2354470274583],[-34.8186839618953,-7.23427720912587],[-34.8250140694437,-7.23546353451445],[-34.8251498994483,-7.23213350775512],[-34.8229289948771,-7.23255938800532],[-34.8225684090048,-7.23143892176876],[-34.8267896603145,-7.22945506859652],[-34.831046172243,-7.2307660247322],[-34.8322917746456,-7.22860254007515],[-34.8352866510581,-7.2315944568187],[-34.8383207091334,-7.23182600436655],[-34.8375678398838,-7.23561100984018],[-34.8387885499516,-7.23774514062569],[-34.8402652799187,-7.23444345060472],[-34.842439399059,-7.23678540302388],[-34.8442084194829,-7.235046550358],[-34.846766275743,-7.235225685417],[-34.8454060187727,-7.23232273500617],[-34.8494318689855,-7.23515869851509],[-34.851154979019,-7.23455160846994],[-34.8507874836554,-7.23192912602833],[-34.8577366485275,-7.23054302164308],[-34.8582680066631,-7.22895961949081],[-34.8624899531488,-7.23023397052129],[-34.8629837151263,-7.22805812917926],[-34.8655120403483,-7.22806181280237],[-34.8656559435669,-7.22625966135423],[-34.8698382209571,-7.22784111017904],[-34.8694010263363,-7.22554410497639],[-34.8725103486736,-7.22504679067679],[-34.8714373954194,-7.22215673114818],[-34.8727125954099,-7.22109417045953],[-34.8758194185313,-7.22152636844708],[-34.8878233938345,-7.21539096232301],[-34.8992913030511,-7.21465266928522],[-34.9044920006053,-7.21284301928984],[-34.9118246058209,-7.21321162711485],[-34.929847700411,-7.22591654121539],[-34.9354341441704,-7.21397408583533],[-34.9374875302253,-7.21320426256659],[-34.9527941991929,-7.21530443405238],[-34.9604284415193,-7.21394171024168],[-34.9682186595634,-7.21594349769424],[-34.9737906242379,-7.1755844099925],[-34.9624487442142,-7.16704066619377],[-34.9518745218916,-7.1686488968291],[-34.9474848185695,-7.16390416724346],[-34.9393736837484,-7.16463519375913],[-34.9344247576964,-7.16860905326513],[-34.9277224252497,-7.16709158311006],[-34.9233002096369,-7.17175170267888],[-34.9132720214865,-7.16173174602324],[-34.9123017465283,-7.15434053288925],[-34.909892298191,-7.1508406655642],[-34.9155231100035,-7.14402771200924],[-34.9193428311067,-7.13473647420886],[-34.9114233669948,-7.1274244688641],[-34.9082370366099,-7.12821597748536],[-34.9020782202336,-7.12453928635892],[-34.9013055254296,-7.12131972422583],[-34.8981779513513,-7.12082299178758],[-34.895402598551,-7.12225283380122],[-34.8939442840015,-7.12073139223991],[-34.8939649243417,-7.1168123374194],[-34.8907637596397,-7.1117530258814],[-34.8910949151982,-7.10952015493114],[-34.8960997377127,-7.10446236774402],[-34.8930444799188,-7.09625570423731],[-34.86414573184,-7.05929073617848],[-34.8568962671489,-7.0636774924223],[-34.8594220436923,-7.06949186485764],[-34.8590152074858,-7.07508586741881],[-34.8636260217235,-7.07684882551285],[-34.8657301817025,-7.07956331669368],[-34.8626290980544,-7.08775160165504],[-34.8580150678411,-7.08812158814073],[-34.8574556670454,-7.09025748069816],[-34.8591979083567,-7.0950997318671],[-34.8548017119294,-7.09526191020893],[-34.8489261640112,-7.09977117929646],[-34.8447038838771,-7.09986475645332],[-34.8488199252993,-7.05987624519253],[-34.8464321794015,-7.05672361690137],[-34.8424,-7.056],[-34.8073361914359,-7.236588194380644],[-34.8091545062754,-7.23603170370012],[-34.818593050329,-7.2388341557716]]],[[[-34.807218990673555,-7.237191810328829],[-34.806464466497694,-7.241077815988656],[-34.8086556937052,-7.24347859566064],[-34.807218990673555,-7.237191810328829]]]]}},{"type":"Feature","properties":{"id":"112","arrangementId":"2508901","name":"Mamanguape - Rio Tinto/PB","state":"PB","municipality":"2508901","population2010":"42303","urbanPopulation2010":"34601","ruralPopulation2010":"7702"},"geometry":{"type":"Polygon","coordinates":[[[-35.1840271678195,-6.55456858866939],[-35.1688535103812,-6.55826126074857],[-35.1574849168953,-6.5517082517344],[-35.151698349699,-6.55357499788778],[-35.145443479433,-6.55270970978523],[-35.1432933793859,-6.54778498988532],[-35.1394829887489,-6.54571982181228],[-35.1299010486944,-6.53307885400585],[-35.1234536479674,-6.52986076676092],[-35.1175854187321,-6.51619004013822],[-35.1122330046494,-6.50785008811101],[-35.1117836260135,-6.51204773581429],[-35.1196225819166,-6.54510987012436],[-35.1338496507407,-6.55775800462817],[-35.131486233303,-6.56156403715056],[-35.1313400386118,-6.56547412752889],[-35.1327033856527,-6.57023329572997],[-35.1362674016192,-6.57526707191779],[-35.1362437854223,-6.57913615321087],[-35.1333334227992,-6.58427905313574],[-35.1284238339927,-6.58845366650349],[-35.103771912144,-6.59022421577487],[-35.1043722374887,-6.60682530054714],[-35.0952601302508,-6.61418812298342],[-35.0941488038242,-6.61823091012838],[-35.0881187775595,-6.62578386273504],[-35.0936104705467,-6.62733526880755],[-35.1005974510115,-6.631952371105],[-35.1035842326262,-6.63877137619802],[-35.1062108294661,-6.6411226339024],[-35.1220511210623,-6.64872601779144],[-35.1188490984071,-6.65963441109915],[-35.115548826617,-6.6620904398219],[-35.1156656287657,-6.66809187573944],[-35.1134076064758,-6.67547601660482],[-35.1209880873303,-6.72687636794996],[-35.1332439447522,-6.74293692509894],[-35.1344309140554,-6.7467243857218],[-35.1340761126224,-6.77087854810645],[-35.1120349442572,-6.82473040008785],[-35.1038564232353,-6.82607453581114],[-35.1006807956821,-6.82422921600545],[-35.0869432755117,-6.82552891442783],[-35.0882411393171,-6.83139104985701],[-35.0920466043672,-6.83359066927393],[-35.0924082145674,-6.83673864087552],[-35.0888786192528,-6.83861259059853],[-35.0912022201063,-6.840759684212],[-35.0934075241379,-6.84869240612961],[-35.0978605936914,-6.85290416509509],[-35.0972765262906,-6.8559877686206],[-35.1008723162044,-6.8653767312511],[-35.098164299243,-6.87937145392943],[-35.0992291774845,-6.88601899787841],[-35.1015763046028,-6.88921859146478],[-35.1081522247453,-6.89021064530499],[-35.1126923990349,-6.89281783117793],[-35.1225982110386,-6.89420192288037],[-35.1299627170058,-6.89868767019977],[-35.1595275533539,-6.89351058524528],[-35.1580605936214,-6.88478811827701],[-35.1670649512864,-6.85673697043478],[-35.1654986821184,-6.85172465656764],[-35.2023255691697,-6.80462923215327],[-35.2046821364714,-6.79806467854207],[-35.2114905241683,-6.78882295741352],[-35.2115324325757,-6.78514256197962],[-35.2145390640265,-6.78195859141579],[-35.2161636551285,-6.78248736400059],[-35.2202083560308,-6.77682422425852],[-35.2268066054405,-6.77572452516665],[-35.2256396505494,-6.77366963004932],[-35.2289063929156,-6.76983489026793],[-35.2314003334586,-6.76171032856877],[-35.2298285973119,-6.75893016619416],[-35.2203484623116,-6.75130740011639],[-35.2223723784824,-6.74182827505479],[-35.2207706391536,-6.73738841204551],[-35.220992696156,-6.73288201359401],[-35.2176879943054,-6.72867311357328],[-35.2139982387277,-6.71973841469606],[-35.2178468217734,-6.70973817477687],[-35.2225591703694,-6.7027035257471],[-35.2225422963898,-6.69899510833756],[-35.228719819564,-6.69320728119101],[-35.2278155476493,-6.6884726141198],[-35.2152316166457,-6.68049555922261],[-35.2114078962573,-6.67270058196624],[-35.2066537489713,-6.67549211267084],[-35.2033234479188,-6.67575807817275],[-35.1981873891366,-6.67240937249448],[-35.1890187181393,-6.66923607328613],[-35.1820153700133,-6.66231840537006],[-35.1798804613142,-6.66341611066491],[-35.1771008942908,-6.66115204852815],[-35.172326407038,-6.66359017354762],[-35.1691562581548,-6.66067563267428],[-35.1631018422761,-6.6581712357139],[-35.1599341710252,-6.66204221547583],[-35.1580717649999,-6.65855770227608],[-35.1576254467569,-6.66091948924299],[-35.1552969275111,-6.66279228783378],[-35.1513501456926,-6.66233156784756],[-35.1504024590062,-6.65908468610935],[-35.1444264199433,-6.65830836523884],[-35.1448123505095,-6.65566634232778],[-35.2063933988363,-6.59848979926477],[-35.1940068015726,-6.55031952942272],[-35.1891802417747,-6.55032360245224],[-35.1840271678195,-6.55456858866939]]]}},{"type":"Feature","properties":{"id":"113","arrangementId":"2508901","name":"Mamanguape - Rio Tinto/PB","state":"PB","municipality":"2512903","population2010":"22976","urbanPopulation2010":"13057","ruralPopulation2010":"9919"},"geometry":{"type":"Polygon","coordinates":[[[-34.9085759910891,-6.84198046532618],[-34.902714191107,-6.85502024199053],[-34.9027616258483,-6.86526772082863],[-34.9092212348721,-6.86704428566521],[-34.9234117588455,-6.87684032911784],[-34.9323482446757,-6.88915638805679],[-34.9382169172769,-6.89154100611251],[-34.9499879312979,-6.89243836493853],[-34.9636659424293,-6.90042491307924],[-34.975515810806,-6.90191652143029],[-34.9934695505793,-6.90970043882414],[-34.9992723739209,-6.90922058306342],[-35.0009601082224,-6.91093289493711],[-35.0024770936429,-6.9101853370836],[-35.0044040260249,-6.91193847727885],[-35.0137351253757,-6.91384042109849],[-35.015662538895,-6.91545122019762],[-35.0250663079637,-6.91575192471152],[-35.031965442651,-6.91946304278515],[-35.0374446503503,-6.91932175839242],[-35.049891027349,-6.92934840600408],[-35.0592372982626,-6.93483014889222],[-35.0757630765048,-6.93517816673898],[-35.0903144480533,-6.93995420622162],[-35.0959929320281,-6.94043082802022],[-35.1009695392128,-6.93858582027935],[-35.1245990056395,-6.89577971596106],[-35.1225982110386,-6.89420192288037],[-35.1126923990349,-6.89281783117793],[-35.1081522247453,-6.89021064530499],[-35.1015763046028,-6.88921859146478],[-35.0992291774845,-6.88601899787841],[-35.098164299243,-6.87937145392943],[-35.1008723162044,-6.8653767312511],[-35.0972765262906,-6.8559877686206],[-35.0978605936914,-6.85290416509509],[-35.0934075241379,-6.84869240612961],[-35.0912022201063,-6.840759684212],[-35.0888786192528,-6.83861259059853],[-35.0924082145674,-6.83673864087552],[-35.0920466043672,-6.83359066927393],[-35.0882411393171,-6.83139104985701],[-35.0869432755117,-6.82552891442783],[-35.1006807956821,-6.82422921600545],[-35.1038564232353,-6.82607453581114],[-35.1120349442572,-6.82473040008785],[-35.1340761126224,-6.77087854810645],[-35.1344309140554,-6.7467243857218],[-35.1332439447522,-6.74293692509894],[-35.1209880873303,-6.72687636794996],[-35.1134076064758,-6.67547601660482],[-35.1156656287657,-6.66809187573944],[-35.115548826617,-6.6620904398219],[-35.1188490984071,-6.65963441109915],[-35.1220511210623,-6.64872601779144],[-35.1062108294661,-6.6411226339024],[-35.1035842326262,-6.63877137619802],[-35.1005974510115,-6.631952371105],[-35.0936104705467,-6.62733526880755],[-35.0881187775595,-6.62578386273504],[-35.0772037697382,-6.61929984970823],[-35.0709786157705,-6.61834499182789],[-35.063443248507,-6.61133535204482],[-35.0562480039422,-6.60913198245498],[-35.048275118302,-6.60209503116073],[-35.034150549708,-6.59890263754665],[-35.0009904108787,-6.59658423657323],[-35.0057630023607,-6.5980729293222],[-35.0199521998341,-6.61851883887328],[-35.0372519813938,-6.66970350940937],[-35.0315974004996,-6.70399961429069],[-35.0277394330284,-6.7085207238523],[-35.0327994226552,-6.70907968577882],[-35.0348524804576,-6.71167045902439],[-35.0372959024839,-6.71161507607485],[-35.0473611669842,-6.71748419473977],[-35.0794122924433,-6.72177253457477],[-35.0866248867291,-6.72533695163896],[-35.0923153838478,-6.73904466108217],[-35.0602158802586,-6.77455236230162],[-35.0450525479367,-6.77470539813555],[-35.0250264976747,-6.78605244116716],[-35.0216832967467,-6.79128861877467],[-35.0192649568123,-6.79151716528492],[-35.0153545381813,-6.78932000371516],[-35.0120437919874,-6.79526583185259],[-35.0068770995984,-6.79408598248205],[-35.0014256944402,-6.79772237318895],[-34.996410356153,-6.79502667693953],[-34.9962896320608,-6.78755778756181],[-34.9933486592132,-6.7855667335179],[-34.9866853573433,-6.78670734097096],[-34.9829420309499,-6.78432272111667],[-34.9811655731327,-6.78468481785],[-34.9760407621714,-6.79239710514224],[-34.9716871936091,-6.79343785637196],[-34.9688367896861,-6.79184914552162],[-34.9551961534797,-6.78229974024078],[-34.9534838550958,-6.77661608336552],[-34.9537225657438,-6.76963415529201],[-34.9506818337995,-6.76528852054872],[-34.9460410748357,-6.76509645593666],[-34.9372764944146,-6.77076516248223],[-34.9310723468113,-6.77190514670514],[-34.92416544919479,-6.7699898982433755],[-34.91455452644873,-6.806187358240978],[-34.9120695208916,-6.8275129465652],[-34.9085759910891,-6.84198046532618]]]}},{"type":"Feature","properties":{"id":"114","arrangementId":"2510808","name":"Patos/PB","state":"PB","municipality":"2510808","population2010":"100674","urbanPopulation2010":"97278","ruralPopulation2010":"3396"},"geometry":{"type":"Polygon","coordinates":[[[-37.3898522584749,-7.13052058915384],[-37.3598683992072,-7.12629215585827],[-37.3615470422622,-7.11250004504097],[-37.3501300490624,-7.11408887999778],[-37.3469725293587,-7.08505723280502],[-37.3488240095204,-7.0532438170485],[-37.3524089320265,-7.05351068007377],[-37.3692599240063,-7.00011841493284],[-37.3878081003635,-6.99897396287804],[-37.4031107943276,-7.00472697367087],[-37.4144096885562,-7.00553030747768],[-37.4174545456907,-7.00472565526474],[-37.4244304537024,-6.99838294101989],[-37.4392140751694,-6.99700709879852],[-37.4487735303741,-6.99770191591062],[-37.4578128437877,-6.99172261770462],[-37.4708533156279,-6.99161232484886],[-37.4844261168718,-6.99496684914073],[-37.4935390460901,-6.99947643838687],[-37.5012567904685,-6.99878748305588],[-37.5182095713146,-7.00043337370118],[-37.5158296324316,-6.99141619799912],[-37.5240542536009,-6.98760769503906],[-37.521636029679,-6.98157726228078],[-37.5219921207397,-6.97277622694128],[-37.5109342502154,-6.96835550959907],[-37.5093767035719,-6.96053723360637],[-37.5079287303266,-6.95960576799177],[-37.4924187714091,-6.95735426668602],[-37.4832518684789,-6.97001554747948],[-37.4806302233061,-6.97049840877452],[-37.4596798291607,-6.96628495638561],[-37.4542448096502,-6.96294573945426],[-37.4522351171569,-6.95988852473556],[-37.4525511434205,-6.95686949163372],[-37.4657756498264,-6.95024839944404],[-37.4595319167645,-6.93060516629533],[-37.4711093526145,-6.93018584480086],[-37.4743305506144,-6.9288293389028],[-37.4850073963742,-6.9128875821961],[-37.4808830901824,-6.914897360125],[-37.4748221865946,-6.91550952774248],[-37.462036777775,-6.91326024506424],[-37.4491563250044,-6.91584790665553],[-37.4354707253936,-6.91636381443846],[-37.4198822889364,-6.9249709631394],[-37.4111190233242,-6.92806088710023],[-37.4033174810169,-6.93441397682353],[-37.3965023753843,-6.93649569601951],[-37.3867056511448,-6.93646277453735],[-37.3776740916859,-6.93135279519533],[-37.3615214799323,-6.92817415041669],[-37.3472437460021,-6.92784433304951],[-37.3336404586402,-6.9223997384571],[-37.3157582626337,-6.92024294385675],[-37.2962641730531,-6.91511447895],[-37.2682605256027,-6.91303813230395],[-37.2561165906081,-6.91365288457291],[-37.2457286745387,-6.90923067615472],[-37.221524556613,-6.90985086752346],[-37.2125544685139,-6.90638711337455],[-37.1982921399703,-6.90624876886556],[-37.1961407934628,-6.91235887526182],[-37.1904739638023,-6.91758267370136],[-37.1787992806622,-6.91845563032303],[-37.1781357968295,-6.92240284291682],[-37.1810861559013,-6.92649090912812],[-37.1883843305724,-6.930210372011],[-37.1936457008883,-6.9351347240882],[-37.1927141723211,-6.93617217390664],[-37.1834545402947,-6.9361812849383],[-37.1733290257139,-6.94447403245061],[-37.1735015633464,-6.94738230414999],[-37.17828549438,-6.95386120453094],[-37.1809763855517,-6.9647229994668],[-37.1743310917064,-6.97332672265009],[-37.173013182912,-6.98220933819033],[-37.2041480368024,-7.00057747746853],[-37.2153786994673,-7.01139907001102],[-37.2280387652768,-7.0196790111774],[-37.2282748436091,-7.02290713215837],[-37.2246209098271,-7.02955323719209],[-37.2241452188267,-7.0387090478842],[-37.2305736330667,-7.04689787243882],[-37.2333532702372,-7.04584263582894],[-37.2391743408231,-7.05683544489983],[-37.2346526242192,-7.06024611386704],[-37.2319059247186,-7.06023646324213],[-37.2282707489958,-7.06247450079753],[-37.2264927524385,-7.06589617746658],[-37.2168552414762,-7.07356974175013],[-37.2136848776549,-7.08171370542311],[-37.2448886384998,-7.11056638483075],[-37.2878211928937,-7.07642200816912],[-37.3215254953053,-7.0819057727332],[-37.3192075215098,-7.08443356555655],[-37.31442164884,-7.08484443252451],[-37.3138196039915,-7.08677129835666],[-37.3164128135005,-7.09103202720626],[-37.3141162273819,-7.09468917786324],[-37.3157297028635,-7.09935297206199],[-37.3210970555846,-7.10286044675218],[-37.3208147116296,-7.10576136559451],[-37.3237288064392,-7.11149932173629],[-37.3288274012635,-7.11424239067372],[-37.3298955818156,-7.1193627886617],[-37.3283579326724,-7.12327720837641],[-37.3342057760756,-7.12986920300125],[-37.3368853079106,-7.13990528360194],[-37.3530653318995,-7.14424035760635],[-37.3565504854165,-7.14216470163962],[-37.3629574229467,-7.1441740092231],[-37.370869577369,-7.15036112186824],[-37.3757603757407,-7.15063392761363],[-37.3809675178366,-7.15365547432066],[-37.3839010649821,-7.15386915413809],[-37.3881503211803,-7.1508805936644],[-37.3898522584749,-7.13052058915384]]]}},{"type":"Feature","properties":{"id":"115","arrangementId":"2510808","name":"Patos/PB","state":"PB","municipality":"2512606","population2010":"1699","urbanPopulation2010":"633","ruralPopulation2010":"1066"},"geometry":{"type":"Polygon","coordinates":[[[-37.2168552414762,-7.07356974175013],[-37.2264927524385,-7.06589617746658],[-37.2282707489958,-7.06247450079753],[-37.2319059247186,-7.06023646324213],[-37.2346526242192,-7.06024611386704],[-37.2391743408231,-7.05683544489983],[-37.2333532702372,-7.04584263582894],[-37.2305736330667,-7.04689787243882],[-37.2241452188267,-7.0387090478842],[-37.2246209098271,-7.02955323719209],[-37.2282748436091,-7.02290713215837],[-37.2280387652768,-7.0196790111774],[-37.2153786994673,-7.01139907001102],[-37.2041480368024,-7.00057747746853],[-37.173013182912,-6.98220933819033],[-37.1590272556033,-6.98991929264122],[-37.1525922340443,-6.99119613299507],[-37.1453720557757,-6.99647316320585],[-37.1407445222418,-7.00203839825344],[-37.1300997570981,-7.00246181526052],[-37.1293000403645,-7.00794822832802],[-37.1266994411263,-7.01026341782244],[-37.1151732621363,-7.0125441578865],[-37.1091142183465,-7.01577808309202],[-37.1045800236491,-7.0209666379999],[-37.098524243499,-7.02373782244251],[-37.087199383145,-7.02341137573438],[-37.0774452651868,-7.01518415642364],[-37.0725574957318,-7.01367440874691],[-37.071295780176,-7.01711377867792],[-37.0678282227942,-7.01998244513368],[-37.0559110833298,-7.02449662991552],[-37.055614403282,-7.02626066719598],[-37.0601894703677,-7.03363109250085],[-37.0593094252897,-7.0376288559869],[-37.0388490159693,-7.04191759781885],[-37.024958105632,-7.04821261561966],[-37.0052329829158,-7.05187182482479],[-37.0213523017673,-7.05599652581896],[-37.0293728955427,-7.0562041091323],[-37.0337121118245,-7.0582612525547],[-37.0397775443981,-7.057180534554],[-37.0452947142796,-7.06381668768995],[-37.0516104047963,-7.0648814400264],[-37.0562175390082,-7.06822642161201],[-37.0602860053948,-7.06748189087654],[-37.0647979005026,-7.07172562523738],[-37.0749651220427,-7.07114323057556],[-37.0791357990779,-7.07289304327929],[-37.083148606423,-7.07266766238268],[-37.085416394451,-7.07811379931235],[-37.0885433659835,-7.08122470805381],[-37.0905096203227,-7.08898251633003],[-37.0889361763634,-7.09409974240912],[-37.0927291732127,-7.09712837847184],[-37.0934231575526,-7.099969899791],[-37.0923777316469,-7.10228659385121],[-37.0901577057135,-7.10293325766367],[-37.086977804582,-7.10913303636051],[-37.0964223309258,-7.09982486432597],[-37.103167516068,-7.09759260311609],[-37.1144607229839,-7.09098530742598],[-37.1305390678237,-7.08627776930354],[-37.1417127899133,-7.07740676221226],[-37.1505306920378,-7.07468066707907],[-37.1699925508156,-7.06546661629125],[-37.1771119447604,-7.06674916374288],[-37.1882779434723,-7.05950873004383],[-37.189703529894,-7.0592898566415],[-37.2136848776549,-7.08171370542311],[-37.2168552414762,-7.07356974175013]]]}},{"type":"Feature","properties":{"id":"116","arrangementId":"2516003","name":"Solânea - Bananeiras/PB","state":"PB","municipality":"2501500","population2010":"21851","urbanPopulation2010":"9303","ruralPopulation2010":"12548"},"geometry":{"type":"Polygon","coordinates":[[[-35.663817750189,-6.74703579936261],[-35.6692747779086,-6.74066329057836],[-35.6764985597607,-6.7272343430904],[-35.6744292566049,-6.71847601115895],[-35.6729571770321,-6.71719906018842],[-35.6742315280625,-6.71200703749475],[-35.6722265435201,-6.70672074786416],[-35.6778747554156,-6.6944237842302],[-35.6766948691728,-6.69082370455027],[-35.6774490757142,-6.68863216194467],[-35.6805928034151,-6.68518963899061],[-35.6859447885211,-6.68252186219417],[-35.6888982961194,-6.67019780558422],[-35.6822546390403,-6.65462676201542],[-35.6792599182106,-6.6512049072806],[-35.6705150482309,-6.65049613718697],[-35.6683215918679,-6.64501030777945],[-35.6704453013095,-6.63771075894432],[-35.6675050713019,-6.63543992491253],[-35.6611455361375,-6.63658600743827],[-35.6510010224791,-6.64423779553777],[-35.6475685899184,-6.64506037663501],[-35.6422128150693,-6.6434826743859],[-35.6284048707881,-6.65603552841685],[-35.6210186003281,-6.65607382604617],[-35.6104322101783,-6.65260880565183],[-35.6037636256907,-6.64234026559076],[-35.6021962539539,-6.63609583105773],[-35.5983705928285,-6.63488047375484],[-35.5891140715571,-6.61812582074999],[-35.5817095745372,-6.61433432307052],[-35.5772219530307,-6.6077461856379],[-35.5676686177125,-6.60711459985884],[-35.5626710976929,-6.60065622920156],[-35.5605045004823,-6.60004899706353],[-35.5556772374146,-6.60254511756307],[-35.55214774822,-6.60954358237041],[-35.548082176751,-6.61104814635484],[-35.5438687531404,-6.60890570763223],[-35.5387453496181,-6.60250710322021],[-35.5327578684808,-6.60198198727886],[-35.5255365714556,-6.60875364936141],[-35.5267482847055,-6.62202994772389],[-35.5256608577623,-6.63346454515262],[-35.527967131378,-6.63629366302207],[-35.5259795208382,-6.64465038560679],[-35.5265892485949,-6.66564719016567],[-35.5298117254308,-6.67329270819187],[-35.5402147698957,-6.68769835179745],[-35.5402602998729,-6.69928777561029],[-35.5470946590912,-6.71558405136284],[-35.5452202336268,-6.72245037788257],[-35.5377254185931,-6.72625784212568],[-35.5382828480749,-6.73533832560321],[-35.5348780031173,-6.74177993019959],[-35.5322213320488,-6.74531393219218],[-35.5216850530227,-6.75197904349801],[-35.5213134909248,-6.75383455621978],[-35.5229807458647,-6.75605101364334],[-35.5215925730388,-6.75852895794504],[-35.5285395795379,-6.77152871837558],[-35.530185969307,-6.77022347563287],[-35.5363028808732,-6.77093156763772],[-35.5434686816343,-6.77700956913629],[-35.5467821500761,-6.7774864877112],[-35.5527877750358,-6.78245151792317],[-35.5553425367286,-6.78281671821691],[-35.5671095451693,-6.79214492175072],[-35.5906302862587,-6.78448256571778],[-35.6441928398277,-6.77497567049074],[-35.6477521478433,-6.76260409460326],[-35.6473768868338,-6.75911161161157],[-35.663817750189,-6.74703579936261]]]}},{"type":"Feature","properties":{"id":"117","arrangementId":"2516003","name":"Solânea - Bananeiras/PB","state":"PB","municipality":"2516003","population2010":"26693","urbanPopulation2010":"19332","ruralPopulation2010":"7361"},"geometry":{"type":"Polygon","coordinates":[[[-35.7611892321972,-6.82073697493138],[-35.7630521949029,-6.82098641898802],[-35.7625188213864,-6.82330985436625],[-35.765488853128,-6.82510115459456],[-35.7764133137234,-6.82320767789195],[-35.7868498894108,-6.82418280199465],[-35.7891983088548,-6.82042761893939],[-35.7906374669455,-6.81356778192753],[-35.7955722511584,-6.80745967292552],[-35.7999506491032,-6.79311480190654],[-35.8063217693341,-6.78430389560828],[-35.810244966432,-6.7709911252402],[-35.8073870306869,-6.76624703237462],[-35.7941219288838,-6.75647071105442],[-35.7978349463257,-6.75302943366137],[-35.7945543732857,-6.74951941748708],[-35.7891689046212,-6.74901853108032],[-35.7882812350909,-6.74776857955625],[-35.7881482163671,-6.72849999318009],[-35.7852831759777,-6.72248930953396],[-35.7857913999531,-6.71539455521452],[-35.7823438461915,-6.71127374288887],[-35.780196462097,-6.70497180660357],[-35.7819232755387,-6.70393689467193],[-35.7824982840685,-6.7011466437026],[-35.7796055670432,-6.69779878608506],[-35.7807100748101,-6.69127412280249],[-35.7739914016818,-6.69130840316024],[-35.7667059299347,-6.68915323003752],[-35.7602338104419,-6.69097167540247],[-35.7533093004838,-6.68684007391022],[-35.7465361419294,-6.68478063361932],[-35.7459662766223,-6.67854003649341],[-35.7390712068707,-6.673711450523],[-35.7220222003642,-6.67059743192591],[-35.7149252139274,-6.6640035334363],[-35.7109166639728,-6.6542003592591],[-35.6978718744873,-6.65784627648441],[-35.6882421156811,-6.65427124562143],[-35.6835565821705,-6.65935736145304],[-35.6888982961194,-6.67019780558422],[-35.6859447885211,-6.68252186219417],[-35.6805928034151,-6.68518963899061],[-35.6774490757142,-6.68863216194467],[-35.6766948691728,-6.69082370455027],[-35.6778747554156,-6.6944237842302],[-35.6722265435201,-6.70672074786416],[-35.6742315280625,-6.71200703749475],[-35.6729571770321,-6.71719906018842],[-35.6744292566049,-6.71847601115895],[-35.6764985597607,-6.7272343430904],[-35.6692747779086,-6.74066329057836],[-35.663817750189,-6.74703579936261],[-35.6473702516358,-6.75908907550041],[-35.6477521478433,-6.76260409460326],[-35.6367839361297,-6.80071183478333],[-35.6660724305982,-6.80898411552448],[-35.6721882279044,-6.81395412977924],[-35.6775763378777,-6.82145322198858],[-35.6795147824812,-6.82743707346214],[-35.6879527003568,-6.82257401827627],[-35.6899187082817,-6.81919494608985],[-35.7008757207379,-6.81472169754824],[-35.7075918532814,-6.82045822107001],[-35.7145099097045,-6.82060877927171],[-35.7188177657272,-6.82224055056094],[-35.7200742867989,-6.82519731190639],[-35.7294268484702,-6.81726177241279],[-35.7328202576487,-6.81801804199898],[-35.7333591449085,-6.81576931779972],[-35.7362992382192,-6.8142289904755],[-35.7394755123849,-6.81546753679731],[-35.7404033636243,-6.8138038692531],[-35.7425507953828,-6.81352537349716],[-35.7444815184073,-6.81399630258727],[-35.746576618616,-6.81871252456329],[-35.7503675847962,-6.82134049107078],[-35.7524844773767,-6.8253357598374],[-35.7564336316068,-6.82512567640879],[-35.7611892321972,-6.82073697493138]]]}},{"type":"Feature","properties":{"id":"123","arrangementId":"2607653","name":"Itambé/PE - Pedras de Fogo/PB","state":"PB","municipality":"2507903","population2010":"10237","urbanPopulation2010":"9586","ruralPopulation2010":"651"},"geometry":{"type":"Polygon","coordinates":[[[-35.20932575438,-7.38549766798293],[-35.2167415486835,-7.3809382338124],[-35.2398558672544,-7.37554542578073],[-35.2462336541598,-7.37594311858004],[-35.2485946758036,-7.37477955233442],[-35.2643934915663,-7.37990857661947],[-35.2801757490116,-7.38765534931485],[-35.2864763857766,-7.37870689800491],[-35.2811950253301,-7.37613801515721],[-35.273814102239,-7.36915184947823],[-35.2701758328483,-7.35537162949703],[-35.2681481539141,-7.35290339337683],[-35.2649448829999,-7.34959609428427],[-35.262722585379,-7.34989897335891],[-35.257260002547,-7.34632767198446],[-35.2541869408746,-7.34277739406144],[-35.2560310277097,-7.3399283921815],[-35.2520334962488,-7.33967621058861],[-35.2507656023506,-7.33699435940213],[-35.2517438704832,-7.33584024503125],[-35.2501982605413,-7.33450359706331],[-35.2492243640132,-7.33666512029902],[-35.2453566838638,-7.33417162581982],[-35.2451209409786,-7.3315591528326],[-35.246959136355,-7.33043225014819],[-35.241788841282,-7.32871317357405],[-35.2404020237344,-7.32687072530371],[-35.2385165851722,-7.31460161817012],[-35.235955156805,-7.31300590160106],[-35.2346339169217,-7.30945611470787],[-35.2289719022315,-7.30592562726582],[-35.2298630116686,-7.30529400731258],[-35.2287866373933,-7.30236846503261],[-35.2241926620617,-7.30371825299495],[-35.223586938986,-7.30183652503559],[-35.2203497753218,-7.30010521318502],[-35.2172545201799,-7.30469427821834],[-35.2117050880194,-7.30409593767734],[-35.209377681235,-7.30683420693305],[-35.1934701913962,-7.31114141634322],[-35.1968200706897,-7.31829701069842],[-35.1846793255904,-7.33816653126036],[-35.1815938910452,-7.35182748495044],[-35.1710413100084,-7.35184411701232],[-35.1698755341286,-7.35514541852621],[-35.1596752741945,-7.364932448074],[-35.1540856918012,-7.36720615454033],[-35.1510448384485,-7.3720967442693],[-35.1567063845919,-7.37753664350123],[-35.1537887680371,-7.39245671190769],[-35.1720666702406,-7.38804037066654],[-35.173911450453,-7.39215633384771],[-35.1808068691416,-7.39590184289569],[-35.1862154108125,-7.39502063139697],[-35.1907385078758,-7.39788941836191],[-35.1951565776139,-7.39563747818705],[-35.1995528064168,-7.38773178359492],[-35.20932575438,-7.38549766798293]]]}},{"type":"Feature","properties":{"id":"125","arrangementId":"2607653","name":"Itambé/PE - Pedras de Fogo/PB","state":"PB","municipality":"2511202","population2010":"27032","urbanPopulation2010":"16358","ruralPopulation2010":"10674"},"geometry":{"type":"Polygon","coordinates":[[[-35.0027445205432,-7.45352939596478],[-35.0067889678365,-7.44858862946165],[-35.0161005824759,-7.44193556727254],[-35.0295563180696,-7.42582061283099],[-35.0481000364874,-7.41781152947846],[-35.0630430555925,-7.40671146815971],[-35.0655215367894,-7.40196209537437],[-35.0705207619236,-7.39876099362493],[-35.0790158290172,-7.40117469665489],[-35.0916382950712,-7.4013907290988],[-35.1079640002384,-7.40552599982498],[-35.1196029227367,-7.40396382976689],[-35.1233333393621,-7.40139458629107],[-35.1276020002321,-7.40168199972447],[-35.1348632973033,-7.39678363355779],[-35.1442446840449,-7.3959253143018],[-35.1537887680371,-7.39245671190769],[-35.1567063845919,-7.37753664350123],[-35.1510448384485,-7.3720967442693],[-35.1540856918012,-7.36720615454033],[-35.1596752741945,-7.364932448074],[-35.1698755341286,-7.35514541852621],[-35.1710413100084,-7.35184411701232],[-35.1815938910452,-7.35182748495044],[-35.1846793255904,-7.33816653126036],[-35.1968200706897,-7.31829701069842],[-35.190804836474,-7.30355867998907],[-35.1919998933803,-7.29841929371537],[-35.1819803746945,-7.29582794760166],[-35.1755787314733,-7.28191033909082],[-35.171900990838,-7.27743633511876],[-35.1694217146404,-7.25298572021478],[-35.1512177735813,-7.21317881984664],[-35.1391895732402,-7.21683444615275],[-35.1368007499546,-7.25173815279345],[-35.134318497001,-7.24938237239855],[-35.1316509909005,-7.23977921284035],[-35.1217627678374,-7.23190725901276],[-35.101377622779,-7.22952693072325],[-35.0933457856794,-7.23235870788801],[-35.0815140620243,-7.22865220513513],[-35.0675047703289,-7.22929282820143],[-35.055696052231,-7.26715621988359],[-35.0449500944712,-7.27483838618252],[-35.0451858625375,-7.2776901399879],[-34.9553095966605,-7.34872832405285],[-34.9676299345738,-7.36799789878399],[-34.963821359668,-7.37012942783076],[-34.9594610470896,-7.3809647116521],[-34.9565941576942,-7.38217541946],[-34.9528595601205,-7.38890107042801],[-34.9535762208658,-7.39554339920846],[-34.9523982906485,-7.40137872404881],[-34.9692605439389,-7.43415800358895],[-34.9762973972071,-7.43666110732421],[-34.9785933520015,-7.44155201631247],[-34.981581506881,-7.45677358603212],[-34.9774603087462,-7.46962390342037],[-34.9851336760782,-7.50000958607348],[-34.9862118597895,-7.49341930465716],[-34.9901784707598,-7.48887838842683],[-34.9882644598369,-7.47616519786556],[-34.9842095903003,-7.46932125547152],[-34.985416784457,-7.46200944168237],[-35.0027445205432,-7.45352939596478]]]}}]}