{"type":"FeatureCollection","features":[{"type":"Feature","properties":{"id":"118","arrangementId":"2601102","name":"Araripina/PE","state":"PE","municipality":"2601102","population2010":"77302","urbanPopulation2010":"44903","ruralPopulation2010":"32399"},"geometry":{"type":"Polygon","coordinates":[[[-40.6773208466797,-7.56294321655617],[-40.6952477749648,-7.53680707878363],[-40.7042940563256,-7.51870805173513],[-40.7152939781345,-7.48795401846314],[-40.713226379194,-7.47300399004205],[-40.7048977631212,-7.45873706326483],[-40.7012014272041,-7.45635633297831],[-40.6657053533194,-7.45094556818339],[-40.6633992784539,-7.44941097583581],[-40.6577186585892,-7.44050836566851],[-40.6540557693582,-7.43808380872076],[-40.6523232263358,-7.4333421656084],[-40.5484637131298,-7.39269146643796],[-40.5405405033415,-7.34484975581154],[-40.5415081945475,-7.33226911902461],[-40.5362733947014,-7.3271255841783],[-40.5237232107575,-7.31845048270356],[-40.5102864724427,-7.32283019455781],[-40.4490550481519,-7.36112552882003],[-40.4339118633418,-7.36705291186234],[-40.3938781395644,-7.36816838596217],[-40.3745222694871,-7.36298770192087],[-40.370419842002,-7.41664949567764],[-40.2863483303112,-7.62702555288689],[-40.3280655229055,-7.63996759662723],[-40.3431857777014,-7.70166500193825],[-40.3599953828806,-7.71158879678553],[-40.3533009374883,-7.82491626727188],[-40.3504504247472,-7.83567084143612],[-40.3436205774277,-7.84319235104613],[-40.345036472755,-7.84874047289446],[-40.4276441390657,-7.87178366948069],[-40.4418969159099,-7.87246110989224],[-40.4531514142063,-7.87642011079942],[-40.457238093663,-7.88178510729682],[-40.4557012620036,-7.88394473566098],[-40.4574532537646,-7.88589004928627],[-40.4545404764618,-7.88781528914422],[-40.4547439165984,-7.88939668221104],[-40.4583996094544,-7.89380016314698],[-40.466145332641,-7.89793819209382],[-40.4647777228136,-7.90489171687921],[-40.474568719271,-7.9053931797514],[-40.4793845312711,-7.90967428004394],[-40.4801360218599,-7.91377011010246],[-40.4862660068707,-7.91366841296684],[-40.4889643039594,-7.91641078942633],[-40.4922239048093,-7.91612875573743],[-40.4979224058943,-7.91864171244504],[-40.500658921472,-7.92192956909429],[-40.505063190214,-7.92045872788794],[-40.5086016339582,-7.92372701169218],[-40.5132195186658,-7.92366820502361],[-40.5165426170481,-7.92650886389294],[-40.5175335359439,-7.93074932112421],[-40.5216741792199,-7.93391966965698],[-40.5232358555502,-7.93813155992348],[-40.527530642625,-7.94294664257348],[-40.5449150485906,-7.94766386549497],[-40.5459081447451,-7.93692164351898],[-40.5414750086647,-7.88693334559736],[-40.5379429599995,-7.86919473534869],[-40.5381240115139,-7.8569373050126],[-40.5420273308966,-7.83864227342213],[-40.547514760198,-7.82746659081046],[-40.5590935252459,-7.81484599174906],[-40.5684047756598,-7.80875861571752],[-40.6286438951996,-7.79256409105989],[-40.6451665150226,-7.78679896280188],[-40.6637850417462,-7.77476181510566],[-40.6735694758506,-7.76167194710263],[-40.6755977942028,-7.74781777137298],[-40.6734843658108,-7.73937333341258],[-40.6695532735647,-7.73126759991976],[-40.6665529121871,-7.72636132151775],[-40.6580356929928,-7.71827343776892],[-40.6511395089811,-7.71418208993146],[-40.6356034895094,-7.69982939481065],[-40.6277497298661,-7.68498948837413],[-40.6218303238104,-7.65832384866661],[-40.6226454126556,-7.64746935622578],[-40.6265611210988,-7.63168356894153],[-40.6367349994206,-7.60851718861732],[-40.6455815026841,-7.59476989641354],[-40.6676033536118,-7.57398434530126],[-40.6773208466797,-7.56294321655617]]]}},{"type":"Feature","properties":{"id":"120","arrangementId":"2603207","name":"Caetés - Capoeiras/PE","state":"PE","municipality":"2603207","population2010":"26577","urbanPopulation2010":"6436","ruralPopulation2010":"20141"},"geometry":{"type":"Polygon","coordinates":[[[-36.8203193093886,-8.80229475000266],[-36.8125395486612,-8.80049566704133],[-36.7989182712612,-8.7890104009092],[-36.7958527162298,-8.78320999404594],[-36.7956233144644,-8.77095988958719],[-36.7939224284772,-8.767495252304],[-36.7902680423363,-8.76695013454106],[-36.7862086752901,-8.76861371035444],[-36.7793779826077,-8.76676684821143],[-36.776151571238,-8.75911696127871],[-36.7694060110785,-8.75751148706543],[-36.767019754458,-8.75299920794703],[-36.7669259938395,-8.74733656283207],[-36.7716871945084,-8.74254402438715],[-36.7707135686762,-8.74008737423287],[-36.7821110798624,-8.73292455742234],[-36.7022223231017,-8.72386203970132],[-36.6282808432862,-8.75609643710085],[-36.6264201639594,-8.76302026627223],[-36.6195217127568,-8.77137864720674],[-36.6102830969873,-8.77209895380361],[-36.5986829478597,-8.76943411779024],[-36.5931304436151,-8.77240319984776],[-36.588232640424,-8.76958100765734],[-36.5814387111276,-8.77170366399287],[-36.5800664338188,-8.77007950186748],[-36.577785085813,-8.77033289484717],[-36.5731775945703,-8.76218890779183],[-36.5660605181784,-8.76005601897004],[-36.5613384775886,-8.76134441831021],[-36.5566158272586,-8.75775983394915],[-36.5512397466169,-8.76608463419848],[-36.5506921089536,-8.76935421482512],[-36.5459236633464,-8.77390608120067],[-36.5400752003102,-8.78384933467903],[-36.5475365371814,-8.78748655096354],[-36.5495613778552,-8.79504246863496],[-36.5597424102839,-8.80577038059852],[-36.5660695078015,-8.80840405600235],[-36.5722678107108,-8.81607855648014],[-36.5724865564094,-8.81961102333003],[-36.574375489737,-8.82238222036312],[-36.5818313434417,-8.82574615336222],[-36.5841763418646,-8.82845809766304],[-36.5795952160464,-8.83132036364385],[-36.5756656382586,-8.83850307165938],[-36.5674447618662,-8.84502774663316],[-36.5432550645695,-8.88119889211516],[-36.5512843610843,-8.88726990048548],[-36.5624752413392,-8.89084686758884],[-36.574288748327,-8.88818778813589],[-36.5835074207308,-8.8912243796014],[-36.5980546850756,-8.8907395802674],[-36.6072362559484,-8.89229801094439],[-36.6082967544916,-8.89566277941367],[-36.612597488783,-8.89453783275475],[-36.6134596517415,-8.89550638281326],[-36.6117256707031,-8.90259638781299],[-36.6122956915929,-8.90629265718037],[-36.6142143655005,-8.90634989812924],[-36.6161563561309,-8.90387174338622],[-36.6165144796595,-8.90051565966992],[-36.6192032115589,-8.89669819676431],[-36.6251508347432,-8.89296200739068],[-36.6280393141629,-8.88794852170685],[-36.6314961003647,-8.88667374439774],[-36.6381633565536,-8.87880321059965],[-36.645036244527,-8.87370229282653],[-36.6454368871026,-8.86967551541268],[-36.6490754829471,-8.86986417069489],[-36.6516073874709,-8.86632783855885],[-36.6561661318614,-8.86813361697279],[-36.6658935255657,-8.8686758110398],[-36.6669204434237,-8.86164308565981],[-36.671564085614,-8.85475249543129],[-36.6711200084816,-8.84867559020626],[-36.6673913869029,-8.84541294964788],[-36.6656217990068,-8.83949318925925],[-36.6674371758849,-8.8325221474791],[-36.7369906574928,-8.83271317427352],[-36.8184130731048,-8.83697820368111],[-36.8203193093886,-8.80229475000266]]]}},{"type":"Feature","properties":{"id":"121","arrangementId":"2603207","name":"Caetés - Capoeiras/PE","state":"PE","municipality":"2603801","population2010":"19593","urbanPopulation2010":"5492","ruralPopulation2010":"14101"},"geometry":{"type":"Polygon","coordinates":[[[-36.6128694581589,-8.55972655993276],[-36.6155900134683,-8.56435382007271],[-36.6163572278038,-8.57084695762097],[-36.6034112549254,-8.59430895769219],[-36.6094678957268,-8.6062802489343],[-36.5877564260182,-8.60066008329614],[-36.5863867423543,-8.60126133943919],[-36.5834608979021,-8.6098949147185],[-36.5778295132214,-8.61631842315666],[-36.5712705902655,-8.61637571446761],[-36.5696479039276,-8.61260453786907],[-36.5677597287284,-8.61472744061882],[-36.5681872259597,-8.61900160264179],[-36.5721588893213,-8.62040593088898],[-36.5736866351301,-8.62476003184992],[-36.5684398482204,-8.62514582661857],[-36.5662929848334,-8.63204100338953],[-36.567673050271,-8.63693405546224],[-36.5611649111317,-8.64274579198468],[-36.5566695410664,-8.6335994097849],[-36.5483452498333,-8.62877233197748],[-36.5425026890478,-8.62275660403401],[-36.5338660794559,-8.65860685522217],[-36.5021158356772,-8.67961929449479],[-36.4982058325331,-8.68065667506545],[-36.4974954472571,-8.68411993638592],[-36.4896933707524,-8.69400755960118],[-36.4872122419513,-8.70388979048142],[-36.4887832046811,-8.70537122390283],[-36.4974282166389,-8.70817578938113],[-36.5026011503228,-8.70649699074346],[-36.5086710597216,-8.70814012676539],[-36.4982696223452,-8.71695946240919],[-36.502450360096,-8.72320337713411],[-36.5093850278967,-8.72720802493036],[-36.5146952322991,-8.73249480379213],[-36.5150357740816,-8.73620110509689],[-36.5082326051506,-8.74093003089616],[-36.5070212723138,-8.74502377632615],[-36.5122774031796,-8.75839998936794],[-36.5173489212157,-8.7625147519542],[-36.5152459978045,-8.76593733334125],[-36.515620139158,-8.77097118237413],[-36.5087223984199,-8.77457320369035],[-36.5039201248139,-8.7813341125792],[-36.5002372823247,-8.78051641659931],[-36.4986625820125,-8.78523323122858],[-36.4950365793746,-8.78636254949202],[-36.4955172427265,-8.78780578151157],[-36.4938777885291,-8.78932444326841],[-36.4911664467741,-8.788944340309],[-36.4906088041529,-8.79207999749383],[-36.4870247135196,-8.7956842140552],[-36.4897218711674,-8.79746574225016],[-36.494005487763,-8.794880884745],[-36.4989997918069,-8.79577016046449],[-36.5027609436626,-8.78918076218235],[-36.5065542417848,-8.79106457207229],[-36.5179421617013,-8.78563537567204],[-36.5232325657303,-8.78572461719727],[-36.5286473738772,-8.78351952090912],[-36.5316030146673,-8.78811253846282],[-36.5368853634687,-8.78386295671005],[-36.5400752003102,-8.78384933467903],[-36.5459236633464,-8.77390608120067],[-36.5506921089536,-8.76935421482512],[-36.5512397466169,-8.76608463419848],[-36.5566158272586,-8.75775983394915],[-36.5613384775886,-8.76134441831021],[-36.5660605181784,-8.76005601897004],[-36.5731775945703,-8.76218890779183],[-36.577785085813,-8.77033289484717],[-36.5800664338188,-8.77007950186748],[-36.5814387111276,-8.77170366399287],[-36.588232640424,-8.76958100765734],[-36.5931304436151,-8.77240319984776],[-36.5986829478597,-8.76943411779024],[-36.6102830969873,-8.77209895380361],[-36.6195217127568,-8.77137864720674],[-36.6264201639594,-8.76302026627223],[-36.6282808432862,-8.75609643710085],[-36.7022223231017,-8.72386203970132],[-36.6900146243753,-8.6701909550485],[-36.6803307515629,-8.66756102622032],[-36.6799739014743,-8.66481022401257],[-36.6746803084494,-8.65746089500425],[-36.6813109640297,-8.64181122011167],[-36.6873171807433,-8.63293126926261],[-36.6871950402189,-8.63024519036321],[-36.6794799029751,-8.62259635923454],[-36.6759979285615,-8.61394499446591],[-36.6685939558463,-8.61222580907378],[-36.6657823774547,-8.60193847947721],[-36.661556557589,-8.59424843691579],[-36.6458769487621,-8.58365006689701],[-36.6139248242712,-8.55765327457891],[-36.6128694581589,-8.55972655993276]]]}},{"type":"Feature","properties":{"id":"122","arrangementId":"2607653","name":"Itambé/PE - Pedras de Fogo/PB","state":"PE","municipality":"2607653","population2010":"35398","urbanPopulation2010":"29424","ruralPopulation2010":"5974"},"geometry":{"type":"Polygon","coordinates":[[[-35.1046409998822,-7.40524799959547],[-35.0916382950712,-7.4013907290988],[-35.0790158290172,-7.40117469665489],[-35.0705207619236,-7.39876099362493],[-35.0655215367894,-7.40196209537437],[-35.0630430555925,-7.40671146815971],[-35.0481000364874,-7.41781152947846],[-35.0295563180696,-7.42582061283099],[-35.0161005824759,-7.44193556727254],[-35.0067889678365,-7.44858862946165],[-35.0027445205432,-7.45352939596478],[-34.985416784457,-7.46200944168237],[-35.0778056086419,-7.513805822081],[-35.06130250051,-7.54119487554299],[-35.0697016441155,-7.54546670112728],[-35.0773371122179,-7.54283506808389],[-35.0828539925177,-7.54632311651858],[-35.0874063355339,-7.54728384337461],[-35.0926431840357,-7.54383791648661],[-35.0971867334809,-7.54366369262528],[-35.0987872794094,-7.53844510126039],[-35.1046298392956,-7.53493238622059],[-35.1074138786475,-7.53101931548895],[-35.1104698801808,-7.53139093964012],[-35.1130168519461,-7.53679876545061],[-35.1177166208253,-7.53433386401656],[-35.1216994501695,-7.53497019282009],[-35.1197330645293,-7.54105405160318],[-35.1231153616845,-7.54094698911223],[-35.1302696196472,-7.53372507155478],[-35.131778909569,-7.52890622434273],[-35.1395844007994,-7.52160178229639],[-35.1408523702406,-7.50938712461608],[-35.145193137853,-7.50978312129399],[-35.1545814889445,-7.50589365776602],[-35.1583533220481,-7.50283948005791],[-35.159056446198,-7.49729787829438],[-35.1644196548431,-7.49676597786754],[-35.1636094268335,-7.49266095044249],[-35.1701102176124,-7.48997743910746],[-35.1743330517289,-7.49049341973546],[-35.1751204819246,-7.48756994859423],[-35.1728991861485,-7.48521426802398],[-35.1738965909549,-7.48409405000035],[-35.1809808969508,-7.48441492181115],[-35.1843858660148,-7.48270233474489],[-35.1866704102112,-7.48036687902822],[-35.1871989741533,-7.47607687724605],[-35.2041924007586,-7.47304597489177],[-35.2084130881934,-7.46754455663591],[-35.2086623577815,-7.46057552933718],[-35.2157146245303,-7.46128474099795],[-35.2241730235662,-7.45362040375858],[-35.2264081563113,-7.45357901695803],[-35.2273826796669,-7.44869070251389],[-35.2312356846791,-7.44744938897811],[-35.2325010901532,-7.44422694002122],[-35.2371435263526,-7.44060143380909],[-35.2368515092897,-7.43726466213439],[-35.2392874012925,-7.43335685783268],[-35.2413400858762,-7.43304914130476],[-35.2418651217779,-7.43003561025518],[-35.2453210904959,-7.42686381021663],[-35.2459950370413,-7.42415182184909],[-35.2499676878585,-7.42314831604194],[-35.265259620535,-7.41265454527099],[-35.2665118041764,-7.40983468861993],[-35.2707895499977,-7.40748730159766],[-35.2729789099487,-7.40417270360736],[-35.2800594603758,-7.40654263843196],[-35.2810708676264,-7.40453893902077],[-35.2856060497793,-7.40467880068604],[-35.3058497188894,-7.41303676793245],[-35.3107505249167,-7.412653880672],[-35.3130889780738,-7.41705023807799],[-35.3237480613239,-7.42023670605908],[-35.3262551058884,-7.41620463793368],[-35.332893539705,-7.41533288370556],[-35.3350422233199,-7.41086404723796],[-35.3350206072152,-7.40680389868094],[-35.3308307161646,-7.4066042455894],[-35.3275419323143,-7.41010840178126],[-35.3240982672212,-7.41132006107194],[-35.3193202213511,-7.41005385879851],[-35.3178265427607,-7.40694642054082],[-35.3140417971911,-7.40575173505448],[-35.3090485993134,-7.40904388057062],[-35.3069574983898,-7.40830532043413],[-35.301874372804,-7.40381001512003],[-35.290800222752,-7.39755094412073],[-35.2801757490116,-7.38765534931485],[-35.2643934915663,-7.37990857661947],[-35.2485946758036,-7.37477955233442],[-35.2462336541598,-7.37594311858004],[-35.2398558672544,-7.37554542578073],[-35.2167415486835,-7.3809382338124],[-35.20932575438,-7.38549766798293],[-35.1995528064168,-7.38773178359492],[-35.1951565776139,-7.39563747818705],[-35.1907385078758,-7.39788941836191],[-35.1862154108125,-7.39502063139697],[-35.1808068691416,-7.39590184289569],[-35.173911450453,-7.39215633384771],[-35.1720666702406,-7.38804037066654],[-35.1442446840449,-7.3959253143018],[-35.1348632973033,-7.39678363355779],[-35.1276020002321,-7.40168199972447],[-35.1248841437882,-7.40103581884791],[-35.1196029227367,-7.40396382976689],[-35.1046409998822,-7.40524799959547]]]}},{"type":"Feature","properties":{"id":"124","arrangementId":"2607653","name":"Itambé/PE - Pedras de Fogo/PB","state":"PE","municipality":"2603603","population2010":"8156","urbanPopulation2010":"6534","ruralPopulation2010":"1622"},"geometry":{"type":"Polygon","coordinates":[[[-35.3262551058884,-7.41620463793368],[-35.3237480613239,-7.42023670605908],[-35.3130889780738,-7.41705023807799],[-35.3107505249167,-7.412653880672],[-35.3058497188894,-7.41303676793245],[-35.2856060497793,-7.40467880068604],[-35.2810708676264,-7.40453893902077],[-35.2800594603758,-7.40654263843196],[-35.2729789099487,-7.40417270360736],[-35.2707895499977,-7.40748730159766],[-35.2665118041764,-7.40983468861993],[-35.265259620535,-7.41265454527099],[-35.2499676878585,-7.42314831604194],[-35.2459950370413,-7.42415182184909],[-35.2453210904959,-7.42686381021663],[-35.2418651217779,-7.43003561025518],[-35.2413400858762,-7.43304914130476],[-35.2392874012925,-7.43335685783268],[-35.2368515092897,-7.43726466213439],[-35.2371435263526,-7.44060143380909],[-35.2602934652712,-7.42034258504219],[-35.3144881163335,-7.47588942885404],[-35.3180385813154,-7.4669556176076],[-35.31981159383,-7.45700091755827],[-35.3288404553227,-7.45469697858266],[-35.3351037783167,-7.44065317450435],[-35.337805983859,-7.43774666277824],[-35.3338999512217,-7.43550784461128],[-35.3341466370576,-7.43071636107118],[-35.3426215611361,-7.42203127172575],[-35.3335178967335,-7.42275665949224],[-35.3319074474706,-7.41914813607758],[-35.332893539705,-7.41533288370556],[-35.3262551058884,-7.41620463793368]]]}},{"type":"Feature","properties":{"id":"126","arrangementId":"2611101","name":"Petrolina/PE - Juazeiro/BA","state":"PE","municipality":"2611101","population2010":"293962","urbanPopulation2010":"220709","ruralPopulation2010":"73253"},"geometry":{"type":"Polygon","coordinates":[[[-40.681321825242,-9.46722099904981],[-40.7221785914688,-9.44594854059261],[-40.7498354360565,-9.4438471694113],[-40.7674564662429,-9.45265007624],[-40.776750543203,-9.45445142819079],[-40.7672890304643,-9.44570466154084],[-40.7595952961859,-9.42907629763301],[-40.7649755649703,-9.41321638642706],[-40.760788433939,-9.41054506270446],[-40.7567012283789,-9.41035234248659],[-40.7430888794482,-9.40294549284016],[-40.7441132720098,-9.39644554742403],[-40.7425404162072,-9.38331503815845],[-40.746478938652,-9.37105224696359],[-40.7445289143778,-9.36483166514915],[-40.738102645021,-9.35524427430375],[-40.7414030804877,-9.34678358199666],[-40.7372864652981,-9.33687076607294],[-40.7393473948663,-9.33134388621136],[-40.751629822758,-9.31828473455284],[-40.7564219439175,-9.31503225903146],[-40.7515886544928,-9.3080278200278],[-40.7439819368169,-9.30622528636781],[-40.742619815552,-9.30050885639855],[-40.7394418254798,-9.29658872688822],[-40.7286484761462,-9.30311820334238],[-40.7200881614394,-9.30589669747456],[-40.7073148511994,-9.29455076690432],[-40.7086896645963,-9.28687597684479],[-40.7075888899153,-9.28534633346647],[-40.7012888386089,-9.28233245887583],[-40.6922524749717,-9.28122647712019],[-40.6872339809634,-9.27833313956267],[-40.6800885435514,-9.25921174792377],[-40.6804837847988,-9.25769152944049],[-40.6892365265444,-9.25698590157806],[-40.6900952190191,-9.25144627382645],[-40.6864556312224,-9.2435545699874],[-40.689457263342,-9.24112538872568],[-40.691006640544,-9.23406285261849],[-40.6945003789892,-9.23345557101771],[-40.6807039730099,-9.21219876436147],[-40.6819789535658,-9.20474132515198],[-40.6770573210385,-9.19331145186198],[-40.6733625103715,-9.19280305072016],[-40.6698731588192,-9.18613251110644],[-40.6719569311674,-9.18051912545724],[-40.6705325633271,-9.17535429016829],[-40.6720921064655,-9.17238723698136],[-40.6673956659771,-9.15905919882295],[-40.6723190521824,-9.15650179132456],[-40.6777287872537,-9.15124612540831],[-40.6850939964907,-9.13761015848202],[-40.6872907929357,-9.13698442998742],[-40.7001641149819,-9.14223405965407],[-40.7098893026492,-9.14088097477714],[-40.7222723044232,-9.13381661034822],[-40.7288693388489,-9.128851417359],[-40.7325374873151,-9.12400561117],[-40.7431362008749,-9.12240067385199],[-40.7503856035128,-9.11788519404644],[-40.7570605677909,-9.11984306850275],[-40.7567849444696,-9.10497691355369],[-40.7631710258221,-9.10694002566163],[-40.7772605963993,-9.10066840911975],[-40.7860964337034,-9.10518755276332],[-40.7894637148785,-9.09894752850557],[-40.8041040383706,-9.09833585731394],[-40.809815252272,-9.0922765770024],[-40.8119582350844,-9.08439820471336],[-40.8200670010912,-9.0812586723498],[-40.8213239601326,-9.07807713535147],[-40.8191471825963,-9.06909496755867],[-40.8235895385263,-9.06211343248891],[-40.823072127077,-9.05198321445375],[-40.8253047417204,-9.04564167472347],[-40.8252310566679,-9.03818663310659],[-40.8322082147372,-9.03116341715793],[-40.8302380717296,-9.02669581276148],[-40.8342228058378,-9.02098917730865],[-40.8350127073705,-9.00869350779908],[-40.8459619649727,-8.99685294380828],[-40.8519585031823,-8.98258487938864],[-40.8515958650571,-8.95249895875993],[-40.8555379829915,-8.94947373652367],[-40.8613225689813,-8.9480175785484],[-40.8655163469019,-8.93226710314423],[-40.8662780915606,-8.92338916407864],[-40.8725356840745,-8.9190653513848],[-40.8812337056709,-8.91562784394978],[-40.8834423255029,-8.90485601269479],[-40.8950411778081,-8.88909277231352],[-40.8964043099109,-8.87102491936452],[-40.9015062699983,-8.86649715661844],[-40.9030381940574,-8.85861887246296],[-40.9149788561892,-8.84952266523874],[-40.9192371047086,-8.83717704198688],[-40.9213372519126,-8.83543044795676],[-40.9310346478307,-8.83720074092139],[-40.946383195528,-8.84499690977952],[-40.9590392926292,-8.84198082825259],[-40.9444577901948,-8.8244839467767],[-40.9417141169129,-8.81380733214263],[-40.9438088699833,-8.8091682989778],[-40.9421314931738,-8.80338878426494],[-40.9422847907105,-8.79684554008958],[-40.943564453137,-8.79306807363265],[-40.9428189268519,-8.79035486578436],[-40.9444840998612,-8.78808392653196],[-40.9389444082578,-8.77860930167788],[-40.9300415795552,-8.77289322514218],[-40.929993229304,-8.76844915960101],[-40.9262136314539,-8.76960068662237],[-40.9244771682867,-8.77415906858608],[-40.9198957897589,-8.77205484925185],[-40.9111905205261,-8.77586233238072],[-40.7582471422917,-8.62349927946816],[-40.5792634472502,-8.66726341087764],[-40.4294820511557,-8.64451405607878],[-40.4191864235146,-8.65837382739018],[-40.4163311821383,-8.6681328997135],[-40.4063183777908,-8.67787870523802],[-40.4045817617389,-8.68742231888485],[-40.3930825848933,-8.69236564755653],[-40.3939659700534,-8.69786845436562],[-40.3928538072574,-8.69898387270753],[-40.3941778871997,-8.70019108305201],[-40.3923148588436,-8.70429018394481],[-40.3932383474717,-8.7072150760149],[-40.3923396720382,-8.71065489560692],[-40.3969847522445,-8.71867018608021],[-40.3955727419884,-8.71979973816735],[-40.3963431201389,-8.72347031660177],[-40.3927150724426,-8.72802271447666],[-40.3950282762339,-8.73817625193243],[-40.3983454363927,-8.7428611361325],[-40.3960352768065,-8.74943579272758],[-40.4006596887936,-8.75189436922972],[-40.4018879046031,-8.75431518679635],[-40.3998636763676,-8.75563797980885],[-40.3989089641773,-8.75811446361154],[-40.4003397738614,-8.76073607550945],[-40.3932727681237,-8.77355810202477],[-40.3943035944353,-8.77484698609948],[-40.395938782249,-8.7741622090187],[-40.3978373877852,-8.77961480667796],[-40.3913156490979,-8.78307654094954],[-40.3972253118986,-8.79197192236626],[-40.3954421622259,-8.79606538810714],[-40.3930271398905,-8.79753982210508],[-40.3925949787752,-8.80193770386188],[-40.3818417769764,-8.81007251333579],[-40.3800877086808,-8.80707280216803],[-40.3767066786702,-8.81180116049513],[-40.3743170783704,-8.81047925331484],[-40.3724867457666,-8.81233500705492],[-40.3686989748778,-8.81236042819114],[-40.3664619022949,-8.81492797734422],[-40.3637672465611,-8.81457207963775],[-40.3614793317058,-8.81772431852245],[-40.3610327454648,-8.82007472007223],[-40.363305376342,-8.82388363132447],[-40.3618940963354,-8.8321734425503],[-40.3630605476062,-8.8338660565732],[-40.3592434813016,-8.8360574399988],[-40.3632631189977,-8.84943166463956],[-40.3634431147079,-8.85101105761418],[-40.3615210458595,-8.85151771766852],[-40.3621037094186,-8.85346876447187],[-40.3549726179919,-8.85569805342238],[-40.3553630613562,-8.85726727146739],[-40.3529022356496,-8.8580442947084],[-40.3512934276495,-8.86096053799839],[-40.3438929245188,-8.86357231760832],[-40.3355523276778,-8.86239647381819],[-40.3259541917325,-8.86463468584203],[-40.321629371798,-8.86089337842662],[-40.3113500434697,-8.86235356356605],[-40.3052136984534,-8.86935052380756],[-40.3013232276847,-8.86916951186345],[-40.2983727831773,-8.87066679313796],[-40.2962454854407,-8.87933660300177],[-40.2861820537587,-8.88626861150716],[-40.2846536226665,-8.89018093130489],[-40.280036765884,-8.89319411611553],[-40.2731037915067,-8.90137128905372],[-40.2752319570891,-8.90469732282315],[-40.2757128668553,-8.91021260322902],[-40.2729241465321,-8.91700519613283],[-40.2749158831614,-8.92469902304145],[-40.2724577967899,-8.92624031713689],[-40.2720067849851,-8.92938402325404],[-40.2845763025543,-8.93432235259445],[-40.2900291385339,-8.94039435561496],[-40.2974176743861,-8.93891411199662],[-40.2986321719371,-8.94477228141563],[-40.3049894102331,-8.95438254112134],[-40.3033075332161,-8.95968514984975],[-40.2971320497043,-8.96431877718976],[-40.293676264448,-8.97128553370038],[-40.2938920891485,-8.97549288598787],[-40.2982694276919,-8.98057924283773],[-40.2991664222925,-8.98681608169677],[-40.2966211331587,-8.99002078073438],[-40.2974152956793,-8.99473140712872],[-40.2926375906522,-8.9971247638967],[-40.2915494712311,-8.99991558863348],[-40.2878073328421,-9.00109835990133],[-40.2835120241605,-9.00831727192451],[-40.2815291098805,-9.00878569100679],[-40.2711851238943,-9.00144926637052],[-40.2636430800641,-8.9916969596469],[-40.2602052030077,-8.99049760847783],[-40.2510810880217,-8.99513292564393],[-40.2460140180324,-9.00063658051375],[-40.2428486841195,-9.00167774543156],[-40.2345122016768,-9.01343128472598],[-40.2309802123669,-9.02311111598516],[-40.2328343967899,-9.03092221448856],[-40.2227094514799,-9.03852123756502],[-40.2199158262544,-9.04817796614021],[-40.2094597091982,-9.05566758309243],[-40.2088275334639,-9.06378229811453],[-40.2236023397761,-9.05666754916804],[-40.2389835283671,-9.05436534858195],[-40.2478641339226,-9.05773784312691],[-40.2663013654156,-9.07321666032056],[-40.2766657974885,-9.08911347790463],[-40.2867061363791,-9.11735184481176],[-40.2940119831665,-9.15206778649913],[-40.2873206710121,-9.17108256800606],[-40.2861726558434,-9.18561140434281],[-40.3005068123394,-9.23120802493036],[-40.3022067855147,-9.25170330006723],[-40.3052830433777,-9.25776121700654],[-40.305309179475,-9.26289255794512],[-40.30953537166,-9.27550666569999],[-40.3190313509161,-9.28726924408028],[-40.3256130501022,-9.30585559935641],[-40.3325319330023,-9.3175718995235],[-40.3371195249461,-9.33140228818503],[-40.3365861604229,-9.34181002171511],[-40.3337540738913,-9.3505383396726],[-40.33504333748,-9.35390172408525],[-40.3388655380142,-9.35989176199518],[-40.3563971135359,-9.37699426287486],[-40.3636994493701,-9.37928500699741],[-40.3714153348498,-9.37871673798702],[-40.3912783964807,-9.37216682533869],[-40.4047264527636,-9.3629073255126],[-40.4116461927176,-9.35417094873026],[-40.4181452909723,-9.35205327194092],[-40.4307881941198,-9.35669449675358],[-40.4393060167592,-9.36828089434777],[-40.4527262480179,-9.39723432300554],[-40.4538185429913,-9.40351736273607],[-40.464265881765,-9.41335933636424],[-40.4677551182041,-9.42056813101437],[-40.474174738873,-9.42079220879333],[-40.4839241695647,-9.41396742285821],[-40.4971964380651,-9.40857235752821],[-40.5014501252231,-9.40930073194318],[-40.5107266168399,-9.40717886071582],[-40.5200681492257,-9.41225073038686],[-40.5316954722682,-9.41495698197911],[-40.5382219593759,-9.42057886532234],[-40.5417857226329,-9.42602813638933],[-40.5451872751726,-9.44229892715373],[-40.5483672059817,-9.44899413337255],[-40.5557585135445,-9.45793811235393],[-40.5651854788267,-9.4640094687619],[-40.576626883224,-9.46765467192552],[-40.5874541918574,-9.46574072215657],[-40.5951233089935,-9.467369154263],[-40.6085625780005,-9.47679153210351],[-40.6231656713586,-9.48289744406173],[-40.6358627271831,-9.48102279646485],[-40.6567682739367,-9.47290800230241],[-40.681321825242,-9.46722099904981]]]}},{"type":"Feature","properties":{"id":"128","arrangementId":"2611606","name":"Recife/PE","state":"PE","municipality":"2603454","population2010":"144466","urbanPopulation2010":"140834","ruralPopulation2010":"3632"},"geometry":{"type":"Polygon","coordinates":[[[-35.0148904538313,-7.96914444146273],[-35.0146528736312,-7.96352288907003],[-35.0170147172553,-7.95934457499209],[-35.0236928966099,-7.95681738561382],[-35.0306735269617,-7.95812828779021],[-35.0338665015378,-7.95342788668757],[-35.0346602656587,-7.94144878933014],[-35.031823861482,-7.93583994705586],[-35.0256797391286,-7.93206402653357],[-35.021131011387,-7.93246432197083],[-35.0158822666532,-7.9259126475506],[-35.0035907879844,-7.92607274396193],[-35.0001175306994,-7.92920563842943],[-35.0083996122523,-7.94573071070368],[-34.9988790922962,-7.94848682880405],[-35.0030404676434,-7.96008668655128],[-34.9996480836921,-7.96390688969115],[-34.9928229281356,-7.9615803903227],[-34.9792996174833,-7.97010789416396],[-34.9747812517533,-7.96886056146571],[-34.9722180013596,-7.97176300196094],[-34.9619168545792,-7.9741467458756],[-34.9612313274637,-7.97558507748932],[-34.9625917067418,-7.97736629002225],[-34.9619241525775,-7.98194632496291],[-34.9640924063394,-7.98737748458319],[-34.9623167956835,-7.99040809645647],[-34.96439582141,-8.00867058607867],[-34.9619394446496,-8.02137888882458],[-34.9655416161526,-8.01981387421086],[-34.9745050888387,-8.02973000863295],[-34.9786834802584,-8.02936529667108],[-34.979930199619,-8.03274842479994],[-34.9859887586742,-8.03670994740611],[-34.9928865947405,-8.03209134773743],[-34.9961966547518,-8.03332625180503],[-34.9961383220259,-8.03685379306807],[-35.0008241505141,-8.03465079220025],[-35.0100826386028,-8.03785856871793],[-35.012055667535,-8.03641615957805],[-35.0166286778711,-8.01981088666303],[-35.002295873056,-8.01803339372611],[-35.0111591145015,-8.01131328887715],[-35.0166072218458,-7.99094017045246],[-35.0092820324398,-7.97122732707943],[-35.0148904538313,-7.96914444146273]]]}},{"type":"Feature","properties":{"id":"129","arrangementId":"2611606","name":"Recife/PE","state":"PE","municipality":"2606804","population2010":"102021","urbanPopulation2010":"94761","ruralPopulation2010":"7260"},"geometry":{"type":"Polygon","coordinates":[[[-34.8550573891871,-7.87152440302874],[-34.8558655190784,-7.8772948103072],[-34.861973554336,-7.88911034616553],[-34.866236135789,-7.89111812310285],[-34.8802379316352,-7.89281630033197],[-34.8881708379138,-7.88771783501006],[-34.9021603786985,-7.88591475995815],[-34.9121482178659,-7.88731975820025],[-34.9181143068297,-7.8860382413717],[-34.9232429596948,-7.8869240906742],[-34.9307827813003,-7.89275595312466],[-34.9772358973187,-7.90002509138481],[-35.0541057378895,-7.88003762473654],[-35.0524315212976,-7.87782925761412],[-35.0376789956891,-7.87123786103843],[-35.0363328814573,-7.86776868577619],[-35.0362388834177,-7.84205078311709],[-35.0329206269853,-7.83009255003111],[-35.0339636130303,-7.82656605198167],[-35.0291258854512,-7.82455310933848],[-35.0281354611826,-7.82250430802736],[-35.0256650621928,-7.8223267953453],[-35.0251138128521,-7.81973783333428],[-35.0209542820145,-7.8171401245171],[-35.0204228618256,-7.81383605039338],[-35.0243604354857,-7.80632050868451],[-35.0282831028828,-7.80402766284629],[-35.0288068725391,-7.79994674624527],[-35.0322293756851,-7.7993041203888],[-35.0367439921415,-7.79350117384007],[-35.0398573209586,-7.79425080373159],[-35.0400335386168,-7.78821433292507],[-35.0381653364611,-7.78068728528996],[-35.0406512892256,-7.77532063493931],[-35.038485664182,-7.76875310277343],[-35.0442465080699,-7.76316597642865],[-35.0449215472915,-7.76025709768686],[-35.0532050857461,-7.75025593146603],[-35.0730485295659,-7.74538690298312],[-35.0754413836129,-7.74597642297352],[-35.0786607802707,-7.74284097533069],[-35.0844173883518,-7.74062468338241],[-35.0877013464399,-7.74196018021808],[-35.0914272592606,-7.74052561226717],[-35.0945927703401,-7.73312488070866],[-35.099138251529,-7.72743092119999],[-35.0994941717186,-7.71743816543893],[-35.0981272103025,-7.71518123312734],[-35.0452041385601,-7.74448024426783],[-35.0355915622008,-7.74317117760774],[-35.0226863313091,-7.7383119913053],[-35.0186147775499,-7.73537477852318],[-35.0080364525202,-7.73450662158325],[-34.9991362147645,-7.73124637142285],[-34.9885237820468,-7.73219125492245],[-34.9828916743113,-7.73541154640572],[-34.9770299885431,-7.73376543632578],[-34.9717491955689,-7.72908836093905],[-34.968481356929,-7.71783197946224],[-34.9619727870145,-7.70831893197311],[-34.9565884344087,-7.70738117470143],[-34.9517966064282,-7.70826376755878],[-34.9476297056464,-7.70511944540602],[-34.9379941776891,-7.70512729109158],[-34.9279826323925,-7.69976370023454],[-34.9258677686825,-7.69392788076704],[-34.9227209518104,-7.69166114584516],[-34.9238843741645,-7.70230223276178],[-34.9417059828448,-7.72127832723299],[-34.9435056665532,-7.73978371744454],[-34.9367124036544,-7.74922884363616],[-34.936131579209,-7.77063737581421],[-34.9261476583877,-7.80541052067896],[-34.9252088588017,-7.80649879118624],[-34.9080391677733,-7.8059355916542],[-34.9040175866423,-7.8072855334006],[-34.8961614716745,-7.8048949960072],[-34.8894221033473,-7.80471268544205],[-34.8876856149991,-7.80706799189427],[-34.8814964761814,-7.80934384863963],[-34.865275560019,-7.81132789606551],[-34.8477031076123,-7.81601579928969],[-34.8476587728341,-7.8186609644319],[-34.84399175583451,-7.824351651887428],[-34.84305363214899,-7.83108268933104],[-34.8446404717803,-7.83706388049365],[-34.8437557592209,-7.84134369835294],[-34.841260045293254,-7.8439516750208895],[-34.8411,-7.8451],[-34.8413726700127,-7.86312389065501],[-34.8550573891871,-7.87152440302874]]]}},{"type":"Feature","properties":{"id":"130","arrangementId":"2611606","name":"Recife/PE","state":"PE","municipality":"2609600","population2010":"377779","urbanPopulation2010":"370332","ruralPopulation2010":"7447"},"geometry":{"type":"Polygon","coordinates":[[[-34.8604060000368,-8.03082399972777],[-34.8639630003921,-8.04060200008217],[-34.8605759997825,-8.04446700025181],[-34.875857342942,-8.03072651231867],[-34.8728959968527,-8.0173074375881],[-34.8793204181028,-8.01610750905428],[-34.8806309812347,-8.01069469110706],[-34.8893470414327,-8.00430009047676],[-34.8994680000481,-8.00195799956197],[-34.9166433037454,-7.98726544434476],[-34.9165990463089,-7.98498720529522],[-34.9137208164624,-7.98220727314708],[-34.9138710437136,-7.97936230922312],[-34.9038200001928,-7.97858399995158],[-34.8952640004333,-7.97568700035475],[-34.8818860004385,-7.97567399975526],[-34.8772879997413,-7.98009600043003],[-34.873465999756,-7.98069800031243],[-34.8728439998507,-7.97634300002937],[-34.8694180001406,-7.97635399963735],[-34.872516775229,-7.97000770339275],[-34.8675372668313,-7.96746631192071],[-34.8641293929571,-7.97463999973616],[-34.8512152057172,-7.96762247289876],[-34.8580219998154,-7.96711499985731],[-34.8553479997104,-7.95500399983467],[-34.8509170004192,-7.95467199981289],[-34.8463049999757,-7.95621599996839],[-34.840746999974,-7.96094000018081],[-34.8308240001274,-7.95778100019294],[-34.828006021239865,-7.959047601424103],[-34.852398022121996,-8.023210495052867],[-34.8560020001921,-8.02533100002557],[-34.8604060000368,-8.03082399972777]]]}},{"type":"Feature","properties":{"id":"131","arrangementId":"2611606","name":"Recife/PE","state":"PE","municipality":"2602902","population2010":"185025","urbanPopulation2010":"167286","ruralPopulation2010":"17739"},"geometry":{"type":"Polygon","coordinates":[[[-34.9757482504813,-8.35993869601396],[-34.97790162496,-8.3539856643069],[-34.9864102835077,-8.35320669043637],[-34.9892210911803,-8.35633226891901],[-34.9901024375774,-8.36035738618438],[-34.9926348718018,-8.36178574521592],[-35.0122465009752,-8.35754880523314],[-35.0149396800222,-8.36041344272616],[-35.0243854393365,-8.36355225653137],[-35.0263571507618,-8.36146412786718],[-35.0314717148477,-8.36124952534528],[-35.0319135607622,-8.35751054267735],[-35.0385388932553,-8.35502322923861],[-35.0392922742191,-8.3522653313799],[-35.0441631669965,-8.34925044864922],[-35.0474204763738,-8.34911068141276],[-35.0510816586915,-8.35209161653484],[-35.0582237650147,-8.35198826464666],[-35.0586539512188,-8.34925487601168],[-35.0669852823449,-8.34976187241245],[-35.0726155167926,-8.34520260641512],[-35.0723091510465,-8.34276288150176],[-35.0749223443906,-8.3423238360761],[-35.0773475758299,-8.3363020206217],[-35.0809330307347,-8.33274645558442],[-35.0911326332644,-8.33018659743346],[-35.0954553838588,-8.33060372817948],[-35.1006223667288,-8.32661817029231],[-35.1069216275311,-8.32943556639821],[-35.1082247766521,-8.33404544084437],[-35.140148406124,-8.30993286490974],[-35.1489513606168,-8.2995074129367],[-35.1458395039899,-8.28918807197192],[-35.1517430819776,-8.2791942460176],[-35.1627252295856,-8.28430220098573],[-35.1737461352759,-8.28718797254686],[-35.1882319174689,-8.2953568843127],[-35.1907455909362,-8.29377030035903],[-35.1957967636097,-8.29769528800711],[-35.1997910404241,-8.29316994713531],[-35.2043227718784,-8.29605569261605],[-35.2051863206921,-8.29064116685636],[-35.2104727865898,-8.28753223122743],[-35.2179623630726,-8.29125514211109],[-35.2212022435886,-8.29038313517351],[-35.2289031760407,-8.29465208562523],[-35.2356966457835,-8.29105457171108],[-35.2371153353044,-8.29303175551104],[-35.2382979419964,-8.28665898502408],[-35.2369479759683,-8.28461355976793],[-35.2370080057149,-8.27386539597121],[-35.2387127156193,-8.27193742217423],[-35.24161891618,-8.27288035054767],[-35.2435942545711,-8.2760188459929],[-35.2443760055482,-8.2744743512103],[-35.2466602295859,-8.27466564420406],[-35.2473606926418,-8.27698730881718],[-35.2500106997339,-8.27820775808152],[-35.2503423885903,-8.27310599044904],[-35.2533364762973,-8.26805834941326],[-35.2526768370664,-8.26398881373275],[-35.2590003301011,-8.26480774628044],[-35.2600873415576,-8.2598021125774],[-35.2648857489781,-8.25567768587644],[-35.2659684661717,-8.25024947873044],[-35.2642630718832,-8.24769480427176],[-35.2648301043258,-8.2428490241631],[-35.2628339007638,-8.24049906328111],[-35.2604290101906,-8.22765937498014],[-35.2582472270279,-8.22374344620306],[-35.2594813208063,-8.21768493391256],[-35.2554384779034,-8.21220194456407],[-35.2568598671891,-8.20884547413926],[-35.2533056106653,-8.20472988147879],[-35.2548700623035,-8.20267197363262],[-35.2504924332791,-8.19835421607417],[-35.2495074049427,-8.19412543923761],[-35.2503590943966,-8.18770720532319],[-35.2485356631902,-8.18590896862395],[-35.2467253108244,-8.18682206648515],[-35.2449042835058,-8.19273310255062],[-35.2421396605169,-8.19503708649228],[-35.240786782484,-8.20458196998186],[-35.2423269119574,-8.21125275061388],[-35.241075258916,-8.21281531637368],[-35.2367869856308,-8.21273801065065],[-35.234298060607,-8.20919676012233],[-35.2272556989913,-8.20680967252833],[-35.2253067422123,-8.20189819694417],[-35.2282098715883,-8.19979674752182],[-35.2284753613488,-8.19801611685029],[-35.2189859129695,-8.18757754107059],[-35.2152509223921,-8.18756201157754],[-35.1621052711413,-8.22477380126987],[-35.1646332645135,-8.217335014899],[-35.1553583053415,-8.20231131581454],[-35.1556612662544,-8.19811321934952],[-35.1515637382759,-8.19103540196222],[-35.1507904031545,-8.1863230758492],[-35.1481677894119,-8.18488263082873],[-35.1445044388287,-8.18567141270547],[-35.1407939979446,-8.18878575775647],[-35.1338780900018,-8.18549562762109],[-35.133664540586,-8.18743400387615],[-35.1308138380881,-8.18837977410727],[-35.1271847345878,-8.1842191317075],[-35.1229604957302,-8.18683856994398],[-35.120037742248,-8.18410382872867],[-35.1201223108959,-8.18588947581862],[-35.1150842467405,-8.191646210704],[-35.1094561832562,-8.18993127730652],[-35.1092094020922,-8.19172787813904],[-35.1057715987802,-8.19304667366504],[-35.104496033665,-8.19583354138479],[-35.1025450597067,-8.19552510360064],[-35.101826887201,-8.19904372988418],[-35.0853128298232,-8.21015589427907],[-35.0840374130961,-8.21376266311637],[-35.0779976049055,-8.21917525713235],[-35.0752218078401,-8.21693820613326],[-35.0723367710251,-8.22199142926097],[-35.0665761222901,-8.22053401493281],[-35.0644956882254,-8.22279046790573],[-35.0070497892163,-8.20603937891417],[-35.0020659541804,-8.21186291094454],[-34.9954194813239,-8.22426731568402],[-34.9930516113428,-8.22570473808315],[-34.9899675059955,-8.22448142627679],[-34.9865780682232,-8.21880937335385],[-34.9854009986571,-8.22132023284241],[-34.9859166977973,-8.22498330643442],[-34.9829853503936,-8.22523959343244],[-34.9834103681939,-8.2288598017384],[-34.9786429801894,-8.22881209180457],[-34.9769812695699,-8.23109448122529],[-34.9698964518597,-8.22451176670461],[-34.971401746993,-8.2187027353429],[-34.9644868471902,-8.2155313399993],[-34.9598888419964,-8.21611603152956],[-34.9599194234426,-8.22042387945845],[-34.9580616030605,-8.22414914746514],[-34.9556348346798,-8.22491902918978],[-34.9591737856417,-8.23278154553185],[-34.9579354299761,-8.23527545999445],[-34.9563751071254,-8.23624399566382],[-34.9522553407114,-8.23442881034129],[-34.9479387162987,-8.23477103565471],[-34.942648530805,-8.24238661165277],[-34.9356405053051,-8.23886874529631],[-34.9317392732488,-8.22911929571888],[-34.92875255252431,-8.225967830555312],[-34.93259386189676,-8.242783965083653],[-34.93302489189134,-8.24467088896085],[-34.9364344492903,-8.24834723993315],[-34.9443737236684,-8.26030024436073],[-34.9460627871679,-8.27897415853056],[-34.9516915350363,-8.29379214219358],[-34.9515169784258,-8.29954573664639],[-34.9475676371367,-8.30132691500507],[-34.94629460495775,-8.302761830991505],[-34.946294604958574,-8.302761830995102],[-34.96098263831651,-8.366929740199492],[-34.96098263831651,-8.366929740199499],[-34.9658912320946,-8.36164199758007],[-34.9757482504813,-8.35993869601396]]]}},{"type":"Feature","properties":{"id":"132","arrangementId":"2611606","name":"Recife/PE","state":"PE","municipality":"2609402","population2010":"56696","urbanPopulation2010":"49717","ruralPopulation2010":"6979"},"geometry":{"type":"Polygon","coordinates":[[[-35.1502893045077,-8.09094958165782],[-35.1470206402903,-8.08826723404559],[-35.1427678056896,-8.09248004881518],[-35.1383377731697,-8.0918664458797],[-35.1386046802617,-8.08836229238586],[-35.1346219444471,-8.08689200426255],[-35.1348688829925,-8.08461224356017],[-35.1318769419673,-8.08369151135412],[-35.1326217146204,-8.08233315555066],[-35.1288454325706,-8.08142361450814],[-35.1291321022647,-8.07671339640609],[-35.125997975726,-8.07525646231585],[-35.124360080953,-8.07839615925531],[-35.113004193089,-8.07921108082667],[-35.1132807930741,-8.08078416685579],[-35.10794772161,-8.08136549312299],[-35.106630732822,-8.08492605659217],[-35.1041630974489,-8.0853572176614],[-35.1016153972328,-8.08853890394721],[-35.0914631871763,-8.08661285200145],[-35.0861691471883,-8.08813166574373],[-35.0807881067856,-8.08582937252748],[-35.074932007606,-8.08584079121949],[-35.0740573152928,-8.08433789457815],[-35.0729904972137,-8.08583358944855],[-35.0710935095578,-8.08477361431079],[-35.0694199125988,-8.08628897105911],[-35.0665137911785,-8.0861697452375],[-35.0655803884242,-8.08952552588226],[-35.0634952329186,-8.08764303889506],[-35.0608425287597,-8.0881429729198],[-35.0597444763265,-8.08695925736379],[-35.0581631012461,-8.08797062774221],[-35.0970969559597,-8.16164613755917],[-35.0665673574975,-8.19845913907796],[-35.0659000164725,-8.20073508755423],[-35.0685367837455,-8.20473286273137],[-35.0670227759803,-8.20518789360637],[-35.0662486566501,-8.20734321781521],[-35.0674949344436,-8.20949430801585],[-35.0632520670292,-8.21864050765328],[-35.0644956882254,-8.22279046790573],[-35.0665761222901,-8.22053401493281],[-35.0723367710251,-8.22199142926097],[-35.0752218078401,-8.21693820613326],[-35.0779976049055,-8.21917525713235],[-35.0840374130961,-8.21376266311637],[-35.0853128298232,-8.21015589427907],[-35.101826887201,-8.19904372988418],[-35.1025450597067,-8.19552510360064],[-35.104496033665,-8.19583354138479],[-35.1057715987802,-8.19304667366504],[-35.1092094020922,-8.19172787813904],[-35.1094561832562,-8.18993127730652],[-35.1150842467405,-8.191646210704],[-35.1201223108959,-8.18588947581862],[-35.120037742248,-8.18410382872867],[-35.1229604957302,-8.18683856994398],[-35.1271847345878,-8.1842191317075],[-35.1308138380881,-8.18837977410727],[-35.133664540586,-8.18743400387615],[-35.1338780900018,-8.18549562762109],[-35.1407939979446,-8.18878575775647],[-35.1445044388287,-8.18567141270547],[-35.1481677894119,-8.18488263082873],[-35.1507904031545,-8.1863230758492],[-35.1515637382759,-8.19103540196222],[-35.1556612662544,-8.19811321934952],[-35.1553583053415,-8.20231131581454],[-35.1646332645135,-8.217335014899],[-35.1621052711413,-8.22477380126987],[-35.2152509223921,-8.18756201157754],[-35.2213189809861,-8.18606028045753],[-35.2220240188933,-8.18465501062019],[-35.2197010457666,-8.18012196705508],[-35.2236905013156,-8.17644185131036],[-35.2240168203199,-8.16475078252257],[-35.227020673765,-8.16338738871696],[-35.2282147827859,-8.15452814655669],[-35.2198125742908,-8.15013542510974],[-35.2255301472984,-8.13149259240919],[-35.2228432680023,-8.12708009487045],[-35.2164361182323,-8.12326440722654],[-35.1957693810521,-8.07954224537827],[-35.1502893045077,-8.09094958165782]]]}},{"type":"Feature","properties":{"id":"133","arrangementId":"2611606","name":"Recife/PE","state":"PE","municipality":"2607604","population2010":"21884","urbanPopulation2010":"18121","ruralPopulation2010":"3763"},"geometry":{"type":"Polygon","coordinates":[[[-34.8477031076123,-7.81601579928969],[-34.865275560019,-7.81132789606551],[-34.8814964761814,-7.80934384863963],[-34.8876856149991,-7.80706799189427],[-34.8894221033473,-7.80471268544205],[-34.8876629997476,-7.77114700003397],[-34.8772764443524,-7.74061767316705],[-34.8701170305765,-7.73806907183018],[-34.8625556809998,-7.7297544680942],[-34.8641751981269,-7.71334912076526],[-34.8608766710215,-7.70938265548511],[-34.8528156976863,-7.69085069930031],[-34.8484629798826,-7.6878292227404],[-34.84518586552931,-7.812837965461743],[-34.8473722632193,-7.81329279782432],[-34.8477031076123,-7.81601579928969]]]}},{"type":"Feature","properties":{"id":"134","arrangementId":"2611606","name":"Recife/PE","state":"PE","municipality":"2607901","population2010":"644620","urbanPopulation2010":"636558","ruralPopulation2010":"8062"},"geometry":{"type":"Polygon","coordinates":[[[-34.9356405053051,-8.23886874529631],[-34.942648530805,-8.24238661165277],[-34.9479387162987,-8.23477103565471],[-34.9522553407114,-8.23442881034129],[-34.9563751071254,-8.23624399566382],[-34.9579354299761,-8.23527545999445],[-34.9591737856417,-8.23278154553185],[-34.9556348346798,-8.22491902918978],[-34.9580616030605,-8.22414914746514],[-34.9599194234426,-8.22042387945845],[-34.9598888419964,-8.21611603152956],[-34.9644868471902,-8.2155313399993],[-34.971401746993,-8.2187027353429],[-34.9698964518597,-8.22451176670461],[-34.9769812695699,-8.23109448122529],[-34.9786429801894,-8.22881209180457],[-34.9834103681939,-8.2288598017384],[-34.9829853503936,-8.22523959343244],[-34.9859166977973,-8.22498330643442],[-34.9854009986571,-8.22132023284241],[-34.9865780682232,-8.21880937335385],[-34.9899675059955,-8.22448142627679],[-34.9930516113428,-8.22570473808315],[-34.9954194813239,-8.22426731568402],[-35.0020659541804,-8.21186291094454],[-35.0070497892163,-8.20603937891417],[-35.0644956882254,-8.22279046790573],[-35.0632520670292,-8.21864050765328],[-35.0674949344436,-8.20949430801585],[-35.0662486566501,-8.20734321781521],[-35.0670227759803,-8.20518789360637],[-35.0685367837455,-8.20473286273137],[-35.0659000164725,-8.20073508755423],[-35.0665673574975,-8.19845913907796],[-35.0970969559597,-8.16164613755917],[-35.0581631012461,-8.08797062774221],[-35.0551480053761,-8.06730960125702],[-35.0166950289524,-8.05580815092537],[-35.0136727367074,-8.05627490356392],[-35.0123143125554,-8.05903589509046],[-35.0093771609272,-8.06033058968489],[-35.0066237551821,-8.05965904522874],[-35.0026579643935,-8.06401710590468],[-34.9955895970822,-8.06076069405077],[-34.9950936893223,-8.06242224549022],[-34.9930239526932,-8.06233757611818],[-34.9931611002046,-8.0661991858437],[-34.9889977409529,-8.07122139315272],[-34.9856724221446,-8.07189310758083],[-34.9856275711554,-8.07431990833703],[-34.98058335204,-8.07544909619878],[-34.9764894959934,-8.08055078559022],[-34.9738604080314,-8.07825775269312],[-34.9717430909708,-8.07836330881958],[-34.9712614068883,-8.08393602892455],[-34.9732160159064,-8.08740751274649],[-34.9702661451664,-8.08749445470527],[-34.9678427807197,-8.09129050115564],[-34.9651036454168,-8.09146875038249],[-34.9643455609988,-8.09312848519141],[-34.9658101797959,-8.09471950460142],[-34.963441224333,-8.09317077131402],[-34.9616666739778,-8.09384024103423],[-34.9633146429564,-8.10647620051617],[-34.9618068018424,-8.10960108112494],[-34.9574723564641,-8.1114778664104],[-34.9597052319109,-8.11446119642705],[-34.9591560905811,-8.12245628093257],[-34.9605280153556,-8.12519797210865],[-34.9584839705588,-8.12971538995323],[-34.9556456535241,-8.12914973886934],[-34.9539214373244,-8.12364104869539],[-34.9521630064175,-8.13025403079883],[-34.9571548139435,-8.13412457708751],[-34.9564871914307,-8.13794096620257],[-34.9533073748354,-8.1386606019052],[-34.9511679398485,-8.13745309028787],[-34.9371882772172,-8.13682006469417],[-34.9324974134249,-8.14188974631469],[-34.9216135122538,-8.14159983636331],[-34.9135938807529,-8.14512031255232],[-34.9145157344135,-8.14760374901375],[-34.9115263483623,-8.14966165236331],[-34.9136078526203,-8.15390405033162],[-34.911902886409,-8.15331379559513],[-34.908867821093,-8.15512326662542],[-34.9179751016696,-8.18506287655049],[-34.91787802838232,-8.187285736991862],[-34.9286,-8.2253],[-34.928855142803,-8.226416940939444],[-34.9317392732488,-8.22911929571888],[-34.9356405053051,-8.23886874529631]]]}},{"type":"Feature","properties":{"id":"135","arrangementId":"2611606","name":"Recife/PE","state":"PE","municipality":"2607208","population2010":"80637","urbanPopulation2010":"59719","ruralPopulation2010":"20918"},"geometry":{"type":"Polygon","coordinates":[[[-35.053811664077,-8.60727540543559],[-35.0627529073208,-8.59998614484464],[-35.0653150344612,-8.59721416270339],[-35.0634504745597,-8.59385403383652],[-35.0693193989711,-8.58409374113318],[-35.072168051914,-8.58453666533479],[-35.0733863661878,-8.58261492024234],[-35.0705258979518,-8.57896533198443],[-35.0692063389014,-8.571907439077],[-35.0699332672065,-8.56697144797391],[-35.074798388135,-8.55927765074296],[-35.0808420706051,-8.55642866145354],[-35.0829531841421,-8.54646187541516],[-35.0821582895734,-8.5426353617325],[-35.0759434814065,-8.53684458840701],[-35.0775045821707,-8.52931930344307],[-35.1261000002148,-8.51931000015635],[-35.1423996924918,-8.50055344638441],[-35.1429280684756,-8.49223481728296],[-35.1443270655416,-8.49033713265248],[-35.1517028211282,-8.48748327893014],[-35.1585648650764,-8.48827966817208],[-35.1645654817116,-8.48459981143213],[-35.16795172779,-8.4785599258998],[-35.2029970380828,-8.47902367300406],[-35.2302802827089,-8.43526892062414],[-35.2380528137863,-8.41745158372356],[-35.1928881780469,-8.37639749454872],[-35.1930544519014,-8.35750412781323],[-35.190269229941,-8.35478082507496],[-35.1768675867697,-8.35136688797144],[-35.174033916532,-8.35154318387078],[-35.1707213294258,-8.35512103320906],[-35.1616651573211,-8.33860465647968],[-35.154047514681,-8.32084663436462],[-35.140148406124,-8.30993286490974],[-35.1082247766521,-8.33404544084437],[-35.1069216275311,-8.32943556639821],[-35.1006223667288,-8.32661817029231],[-35.0954553838588,-8.33060372817948],[-35.0911326332644,-8.33018659743346],[-35.0809330307347,-8.33274645558442],[-35.0773475758299,-8.3363020206217],[-35.0749223443906,-8.3423238360761],[-35.0723091510465,-8.34276288150176],[-35.0726155167926,-8.34520260641512],[-35.0669852823449,-8.34976187241245],[-35.0586539512188,-8.34925487601168],[-35.0582237650147,-8.35198826464666],[-35.0510816586915,-8.35209161653484],[-35.0474204763738,-8.34911068141276],[-35.0441631669965,-8.34925044864922],[-35.0392922742191,-8.3522653313799],[-35.0385388932553,-8.35502322923861],[-35.0319135607622,-8.35751054267735],[-35.0314717148477,-8.36124952534528],[-35.0263571507618,-8.36146412786718],[-35.0243854393365,-8.36355225653137],[-35.0149396800222,-8.36041344272616],[-35.0122465009752,-8.35754880523314],[-34.9926348718018,-8.36178574521592],[-34.9901024375774,-8.36035738618438],[-34.9892210911803,-8.35633226891901],[-34.9864102835077,-8.35320669043637],[-34.9797717111955,-8.35336259240968],[-34.97790162496,-8.3539856643069],[-34.9757482504813,-8.35993869601396],[-34.9658912320946,-8.36164199758007],[-34.96098263831651,-8.366929740199499],[-34.97996822419657,-8.419710973797324],[-35.04815581048265,-8.609277150104669],[-35.0499391069042,-8.60612938406377],[-35.053811664077,-8.60727540543559]]]}},{"type":"Feature","properties":{"id":"136","arrangementId":"2611606","name":"Recife/PE","state":"PE","municipality":"2610707","population2010":"300466","urbanPopulation2010":"288124","ruralPopulation2010":"12342"},"geometry":{"type":"Polygon","coordinates":[[[-34.840746999974,-7.96094000018081],[-34.8463049999757,-7.95621599996839],[-34.8509170004192,-7.95467199981289],[-34.8553479997104,-7.95500399983467],[-34.8580219998154,-7.96711499985731],[-34.8512152057172,-7.96762247289876],[-34.8641293929571,-7.97463999973616],[-34.8675372668313,-7.96746631192071],[-34.872516775229,-7.97000770339275],[-34.8694180001406,-7.97635399963735],[-34.8728439998507,-7.97634300002937],[-34.873465999756,-7.98069800031243],[-34.8772879997413,-7.98009600043003],[-34.8818860004385,-7.97567399975526],[-34.8952640004333,-7.97568700035475],[-34.9038200001928,-7.97858399995158],[-34.9138710437136,-7.97936230922312],[-34.9092485535779,-7.94401457311403],[-34.9112380769756,-7.93910709681501],[-34.9161619668013,-7.93482783024013],[-34.918461323731,-7.93592848980791],[-34.9235130800645,-7.93352682150556],[-34.9281276174955,-7.93563936946128],[-34.9339462203417,-7.9324998667754],[-34.938120578302,-7.933055877127],[-34.9436972131558,-7.92980509323041],[-34.9486195894225,-7.92953369942063],[-34.9523011171028,-7.93549032661723],[-34.9584202913633,-7.93597758739572],[-34.9602168930951,-7.93824348864604],[-34.9677582030786,-7.94179141484187],[-34.9705652947525,-7.94017517124712],[-34.9719999040723,-7.9411742685776],[-34.9780968318033,-7.940148566603],[-34.9809803388715,-7.94140763275602],[-34.983586202741,-7.94008489370282],[-34.9863277032608,-7.94100727076887],[-34.9886882779416,-7.93878572408187],[-34.9903823335778,-7.9391466202203],[-34.9927010133411,-7.93328304587585],[-34.9958900767656,-7.93326322661659],[-34.9973416374066,-7.93019302298956],[-35.0035907879844,-7.92607274396193],[-35.0158822666532,-7.9259126475506],[-35.021131011387,-7.93246432197083],[-35.0256797391286,-7.93206402653357],[-35.0290885689822,-7.93336098472162],[-35.0318992102803,-7.92702580859413],[-35.0252335135158,-7.92568937106757],[-35.0247387748745,-7.91951082536423],[-35.0206546467945,-7.91602196664042],[-35.0078202905739,-7.91659755343432],[-34.9855964986794,-7.9201970107834],[-34.9618921484039,-7.91558305431448],[-34.9577753695376,-7.92003713110865],[-34.9491788094544,-7.92026542490935],[-34.9386872222375,-7.92615203898538],[-34.930477878751,-7.92509287593544],[-34.9235838324279,-7.93000691009075],[-34.9181819745185,-7.92696523026114],[-34.915756142332,-7.92711642338418],[-34.9128875739024,-7.92990078199545],[-34.9125462874811,-7.93439789494687],[-34.9071713255962,-7.93590000917805],[-34.9031762097143,-7.93122129972318],[-34.8981660002607,-7.92813099984574],[-34.8954439997407,-7.92075699973571],[-34.8965077781114,-7.91786489514874],[-34.8933652312204,-7.91290478872497],[-34.888543992711,-7.91164268825941],[-34.8841578219259,-7.91413853986166],[-34.8727210913053,-7.90998942137463],[-34.8657200283566,-7.91146448939464],[-34.8609686743648,-7.90973009197013],[-34.8631692299759,-7.90397760458274],[-34.8609864125928,-7.89722064281835],[-34.8652478339204,-7.89613418624368],[-34.866236135789,-7.89111812310285],[-34.861973554336,-7.88911034616553],[-34.8558655190784,-7.8772948103072],[-34.8550573891871,-7.87152440302874],[-34.8413726700127,-7.86312389065501],[-34.840869169059005,-7.847108757807111],[-34.832388775978636,-7.920907598353855],[-34.828006021239865,-7.959047601424103],[-34.8308240001274,-7.95778100019294],[-34.840746999974,-7.96094000018081]]]}},{"type":"Feature","properties":{"id":"137","arrangementId":"2611606","name":"Recife/PE","state":"PE","municipality":"2607752","population2010":"23769","urbanPopulation2010":"18320","ruralPopulation2010":"5449"},"geometry":{"type":"Polygon","coordinates":[[[-34.8625556809998,-7.7297544680942],[-34.8701170305765,-7.73806907183018],[-34.8772764443524,-7.74061767316705],[-34.8876629997476,-7.77114700003397],[-34.8894221033473,-7.80471268544205],[-34.8961614716745,-7.8048949960072],[-34.9040175866423,-7.8072855334006],[-34.9080391677733,-7.8059355916542],[-34.9252088588017,-7.80649879118624],[-34.936131579209,-7.77063737581421],[-34.9367124036544,-7.74922884363616],[-34.9435056665532,-7.73978371744454],[-34.9417059828448,-7.72127832723299],[-34.9238843741645,-7.70230223276178],[-34.9227209518104,-7.69166114584516],[-34.9185631512684,-7.69174921375515],[-34.9165834304809,-7.68804737578575],[-34.9120158538485,-7.6879920557887],[-34.9079206757985,-7.6854178147803],[-34.9007115061311,-7.68580272731396],[-34.8982327938084,-7.68331564140368],[-34.8967956618902,-7.68454794732987],[-34.8987157549281,-7.6876154682792],[-34.8956113977478,-7.68758570431675],[-34.8962100206759,-7.69132585070742],[-34.8906341916146,-7.69459671017001],[-34.8970181568624,-7.69965803259209],[-34.8961220516913,-7.70384897045358],[-34.892879266365,-7.70741809367002],[-34.8879316794034,-7.70942126877651],[-34.8866265517739,-7.71326862604621],[-34.8848163406016,-7.71457401897572],[-34.8787385054776,-7.71044834311647],[-34.8641751981269,-7.71334912076526],[-34.8625556809998,-7.7297544680942]]]}},{"type":"Feature","properties":{"id":"138","arrangementId":"2611606","name":"Recife/PE","state":"PE","municipality":"2611606","population2010":"1537704","urbanPopulation2010":"1537704","ruralPopulation2010":"0"},"geometry":{"type":"Polygon","coordinates":[[[-34.908867821093,-8.15512326662542],[-34.911902886409,-8.15331379559513],[-34.9136078526203,-8.15390405033162],[-34.9115263483623,-8.14966165236331],[-34.9145157344135,-8.14760374901375],[-34.9135938807529,-8.14512031255232],[-34.9216135122538,-8.14159983636331],[-34.9324974134249,-8.14188974631469],[-34.9371882772172,-8.13682006469417],[-34.9511679398485,-8.13745309028787],[-34.9533073748354,-8.1386606019052],[-34.9564871914307,-8.13794096620257],[-34.9571548139435,-8.13412457708751],[-34.9521630064175,-8.13025403079883],[-34.9539214373244,-8.12364104869539],[-34.9556456535241,-8.12914973886934],[-34.9584839705588,-8.12971538995323],[-34.9596348284845,-8.1281580573484],[-34.9597052319109,-8.11446119642705],[-34.9574723564641,-8.1114778664104],[-34.9618068018424,-8.10960108112494],[-34.9633146429564,-8.10647620051617],[-34.9616666739778,-8.09384024103423],[-34.963441224333,-8.09317077131402],[-34.9658101797959,-8.09471950460142],[-34.9643455609988,-8.09312848519141],[-34.9651036454168,-8.09146875038249],[-34.9678427807197,-8.09129050115564],[-34.9702661451664,-8.08749445470527],[-34.9732160159064,-8.08740751274649],[-34.9712614068883,-8.08393602892455],[-34.9717430909708,-8.07836330881958],[-34.9738604080314,-8.07825775269312],[-34.9764894959934,-8.08055078559022],[-34.98058335204,-8.07544909619878],[-34.9856275711554,-8.07431990833703],[-34.9856724221446,-8.07189310758083],[-34.9889977409529,-8.07122139315272],[-34.9931611002046,-8.0661991858437],[-34.9930239526932,-8.06233757611818],[-34.9950936893223,-8.06242224549022],[-34.9955895970822,-8.06076069405077],[-35.0026579643935,-8.06401710590468],[-35.0066237551821,-8.05965904522874],[-35.0093771609272,-8.06033058968489],[-35.0123143125554,-8.05903589509046],[-35.0136727367074,-8.05627490356392],[-35.0166950289524,-8.05580815092537],[-34.9947835554167,-8.04607109040849],[-34.9932821975154,-8.04232698879947],[-34.9961383220259,-8.03685379306807],[-34.9961966547518,-8.03332625180503],[-34.9917325712012,-8.0321698720419],[-34.9859887586742,-8.03670994740611],[-34.979930199619,-8.03274842479994],[-34.9786834802584,-8.02936529667108],[-34.9745050888387,-8.02973000863295],[-34.9655416161526,-8.01981387421086],[-34.9619394446496,-8.02137888882458],[-34.96439582141,-8.00867058607867],[-34.9623167956835,-7.99040809645647],[-34.9640924063394,-7.98737748458319],[-34.9619241525775,-7.98194632496291],[-34.9625917067418,-7.97736629002225],[-34.9612313274637,-7.97558507748932],[-34.9619168545792,-7.9741467458756],[-34.9722180013596,-7.97176300196094],[-34.9747812517533,-7.96886056146571],[-34.9792996174833,-7.97010789416396],[-34.9928229281356,-7.9615803903227],[-34.9996480836921,-7.96390688969115],[-35.0028254235544,-7.96046462664117],[-34.9988790922962,-7.94848682880405],[-35.0083996122523,-7.94573071070368],[-35.0001175306994,-7.92920563842943],[-34.9973416374066,-7.93019302298956],[-34.9958900767656,-7.93326322661659],[-34.9927010133411,-7.93328304587585],[-34.9903823335778,-7.9391466202203],[-34.9886882779416,-7.93878572408187],[-34.9863277032608,-7.94100727076887],[-34.9837944857269,-7.93974757329181],[-34.9809803388715,-7.94140763275602],[-34.9780968318033,-7.940148566603],[-34.9719999040723,-7.9411742685776],[-34.9705652947525,-7.94017517124712],[-34.9677582030786,-7.94179141484187],[-34.9602168930951,-7.93824348864604],[-34.9584202913633,-7.93597758739572],[-34.9523011171028,-7.93549032661723],[-34.9486195894225,-7.92953369942063],[-34.9436972131558,-7.92980509323041],[-34.938120578302,-7.933055877127],[-34.9339462203417,-7.9324998667754],[-34.9281276174955,-7.93563936946128],[-34.9235130800645,-7.93352682150556],[-34.918461323731,-7.93592848980791],[-34.9161619668013,-7.93482783024013],[-34.9112380769756,-7.93910709681501],[-34.9092485535779,-7.94401457311403],[-34.9137208164624,-7.98220727314708],[-34.9165990463089,-7.98498720529522],[-34.9166433037454,-7.98726544434476],[-34.8994680000481,-8.00195799956197],[-34.8893121351469,-8.00430967545112],[-34.8847562425066,-8.0069721660326],[-34.8806309812347,-8.01069469110706],[-34.8793204181028,-8.01610750905428],[-34.8728959968527,-8.0173074375881],[-34.875857342942,-8.03072651231867],[-34.8605759997825,-8.04446700025181],[-34.8913031170261,-8.115034673769904],[-34.89130311702663,-8.115034673771126],[-34.8960122183891,-8.12355938755565],[-34.908867821093,-8.15512326662542]]]}},{"type":"Feature","properties":{"id":"139","arrangementId":"2611606","name":"Recife/PE","state":"PE","municipality":"2610608","population2010":"51357","urbanPopulation2010":"31532","ruralPopulation2010":"19825"},"geometry":{"type":"Polygon","coordinates":[[[-35.1459503993914,-7.82669729634314],[-35.1400631324076,-7.79445273750377],[-35.1231822109902,-7.85038134532277],[-35.1121067398341,-7.85759206542144],[-35.110286612737,-7.86385198088419],[-35.0974237039408,-7.88448024506721],[-35.0833672140257,-7.89185583877589],[-35.0739020437443,-7.89958527344158],[-35.066433834254,-7.89890614140524],[-35.0626735637339,-7.90551924491718],[-35.0476818958028,-7.90910587973253],[-35.0318992102803,-7.92702580859413],[-35.0285915046941,-7.93428294809951],[-35.031823861482,-7.93583994705586],[-35.0346602656587,-7.94144878933014],[-35.0450318158656,-7.95014305805563],[-35.0512901242398,-7.94529416629269],[-35.0592773207917,-7.94765783554061],[-35.0665688683586,-7.94781006378339],[-35.0724511432056,-7.95125333497339],[-35.0757321605108,-7.95060852556299],[-35.0771075935406,-7.96025730323191],[-35.0788035395516,-7.96209228982724],[-35.0921415907617,-7.96699615444891],[-35.093160145824,-7.96988251866327],[-35.0980999230729,-7.97288982460566],[-35.1022048326868,-7.97039014369011],[-35.109037340201,-7.9711729810482],[-35.1113331466074,-7.96867979053985],[-35.1147005078221,-7.97011920313867],[-35.1175630229151,-7.97402378157222],[-35.1303870989854,-7.97590174047293],[-35.1413883338045,-7.97232232631427],[-35.1459831823779,-7.97361295057715],[-35.1561493247315,-7.97140151047131],[-35.1580597851309,-7.97402308999358],[-35.1642188272371,-7.97183417700564],[-35.1669758401629,-7.97466081544423],[-35.1664978289117,-7.97813574546824],[-35.1720254561099,-7.97572613525289],[-35.1716770578499,-7.97282725427431],[-35.1737485904251,-7.97157183667088],[-35.1776673547646,-7.97362373524715],[-35.1771850384587,-7.97669394157208],[-35.180430719602,-7.97775528278004],[-35.1828269784822,-7.97508901594529],[-35.2544591314837,-7.94644480028728],[-35.2538432784445,-7.91561926641594],[-35.2492761568691,-7.90401433739169],[-35.2499094333736,-7.8987004367757],[-35.2442068313801,-7.89422986191852],[-35.2413650204793,-7.88830434766748],[-35.2352980545616,-7.89049711065309],[-35.2275673968178,-7.88919818834569],[-35.2214403067247,-7.89076438916516],[-35.2261420846894,-7.82130933205997],[-35.1459503993914,-7.82669729634314]]]}},{"type":"Feature","properties":{"id":"140","arrangementId":"2611606","name":"Recife/PE","state":"PE","municipality":"2601052","population2010":"18156","urbanPopulation2010":"16575","ruralPopulation2010":"1581"},"geometry":{"type":"Polygon","coordinates":[[[-35.0683750334809,-7.81171650301417],[-35.0831388968426,-7.80425894239625],[-35.0938134951966,-7.80603811526675],[-35.1040651675734,-7.80198859219974],[-35.1001490949047,-7.80853670980127],[-35.1025290535729,-7.82124597841915],[-35.0999856835924,-7.82813467377611],[-35.1015711011254,-7.83062689121801],[-35.1197071298801,-7.81258081445298],[-35.1253794112308,-7.81057503580922],[-35.1400631324076,-7.79445273750377],[-35.1262368365607,-7.76999469509906],[-35.1201883166374,-7.76625200362702],[-35.116680676472,-7.75711401210191],[-35.1102065272094,-7.74922838138463],[-35.1116678185149,-7.74098560380253],[-35.1105177537913,-7.73583942854675],[-35.1056514709386,-7.72656472837946],[-35.0995170333844,-7.72281401135752],[-35.099138251529,-7.72743092119999],[-35.0945927703401,-7.73312488070866],[-35.0914272592606,-7.74052561226717],[-35.0877013464399,-7.74196018021808],[-35.0844173883518,-7.74062468338241],[-35.0786607802707,-7.74284097533069],[-35.0754413836129,-7.74597642297352],[-35.0730485295659,-7.74538690298312],[-35.0532050857461,-7.75025593146603],[-35.0449215472915,-7.76025709768686],[-35.0442465080699,-7.76316597642865],[-35.038485664182,-7.76875310277343],[-35.0406512892256,-7.77532063493931],[-35.0381653364611,-7.78068728528996],[-35.0400335386168,-7.78821433292507],[-35.0398573209586,-7.79425080373159],[-35.0367439921415,-7.79350117384007],[-35.0322293756851,-7.7993041203888],[-35.0288068725391,-7.79994674624527],[-35.0282831028828,-7.80402766284629],[-35.0243604354857,-7.80632050868451],[-35.0204228618256,-7.81383605039338],[-35.0209542820145,-7.8171401245171],[-35.0251138128521,-7.81973783333428],[-35.0256650621928,-7.8223267953453],[-35.0281354611826,-7.82250430802736],[-35.0291258854512,-7.82455310933848],[-35.0339636130303,-7.82656605198167],[-35.0329206269853,-7.83009255003111],[-35.0362388834177,-7.84205078311709],[-35.0363328814573,-7.86776868577619],[-35.0376789956891,-7.87123786103843],[-35.0524315212976,-7.87782925761412],[-35.0541057378895,-7.88003762473654],[-35.0683750334809,-7.81171650301417]]]}},{"type":"Feature","properties":{"id":"141","arrangementId":"2611606","name":"Recife/PE","state":"PE","municipality":"2600054","population2010":"94429","urbanPopulation2010":"86625","ruralPopulation2010":"7804"},"geometry":{"type":"Polygon","coordinates":[[[-35.0476818958028,-7.90910587973253],[-35.0626735637339,-7.90551924491718],[-35.066433834254,-7.89890614140524],[-35.0739020437443,-7.89958527344158],[-35.0833672140257,-7.89185583877589],[-35.0974237039408,-7.88448024506721],[-35.110286612737,-7.86385198088419],[-35.1121067398341,-7.85759206542144],[-35.1231822109902,-7.85038134532277],[-35.1400631324076,-7.79445273750377],[-35.1253794112308,-7.81057503580922],[-35.1197071298801,-7.81258081445298],[-35.1015711011254,-7.83062689121801],[-35.0999856835924,-7.82813467377611],[-35.1025290535729,-7.82124597841915],[-35.1001490949047,-7.80853670980127],[-35.1040651675734,-7.80198859219974],[-35.0938134951966,-7.80603811526675],[-35.0831388968426,-7.80425894239625],[-35.0683750334809,-7.81171650301417],[-35.0541057378895,-7.88003762473654],[-34.9772358973187,-7.90002509138481],[-34.9307827813003,-7.89275595312466],[-34.9232429596948,-7.8869240906742],[-34.9181143068297,-7.8860382413717],[-34.9121482178659,-7.88731975820025],[-34.9021603786985,-7.88591475995815],[-34.8881708379138,-7.88771783501006],[-34.8802379316352,-7.89281630033197],[-34.866236135789,-7.89111812310285],[-34.8652478339204,-7.89613418624368],[-34.8609864125928,-7.89722064281835],[-34.8631692299759,-7.90397760458274],[-34.8609686743648,-7.90973009197013],[-34.8657200283566,-7.91146448939464],[-34.8727210913053,-7.90998942137463],[-34.8841578219259,-7.91413853986166],[-34.888543992711,-7.91164268825941],[-34.8933652312204,-7.91290478872497],[-34.8965077781114,-7.91786489514874],[-34.8954439997407,-7.92075699973571],[-34.8981660002607,-7.92813099984574],[-34.9031762097143,-7.93122129972318],[-34.9071713255962,-7.93590000917805],[-34.9125462874811,-7.93439789494687],[-34.9128875739024,-7.92990078199545],[-34.915756142332,-7.92711642338418],[-34.9181819745185,-7.92696523026114],[-34.9235838324279,-7.93000691009075],[-34.930477878751,-7.92509287593544],[-34.9386872222375,-7.92615203898538],[-34.9491788094544,-7.92026542490935],[-34.9577753695376,-7.92003713110865],[-34.9618921484039,-7.91558305431448],[-34.9855964986794,-7.9201970107834],[-35.0078202905739,-7.91659755343432],[-35.0206546467945,-7.91602196664042],[-35.0247387748745,-7.91951082536423],[-35.0252335135158,-7.92568937106757],[-35.0318992102803,-7.92702580859413],[-35.0476818958028,-7.90910587973253]]]}},{"type":"Feature","properties":{"id":"142","arrangementId":"2611606","name":"Recife/PE","state":"PE","municipality":"2613701","population2010":"102895","urbanPopulation2010":"96777","ruralPopulation2010":"6118"},"geometry":{"type":"Polygon","coordinates":[[[-35.0166072218458,-7.99094017045246],[-35.0111591145015,-8.01131328887715],[-35.002295873056,-8.01803339372611],[-35.0166286778711,-8.01981088666303],[-35.012055667535,-8.03641615957805],[-35.0100826386028,-8.03785856871793],[-35.0008241505141,-8.03465079220025],[-34.9961383220259,-8.03685379306807],[-34.9932821975154,-8.04232698879947],[-34.9947835554167,-8.04607109040849],[-35.0166950289524,-8.05580815092537],[-35.0551480053761,-8.06730960125702],[-35.0581631012461,-8.08797062774221],[-35.0597444763265,-8.08695925736379],[-35.0608425287597,-8.0881429729198],[-35.0634952329186,-8.08764303889506],[-35.0655803884242,-8.08952552588226],[-35.0665137911785,-8.0861697452375],[-35.0694199125988,-8.08628897105911],[-35.0710935095578,-8.08477361431079],[-35.0729904972137,-8.08583358944855],[-35.0740573152928,-8.08433789457815],[-35.074932007606,-8.08584079121949],[-35.0807881067856,-8.08582937252748],[-35.0861691471883,-8.08813166574373],[-35.0914631871763,-8.08661285200145],[-35.1016153972328,-8.08853890394721],[-35.1041630974489,-8.0853572176614],[-35.106630732822,-8.08492605659217],[-35.10794772161,-8.08136549312299],[-35.1132807930741,-8.08078416685579],[-35.113004193089,-8.07921108082667],[-35.124360080953,-8.07839615925531],[-35.125997975726,-8.07525646231585],[-35.1291321022647,-8.07671339640609],[-35.1288454325706,-8.08142361450814],[-35.1326217146204,-8.08233315555066],[-35.1318769419673,-8.08369151135412],[-35.1348688829925,-8.08461224356017],[-35.1346219444471,-8.08689200426255],[-35.1386046802617,-8.08836229238586],[-35.1383377731697,-8.0918664458797],[-35.1427678056896,-8.09248004881518],[-35.1470206402903,-8.08826723404559],[-35.1502893045077,-8.09094958165782],[-35.1957693810521,-8.07954224537827],[-35.2044414356237,-8.03837152132861],[-35.2236305579039,-8.02084609537099],[-35.2045399698437,-8.01159795218372],[-35.2045841949046,-8.0081061185025],[-35.2008146451797,-8.00463147626158],[-35.2017714617835,-8.00293506080436],[-35.1951662417287,-7.99827135743714],[-35.195518165331,-7.99667257867651],[-35.1936644719378,-7.99484436667416],[-35.1892262385,-7.99441956111383],[-35.1858915055885,-7.99119619125117],[-35.180373618048,-7.99526727376564],[-35.1780793153081,-7.99497465235828],[-35.1711884660748,-7.98783976039659],[-35.1696890363199,-7.98784623731393],[-35.1687997183323,-7.98186572142584],[-35.1668753634073,-7.98120252987281],[-35.1673649804095,-7.98251864272112],[-35.1662244377076,-7.98296085286103],[-35.1648920390363,-7.98210755901658],[-35.1669758401629,-7.97466081544423],[-35.1642188272371,-7.97183417700564],[-35.1580597851309,-7.97402308999358],[-35.1561493247315,-7.97140151047131],[-35.1459831823779,-7.97361295057715],[-35.1413883338045,-7.97232232631427],[-35.1303870989854,-7.97590174047293],[-35.1175630229151,-7.97402378157222],[-35.1147005078221,-7.97011920313867],[-35.1113331466074,-7.96867979053985],[-35.109037340201,-7.9711729810482],[-35.1022048326868,-7.97039014369011],[-35.0980999230729,-7.97288982460566],[-35.093160145824,-7.96988251866327],[-35.0921415907617,-7.96699615444891],[-35.0788035395516,-7.96209228982724],[-35.0771075935406,-7.96025730323191],[-35.0757321605108,-7.95060852556299],[-35.0724511432056,-7.95125333497339],[-35.0665688683586,-7.94781006378339],[-35.0592773207917,-7.94765783554061],[-35.0512901242398,-7.94529416629269],[-35.0450318158656,-7.95014305805563],[-35.0346602656587,-7.94144878933014],[-35.0338665015378,-7.95342788668757],[-35.0306735269617,-7.95812828779021],[-35.0236928966099,-7.95681738561382],[-35.0170147172553,-7.95934457499209],[-35.0146528736312,-7.96352288907003],[-35.0148904538313,-7.96914444146273],[-35.0092820324398,-7.97122732707943],[-35.0166072218458,-7.99094017045246]]]}},{"type":"Feature","properties":{"id":"152","arrangementId":"2704500","name":"Maragogi/AL - São José da Coroa Grande/PE","state":"PE","municipality":"2613404","population2010":"18180","urbanPopulation2010":"9708","ruralPopulation2010":"8472"},"geometry":{"type":"Polygon","coordinates":[[[-35.1538482518953,-8.91145775507129],[-35.1559829672401,-8.90276934632822],[-35.1712318169947,-8.8905612635914],[-35.1815923253255,-8.88807648983811],[-35.1858851168046,-8.89003506216835],[-35.1981006801022,-8.88735857993447],[-35.2030747467021,-8.88822748690894],[-35.2090939829009,-8.8917637147236],[-35.2128062539055,-8.888574019975],[-35.2201071130528,-8.8892732050943],[-35.2430617183236,-8.87975102858707],[-35.2460813018106,-8.87530282256717],[-35.2476204995863,-8.86882986220833],[-35.2549742001991,-8.86344758343916],[-35.2606308009707,-8.85560069731429],[-35.2638085275415,-8.85558169014285],[-35.1368767651505,-8.8295141940248],[-35.1348458495563,-8.8325268446381],[-35.1395708660026,-8.84319744280771],[-35.13041003328785,-8.862781676340132],[-35.135501247508174,-8.874457527618745],[-35.13576312375379,-8.87505809714202],[-35.1385259158383,-8.87865733606715],[-35.140888008157766,-8.886811165375137],[-35.14839573010343,-8.904028874370528],[-35.1512523875876,-8.90770748231444],[-35.15266423843029,-8.91381798680012],[-35.1549313522001,-8.91350225762307],[-35.1538482518953,-8.91145775507129]]]}}]}