{"type":"FeatureCollection","features":[{"type":"Feature","properties":{"id":"31","arrangementId":"2100501","name":"Alto Parnaíba/MA - Santa Filomena/PI","state":"PI","municipality":"2209203","population2010":"6096","urbanPopulation2010":"3108","ruralPopulation2010":"2988"},"geometry":{"type":"Polygon","coordinates":[[[-45.9248111449184,-9.11239339763716],[-45.9245982376185,-9.10639331879658],[-45.9275923900767,-9.10266510730878],[-45.9225600330191,-9.09885837421456],[-45.9231305107644,-9.09031221303814],[-45.9245047036291,-9.08888872113755],[-45.9321835172555,-9.08782721985029],[-45.9320501711784,-9.08413242087448],[-45.927387279899,-9.08072899684567],[-45.9303748421252,-9.07472457697759],[-45.9287398458671,-9.07051779845757],[-45.9309478190866,-9.06757280833842],[-45.9378782429865,-9.06367309883438],[-45.9404192657365,-9.0561744760712],[-45.939808164715,-9.04861157696269],[-45.936846978705,-9.04543732627155],[-45.9357972963081,-9.03917351224777],[-45.9431095678522,-9.03105394178596],[-45.9454068392542,-9.024977430464],[-45.9434619348204,-9.01531476906133],[-45.959125206563,-9.00173771942019],[-45.9617048255172,-8.99163076594704],[-45.9686031256337,-8.97670821451243],[-45.9743972219542,-8.97268124554301],[-45.9842088938253,-8.96254894198006],[-45.990866350102,-8.95027017342973],[-45.9901090624832,-8.94351778561726],[-45.993780010539,-8.93643553457224],[-45.9942948373368,-8.92686533606639],[-45.9918242566841,-8.92290790447618],[-45.9851733105997,-8.91851904202015],[-45.9859339365019,-8.91042063080744],[-45.983370624055,-8.90675425040827],[-45.980562345276,-8.90534352888075],[-45.9796706845544,-8.90283343561453],[-45.9829817760881,-8.89004828220244],[-45.9800670850279,-8.8840706954062],[-45.9699211405481,-8.8792191398514],[-45.9676169668495,-8.87589081101209],[-45.9726979952163,-8.86913150921175],[-45.9715473944966,-8.86240521163115],[-45.9599145792944,-8.85100975989247],[-45.9594505614942,-8.84244686593007],[-45.9573304466427,-8.84051815828633],[-45.948983076108,-8.84494443703608],[-45.9455295319623,-8.84037733974236],[-45.9453604486258,-8.83147169166518],[-45.9586706990934,-8.82617698797759],[-45.9604352148133,-8.82410325656002],[-45.9607662471645,-8.81888028459742],[-45.9535088720368,-8.8072768700315],[-45.9488829096185,-8.80552631898439],[-45.9391728233671,-8.79584886643199],[-45.937442451308,-8.79105807447052],[-45.9383063175824,-8.78281488859619],[-45.9350051104974,-8.77910330557307],[-45.9280211895262,-8.77735581491885],[-45.9233333024899,-8.77044530290834],[-45.917577297854,-8.76825809233702],[-45.9076253092606,-8.75866853322617],[-45.8981680251342,-8.75972807938729],[-45.8916141509723,-8.76279146615321],[-45.8888328356668,-8.75093355424008],[-45.8893466057612,-8.73965608725861],[-45.884773726726,-8.73575669971188],[-45.8743870508217,-8.73139555615996],[-45.8677022308732,-8.73190025569221],[-45.8633265695655,-8.72980591451131],[-45.8629627074629,-8.72185429154228],[-45.8646198117549,-8.71588337321908],[-45.8585699221641,-8.71379217696734],[-45.8533037557636,-8.70981649363625],[-45.8470141213046,-8.71022297281189],[-45.8399476470662,-8.7152780773214],[-45.8378281644382,-8.71198078228725],[-45.8377159020672,-8.70654667918586],[-45.831354993638,-8.69597712344546],[-45.8290688495478,-8.68444036393164],[-45.8209707881713,-8.66562268054225],[-45.8116158298067,-8.65608014788045],[-45.8125953084267,-8.6541686739451],[-45.8189803987264,-8.65400931587721],[-45.8210329133382,-8.64955517702976],[-45.8188019435548,-8.63950464612249],[-45.8155466639473,-8.63322632963138],[-45.8038308494141,-8.62197373879695],[-45.7986704756619,-8.62095587711201],[-45.7974747379687,-8.61303453431629],[-45.7961478161687,-8.61249973447513],[-45.7894261923648,-8.61659793604587],[-45.7781315492315,-8.61781996991562],[-45.7656371565295,-8.60957723190371],[-45.7662226538524,-8.60735055008776],[-45.7781462036843,-8.60167524881365],[-45.7827065074993,-8.59716796273126],[-45.7939413565084,-8.59242170789548],[-45.7937787069217,-8.58440053405735],[-45.7904824748863,-8.5814463231892],[-45.7826235405439,-8.58053218301382],[-45.7763272214241,-8.57572769257889],[-45.7714106080131,-8.57392828855962],[-45.7613662527503,-8.56183693872368],[-45.7607998894034,-8.54963416558423],[-45.7535229648129,-8.54225792166569],[-45.7545450101441,-8.53280143343938],[-45.7568281397068,-8.52774920136449],[-45.7520925706156,-8.51711884156123],[-45.7384624789602,-8.50117491209249],[-45.7455213818063,-8.49609679123387],[-45.7460071838844,-8.49370060250078],[-45.7406224544626,-8.47539770274177],[-45.7434710876205,-8.45333816122713],[-45.7425308751997,-8.4479570506773],[-45.7357930788874,-8.44117036901725],[-45.7341599082531,-8.43459682938011],[-45.7285564214417,-8.42985983576279],[-45.7331997713523,-8.42219977030312],[-45.733101322568,-8.41975114030283],[-45.7299902042844,-8.41041483297812],[-45.720931178631,-8.40597145631761],[-45.7192298007147,-8.4032218753892],[-45.719320902038,-8.39955089495778],[-45.7222104948185,-8.39624426855812],[-45.7215688977864,-8.39439044925979],[-45.7114495552527,-8.38802575288616],[-45.7061663916656,-8.38880737526012],[-45.7073199241751,-8.39062883245458],[-45.7060522047454,-8.39160230899932],[-45.7080151082106,-8.39150174770743],[-45.7086088604105,-8.39418969719673],[-45.7070897534893,-8.39519642437545],[-45.7061540304841,-8.3943175978788],[-45.7055214887257,-8.39642052848456],[-45.7019392830714,-8.39745404197043],[-45.7001055141581,-8.40077074257567],[-45.6990975477136,-8.40029767579705],[-45.699055158169,-8.40355057040245],[-45.6969423188329,-8.40237951280421],[-45.6949382578942,-8.40605151396614],[-45.6975444509157,-8.41018053530342],[-45.6925365527197,-8.40979750954739],[-45.6930754354829,-8.41190065059448],[-45.6903830766176,-8.41200279109586],[-45.6908703284029,-8.41075445925083],[-45.6879217751697,-8.4096330010621],[-45.687574368862,-8.40758043069228],[-45.6820802827788,-8.40886275511202],[-45.6786558829626,-8.41627844059752],[-45.6680186523389,-8.42395164605159],[-45.666059572791,-8.42757396686505],[-45.6619902178742,-8.43066228373739],[-45.6626792613388,-8.43198264678171],[-45.6613587535036,-8.43403854014645],[-45.6637196105715,-8.43714121469526],[-45.6611157315058,-8.43616542329563],[-45.659254027851,-8.43812844906864],[-45.6597071161904,-8.44460734855023],[-45.6576023356792,-8.44881711461812],[-45.6577569902928,-8.45228954182887],[-45.6551029776203,-8.45089996156394],[-45.6525561191695,-8.45408354362058],[-45.6491682264324,-8.45545837140668],[-45.6486849289662,-8.45780743296661],[-45.6506978806026,-8.45927035564234],[-45.6498694602073,-8.46291438698933],[-45.6450064122161,-8.46160510089464],[-45.640050289789,-8.4634952312199],[-45.6440347388121,-8.46686421121433],[-45.6359946153591,-8.4741412320322],[-45.6396409022058,-8.48298771730924],[-45.6300665254498,-8.48214731164905],[-45.6319398285602,-8.48718108873624],[-45.6265963600339,-8.49151915568444],[-45.6242871834068,-8.49147631468014],[-45.6228701801147,-8.49587803834078],[-45.6203182620781,-8.49629983656815],[-45.6185484475528,-8.49468792770563],[-45.6136404973111,-8.49621130910459],[-45.6068196000445,-8.49585561464488],[-45.6028427817689,-8.49899340951816],[-45.6016606157448,-8.496353229318],[-45.5991099234841,-8.49762953367599],[-45.5940008434641,-8.49638839191073],[-45.5913420922637,-8.49169693996174],[-45.5863383930024,-8.4945172435759],[-45.5833391512808,-8.49222310181467],[-45.5817469438663,-8.49448710729411],[-45.5748066876785,-8.49724963306409],[-45.5746917821999,-8.50243377949528],[-45.5713019855981,-8.50212044580189],[-45.5688894669753,-8.49909248692871],[-45.5674184450052,-8.4996819889326],[-45.5687664280282,-8.50678642715183],[-45.5663916098849,-8.50769834510248],[-45.5633790680895,-8.50263068515795],[-45.5610552900695,-8.50221664448253],[-45.5597663007741,-8.50485020657175],[-45.5623947466202,-8.50764032354205],[-45.5602037463058,-8.50985542029139],[-45.5556583487537,-8.50995286363372],[-45.5511968633445,-8.51336732144467],[-45.5486064354386,-8.50959996606554],[-45.546727490881,-8.51150217068858],[-45.5480115959584,-8.51489514009858],[-45.546523885269,-8.51578208657401],[-45.5437294416604,-8.51565661675943],[-45.5413470314403,-8.51251025224628],[-45.5399681782887,-8.51562215563792],[-45.5414116980913,-8.52079827112329],[-45.5379623196053,-8.52025685946643],[-45.5350835573602,-8.51679913437249],[-45.5337002894368,-8.5185060691997],[-45.5344658148454,-8.5233194485337],[-45.5297883770319,-8.52243919121565],[-45.52459887244,-8.52805536746121],[-45.5197355105853,-8.52613662070843],[-45.5192473702698,-8.53158845394393],[-45.5164790465707,-8.53130488691097],[-45.5143164279607,-8.53544631889248],[-45.5135534818077,-8.53216852026095],[-45.5113824869122,-8.53068102271101],[-45.5084077049516,-8.53408274971907],[-45.5080311839919,-8.54409540387974],[-45.5043252792881,-8.54396938637803],[-45.5035426532708,-8.54761175218056],[-45.5006974402347,-8.54657565404318],[-45.5004611289779,-8.54808614276124],[-45.497374338255,-8.54842976292315],[-45.4953367865634,-8.5514650081036],[-45.4882695604918,-8.55152157456099],[-45.4813528854273,-8.55646164408956],[-45.4782938423868,-8.5536546783207],[-45.4727342227061,-8.55690004739921],[-45.4691012242421,-8.55542160422362],[-45.4683498253841,-8.55898730731831],[-45.4662283957238,-8.56108720810813],[-45.4632581859165,-8.55898261915252],[-45.4603718190042,-8.56156226328779],[-45.4624945454868,-8.56187523455441],[-45.4626297882341,-8.56370231071304],[-45.4557862910045,-8.56450637387002],[-45.4519631947456,-8.56954161145615],[-45.4439873908054,-8.57587139884595],[-45.4439662819183,-8.57721101008003],[-45.4460652042457,-8.57785729617722],[-45.4453529762588,-8.57974534367265],[-45.4435026418334,-8.58177480416384],[-45.4398883618584,-8.58256589729826],[-45.4396959582019,-8.58674198285616],[-45.4362524909597,-8.59207484208026],[-45.4362549191292,-8.59433902562546],[-45.4314719242898,-8.5936031562606],[-45.4306168237074,-8.59990879055818],[-45.4255645088949,-8.60460027578205],[-45.4215699029286,-8.60628068150823],[-45.4231000139544,-8.60857133120192],[-45.4211469104016,-8.61442943676906],[-45.4184058694353,-8.61724389748782],[-45.4179388721811,-8.62063901897552],[-45.396641417967,-8.64143830723203],[-45.3951498033207,-8.64745538056133],[-45.385097559205,-8.6561020742513],[-45.3874529250124,-8.66147116985855],[-45.3853889458431,-8.6737515994567],[-45.3826116765875,-8.6776180097633],[-45.3830841255319,-8.6798405268188],[-45.381404552578,-8.68296128043869],[-45.3909012288086,-8.70041243408649],[-45.389068123595,-8.70703336799551],[-45.3921626430915,-8.70906689791895],[-45.3924075761487,-8.71338819341037],[-45.3947922778413,-8.71463035590614],[-45.3912187029807,-8.72249048814547],[-45.3942183161224,-8.72631542351792],[-45.3948491060014,-8.72974467607588],[-45.3965718347224,-8.73021087922865],[-45.3947405110657,-8.73814672898829],[-45.3977951384348,-8.7388038761979],[-45.3943169681535,-8.74573309860359],[-45.394203023151,-8.74928339271435],[-45.3919352594046,-8.7515463936511],[-45.3933919713623,-8.75737981912329],[-45.3958566695496,-8.75858915906242],[-45.3959031878818,-8.76478268747099],[-45.3937563262934,-8.76817538528576],[-45.3980702734243,-8.78004219599052],[-45.3926036139655,-8.78634299373413],[-45.392328300011,-8.78962128249618],[-45.398713416391,-8.79794912874923],[-45.3974686458613,-8.80334605657521],[-45.3943793217483,-8.80669847195685],[-45.3962214552559,-8.80849065082281],[-45.3956360451673,-8.81051503464108],[-45.392114925963,-8.81163481829219],[-45.3924741493624,-8.81939000054802],[-45.3910767998544,-8.82409724549144],[-45.3924981540665,-8.84101629006966],[-45.3949284891584,-8.84607880139556],[-45.39426806392,-8.85129650782756],[-45.3989701413589,-8.85401620158638],[-45.3997105433069,-8.85626032035749],[-45.3981576353665,-8.8641698739405],[-45.4002726537599,-8.86576637561768],[-45.4017971188419,-8.87009555456615],[-45.4106460745567,-8.87273803703074],[-45.4170620682598,-8.88072094201784],[-45.424227095604,-8.88274276276826],[-45.4283472352367,-8.89673518677938],[-45.4370328138133,-8.89923632819392],[-45.4426338544687,-8.90409875745167],[-45.4468205232485,-8.90811767029419],[-45.4504280825899,-8.9156625254052],[-45.4551222163172,-8.91727941111589],[-45.46249232596,-8.92801350861646],[-45.4706282020298,-8.93522334558087],[-45.477537364158,-8.94642873100111],[-45.4817599167867,-8.95906106171856],[-45.4855164820999,-8.96080714673241],[-45.4847020767394,-8.96516362460155],[-45.4887293415858,-8.96661708640937],[-45.495140417796,-8.96649195833715],[-45.5005418611179,-8.97172282634734],[-45.5051660959385,-8.97980637446455],[-45.5042007582583,-8.98939202602117],[-45.5058051658756,-8.99099079848651],[-45.5063231735755,-8.99717181552682],[-45.5085638065744,-9.00076966488809],[-45.5125454919808,-9.00324944470606],[-45.5134494176564,-9.00701907267199],[-45.5166169710963,-9.00825987089627],[-45.5155672545251,-9.01205028399334],[-45.5215058071473,-9.01677770792486],[-45.5221831576266,-9.01919473035248],[-45.5270359956146,-9.02138848708899],[-45.5369723252126,-9.03033220616636],[-45.5372913363261,-9.03375316967299],[-45.5396358751954,-9.03398292667066],[-45.5421828973228,-9.038566998668],[-45.5486294868613,-9.03744871238815],[-45.5564528053526,-9.038839465369],[-45.5626820602288,-9.05113531654161],[-45.5620258429183,-9.05660855004454],[-45.5589446756562,-9.06038436534613],[-45.5600478299434,-9.06539658388522],[-45.5535400712173,-9.07712343759653],[-45.5419491806102,-9.08501976125291],[-45.5424967580189,-9.08703045019508],[-45.5394922192904,-9.09226600906902],[-45.534539999921,-9.09705137631993],[-45.5332950369363,-9.10090084339913],[-45.5281845746583,-9.10513201513033],[-45.5263965578548,-9.11065286413834],[-45.5319929103445,-9.11801437536309],[-45.5323504457165,-9.12131458420068],[-45.5304821922993,-9.12660184150174],[-45.5324414319265,-9.13196303026957],[-45.5318656247987,-9.13742503573678],[-45.5341723462767,-9.14087763829235],[-45.5311729453751,-9.14737085318228],[-45.5266082789488,-9.14980566060268],[-45.5193534498018,-9.15700181797944],[-45.51701898244,-9.16363346101537],[-45.514442511113,-9.16519234674934],[-45.5115939705852,-9.17195774595319],[-45.4099991859137,-9.45883069128331],[-45.5134183056103,-9.45878500032745],[-45.5135925105858,-9.4670345668917],[-45.5172457806682,-9.47044165385921],[-45.5156718249947,-9.47423187360204],[-45.5155763457717,-9.4830244346299],[-45.5310660123865,-9.49596311040915],[-45.5613190135616,-9.50666997733754],[-45.5646936934592,-9.51333971835327],[-45.5711731586143,-9.51370038426529],[-45.5736479507922,-9.51216833789841],[-45.5754649842216,-9.51274151091196],[-45.5757952746322,-9.51482739666698],[-45.5840116274346,-9.51694581989365],[-45.5871316337179,-9.5132588063488],[-45.591196077437,-9.51579891089097],[-45.5954388099531,-9.51342724667006],[-45.5994539366498,-9.51460398978225],[-45.6057975601093,-9.51259718501206],[-45.6137781502414,-9.51330247293072],[-45.6206882899326,-9.51634860440453],[-45.6248541313131,-9.52111689263046],[-45.6312541386675,-9.52520884211436],[-45.6369488652978,-9.52719142814186],[-45.6399426850069,-9.53124101416142],[-45.6522200695006,-9.53270303661583],[-45.6559212527636,-9.53179363676685],[-45.6596847932186,-9.53243149531721],[-45.6618385616003,-9.5358597370372],[-45.6675781293272,-9.5351999008547],[-45.6730932703381,-9.53984723476202],[-45.6750636192905,-9.54489497382394],[-45.6788463045133,-9.54620995622447],[-45.6811392618674,-9.54495461686201],[-45.6838391174812,-9.54550454689729],[-45.6857185431762,-9.55301101894332],[-45.6881053169068,-9.55511562228811],[-45.6876626454147,-9.55708613851443],[-45.6959050767579,-9.55815840558593],[-45.6988280631646,-9.5536387987915],[-45.7052800621251,-9.55616884351724],[-45.7115827052776,-9.55664260097518],[-45.7121864552407,-9.55400075073403],[-45.7059712747545,-9.5513233359032],[-45.7072261086979,-9.54895828529658],[-45.7132935845312,-9.5484577334376],[-45.7133286643863,-9.54679167009943],[-45.7100290589938,-9.54725995338407],[-45.7110920027936,-9.54461550050491],[-45.7150140532559,-9.54597467019483],[-45.7243297876895,-9.53747445987836],[-45.7261080945129,-9.53717966930623],[-45.7298447128632,-9.54096131401338],[-45.7357185718546,-9.53802951964656],[-45.7364111937216,-9.53501442467593],[-45.728958861762,-9.53718044182386],[-45.7279624246261,-9.53641754513354],[-45.7316828506829,-9.52828028770506],[-45.736398014157,-9.52852614076875],[-45.7446429204344,-9.52201743955317],[-45.7417874407378,-9.51792180105025],[-45.7469072937366,-9.51355273626972],[-45.739905189373,-9.51106470067537],[-45.7456889740669,-9.50903707210313],[-45.7497848949569,-9.50397509407526],[-45.7527222929994,-9.50290222355875],[-45.7565033531472,-9.504585061951],[-45.7610750882447,-9.50351087212903],[-45.7661166777424,-9.50456410684802],[-45.7669924654299,-9.49932538415909],[-45.7716767731645,-9.48965478893729],[-45.7703209714356,-9.48575986922254],[-45.7728412657118,-9.48501270077548],[-45.777370667922,-9.48785242075258],[-45.7889002724296,-9.48257710644828],[-45.7854705144526,-9.48280907218089],[-45.7831437731666,-9.47977617513032],[-45.7894829045124,-9.47029536743718],[-45.7889282800161,-9.46461301997481],[-45.7951318844289,-9.46051077954877],[-45.7945355682618,-9.45889513939909],[-45.7879285585561,-9.45841897535537],[-45.7946511797081,-9.45034511923184],[-45.7933213342122,-9.44537904130966],[-45.7977997466609,-9.44247937702159],[-45.793996253824,-9.43842141381714],[-45.7960621035832,-9.43631213040044],[-45.8013347343105,-9.43505040495216],[-45.8027414583516,-9.42529882757879],[-45.7978413996608,-9.41725188366746],[-45.8047277118144,-9.41045314839404],[-45.808352384355,-9.40030643679257],[-45.8136637452856,-9.3955671265216],[-45.8143949084982,-9.39145063184117],[-45.817987216237,-9.38938394031652],[-45.8241642789583,-9.37494583478242],[-45.8285956955349,-9.37319621183565],[-45.8366103996502,-9.36490092823522],[-45.8403558709267,-9.36454752974465],[-45.8471367753419,-9.35637665385946],[-45.8501181987958,-9.35590449449677],[-45.8632101918968,-9.35915455803638],[-45.8750262646503,-9.3538103862403],[-45.879492554238,-9.34620804286687],[-45.8830909674741,-9.34637009620291],[-45.8873848102608,-9.34880826978576],[-45.8936772982686,-9.34218085716078],[-45.8909393752519,-9.33153414498475],[-45.8962520581859,-9.32797854127659],[-45.8974118122053,-9.31900937138534],[-45.9022856781415,-9.31787066869635],[-45.9002518460458,-9.3129546200596],[-45.9046061781326,-9.30094400236379],[-45.9070647519367,-9.29801505435125],[-45.9058651660445,-9.29205382082711],[-45.904287415232,-9.29102966208922],[-45.9002987465898,-9.2920193120416],[-45.8970927057637,-9.29038628799674],[-45.8959365805087,-9.28152535331236],[-45.895980675168,-9.27942081921537],[-45.9005991885017,-9.27429056465781],[-45.9037335200858,-9.26723002234763],[-45.8985011187316,-9.26315163284153],[-45.8983469551478,-9.26055992340167],[-45.9018715700169,-9.2521521364119],[-45.8979638448555,-9.24550007157097],[-45.8987837055035,-9.23847189226399],[-45.896607320971,-9.23534156266293],[-45.8975877447786,-9.23347824742314],[-45.9031981797522,-9.23155613450797],[-45.9008170492673,-9.22433825580584],[-45.9023280955651,-9.21870371270615],[-45.9011813592323,-9.21306188959449],[-45.8986603275121,-9.20967683331919],[-45.9056572868542,-9.1911727003598],[-45.9035370263127,-9.19000073804359],[-45.8996980318387,-9.19143168712259],[-45.8970754666594,-9.18651664033063],[-45.9004060788774,-9.17921185654189],[-45.9133281342859,-9.16754819729141],[-45.9171510228014,-9.16016864476711],[-45.9212521165919,-9.14617633856711],[-45.9280772020012,-9.13791671938106],[-45.9289356534576,-9.12709380303654],[-45.9271498570802,-9.12244732618313],[-45.9271756010731,-9.11664232828076],[-45.9248111449184,-9.11239339763716]]]}},{"type":"Feature","properties":{"id":"51","arrangementId":"2200509","name":"Amarante/PI - São Francisco do Maranhão/MA","state":"PI","municipality":"2200509","population2010":"17135","urbanPopulation2010":"8772","ruralPopulation2010":"8363"},"geometry":{"type":"Polygon","coordinates":[[[-42.8650530724413,-6.23606585205738],[-42.8723562203633,-6.22843118345231],[-42.8771936223877,-6.22579325425523],[-42.8890044997578,-6.2267769893665],[-42.8970812543963,-6.22463889886604],[-42.9166374457615,-6.21340587727935],[-42.9339023201359,-6.19304057756057],[-42.9518655837297,-6.18769979440993],[-42.9685859950476,-6.17825173732775],[-42.9754507225728,-6.16754156898816],[-42.9793838742663,-6.13814865513627],[-42.7933800830244,-6.10012137190376],[-42.7973413223441,-6.11043422785729],[-42.8011205074055,-6.14692753837517],[-42.7936378673936,-6.18731439894032],[-42.7884257097787,-6.20250886938873],[-42.7697961034074,-6.18646793454752],[-42.7263188197577,-6.17511910726097],[-42.719494691227,-6.19957031841539],[-42.7196206484741,-6.21503251164104],[-42.7145590544567,-6.26301720727826],[-42.6696920358587,-6.29026915549708],[-42.5932896997598,-6.49055658831583],[-42.6531362013745,-6.5048692770954],[-42.7911176423652,-6.521794642109],[-42.8414513474017,-6.70563252502098],[-42.8569376523507,-6.66228190818345],[-42.8602195393003,-6.6626804076746],[-42.8677724262564,-6.65826991112744],[-42.8762794633265,-6.65612200003022],[-42.8828155911665,-6.65566879747695],[-42.8854228840588,-6.65760511338522],[-42.8891724238682,-6.65486525592678],[-42.8958354163713,-6.65690612791543],[-42.9102016957516,-6.64789035515571],[-42.915393695063,-6.64606965249243],[-42.9172231814047,-6.63730647411444],[-42.9096152019799,-6.61889999583809],[-42.905865124376,-6.59957529536354],[-42.8992531558084,-6.59026657744056],[-42.889110269923,-6.58042921553585],[-42.8847553712633,-6.57262653468678],[-42.8839479842121,-6.56307406901305],[-42.888446170954,-6.55264788679051],[-42.8894436809811,-6.53850688668343],[-42.8861393361614,-6.53262852838385],[-42.8805337764126,-6.52814854032283],[-42.8738374505378,-6.51857191885893],[-42.8712259389259,-6.51207683877505],[-42.8716434087163,-6.51026670134713],[-42.8752771131482,-6.50916620365734],[-42.885112715979,-6.50891609949833],[-42.8866676366021,-6.50768001102364],[-42.8861107754918,-6.49978368197127],[-42.8833189875812,-6.49421783808272],[-42.8721867215399,-6.49065381042499],[-42.8676086111484,-6.48596064526755],[-42.8667572823227,-6.48243720581234],[-42.871085008866,-6.46625300267391],[-42.8695571659304,-6.45033618956348],[-42.8772202144413,-6.42876601503951],[-42.8777536518095,-6.41786761319975],[-42.8675296389816,-6.40064366067634],[-42.8573017096062,-6.3894477334261],[-42.8553386676454,-6.38276991020315],[-42.8565254256078,-6.37058643111886],[-42.8523650440115,-6.35910826153702],[-42.8468476340111,-6.35276571456604],[-42.8328931685848,-6.34491867555636],[-42.8293328911,-6.33742136040741],[-42.833670183732,-6.32799770732829],[-42.8370805936944,-6.32535235063045],[-42.8547170859247,-6.33365871028122],[-42.8569744094414,-6.33344971413295],[-42.8601897348683,-6.33054427529801],[-42.8588594172283,-6.32440036788262],[-42.8506969814805,-6.30734975698567],[-42.8470024711871,-6.28249358740908],[-42.8479503925965,-6.2787316432507],[-42.8554680036454,-6.26709929119926],[-42.8554756550774,-6.250737132013],[-42.8650530724413,-6.23606585205738]]]}},{"type":"Feature","properties":{"id":"53","arrangementId":"2200608","name":"Angical do Piauí/PI","state":"PI","municipality":"2209450","population2010":"2059","urbanPopulation2010":"807","ruralPopulation2010":"1252"},"geometry":{"type":"Polygon","coordinates":[[[-42.7331556269306,-6.04835735540757],[-42.7361358533869,-6.03582147338227],[-42.7247115379071,-6.02077319402764],[-42.6910852570789,-6.02130780411182],[-42.6845136258031,-6.02681430803386],[-42.6822178904433,-6.03176355424461],[-42.681043911847,-6.07451034377733],[-42.6703175835896,-6.07183249637256],[-42.6595271282743,-6.07559593430489],[-42.6542973511418,-6.08074737958787],[-42.6518157070292,-6.08136428123652],[-42.7045981778636,-6.07996676355527],[-42.7331556269306,-6.04835735540757]]]}},{"type":"Feature","properties":{"id":"54","arrangementId":"2200608","name":"Angical do Piauí/PI","state":"PI","municipality":"2200608","population2010":"6672","urbanPopulation2010":"5214","ruralPopulation2010":"1458"},"geometry":{"type":"Polygon","coordinates":[[[-42.791748294648,-6.06841551326528],[-42.8201390444813,-5.99174501012408],[-42.8113680491961,-5.99418873522189],[-42.7803354023569,-5.96351750432934],[-42.7770183761971,-5.97534819916001],[-42.7848860447551,-6.01565854990213],[-42.7345718981745,-6.01167412336207],[-42.7346581035886,-6.01638078194748],[-42.738959820839,-6.02740591894798],[-42.7331556269306,-6.04835735540757],[-42.7032509790494,-6.0812913785942],[-42.7027186460487,-6.09947982703233],[-42.6964231579024,-6.10842909762471],[-42.6885828404257,-6.11212731672225],[-42.6878345631146,-6.12970922010437],[-42.6821975324901,-6.13851016461235],[-42.6849866404211,-6.14622409046933],[-42.6848506971019,-6.15366973866748],[-42.6898176446686,-6.16209108383641],[-42.6899467396503,-6.16454085237836],[-42.6883360763488,-6.17259117863995],[-42.6779666485419,-6.18539776649368],[-42.6767468575813,-6.18940916550054],[-42.6776416425477,-6.19401399385065],[-42.6884368067132,-6.19918105676032],[-42.6893986909968,-6.20557355747366],[-42.6827858222079,-6.21409276416967],[-42.7196206484741,-6.21503251164104],[-42.719494691227,-6.19957031841539],[-42.7263188197577,-6.17511910726097],[-42.7697961034074,-6.18646793454752],[-42.7884257097787,-6.20250886938873],[-42.7936378673936,-6.18731439894032],[-42.8011205074055,-6.14692753837517],[-42.7973413223441,-6.11043422785729],[-42.7933800830244,-6.10012137190376],[-42.791748294648,-6.06841551326528]]]}},{"type":"Feature","properties":{"id":"55","arrangementId":"2203909","name":"Floriano/PI","state":"PI","municipality":"2203909","population2010":"57690","urbanPopulation2010":"49970","ruralPopulation2010":"7720"},"geometry":{"type":"Polygon","coordinates":[[[-43.0032709532918,-6.75595205943995],[-42.9913616864926,-6.74543826346502],[-42.9832836764005,-6.72393325741387],[-42.9790318211616,-6.71875808981394],[-42.9740316661284,-6.7146598118008],[-42.9497189352806,-6.70488617135965],[-42.9407485549019,-6.69561903359147],[-42.9293897568318,-6.67877094911995],[-42.9197751129311,-6.6703093619874],[-42.9143347946151,-6.65303113268062],[-42.9139764588464,-6.64885068900805],[-42.915393695063,-6.64606965249243],[-42.9102016957516,-6.64789035515571],[-42.8958354163713,-6.65690612791543],[-42.8891724238682,-6.65486525592678],[-42.8854228840588,-6.65760511338522],[-42.8828155911665,-6.65566879747695],[-42.8762794633265,-6.65612200003022],[-42.8677724262564,-6.65826991112744],[-42.8602195393003,-6.6626804076746],[-42.8569376523507,-6.66228190818345],[-42.8414513474017,-6.70563252502098],[-42.7932751986914,-6.77456848175001],[-42.7988717553272,-6.91515827323565],[-42.9446021031046,-7.13341370547807],[-42.9306079407039,-7.19300333463616],[-42.852428000152,-7.21461626382945],[-42.8155393773404,-7.27975182318807],[-42.8423183343236,-7.35435736779823],[-42.8850094522244,-7.35880205567032],[-43.0750055147926,-7.31425721200072],[-43.1476699195311,-7.22209255552695],[-43.2255464953744,-7.28342857097175],[-43.3560977079428,-7.20437101710872],[-43.3060133642254,-6.99131072281154],[-43.4415871294424,-6.94472250434007],[-43.4297539156107,-6.92285323239072],[-43.4284499004425,-6.91568162110987],[-43.4237562298661,-6.90786776708376],[-43.418893936406,-6.89232141799898],[-43.4105897495173,-6.88362811964197],[-43.4024212658287,-6.87897759134273],[-43.3981978039854,-6.8732355450843],[-43.3978082212723,-6.86715456053452],[-43.3935305096253,-6.86055866195267],[-43.3920551079568,-6.85409935959774],[-43.3915818037572,-6.83436276512947],[-43.388703764567,-6.82991516974927],[-43.3900066951528,-6.82256817628025],[-43.3878727460304,-6.8176574426368],[-43.3814249334139,-6.81625524848089],[-43.3640896816934,-6.81931093525139],[-43.3602060808459,-6.81504200548415],[-43.355720963052,-6.80446970231487],[-43.348984575078,-6.79807721509138],[-43.3446508887275,-6.79748285584907],[-43.335061004062,-6.79907588704254],[-43.328088309328,-6.79821795719296],[-43.3124472787189,-6.80164420241796],[-43.3022870044417,-6.80121993285361],[-43.2787253154209,-6.7966162097702],[-43.269138599067,-6.79119893208503],[-43.2631895729404,-6.78593740438766],[-43.2578652725642,-6.78078115582565],[-43.2501383757853,-6.76856886426163],[-43.2446949548083,-6.76635183037262],[-43.2151373624993,-6.76306885524344],[-43.1784489206811,-6.76672201740712],[-43.1687331291305,-6.76973197365164],[-43.1526691473632,-6.78277575859432],[-43.1460284427584,-6.78310085002415],[-43.1308124515334,-6.78099881244521],[-43.1175913103906,-6.77472776967079],[-43.1051119075884,-6.77074785682812],[-43.1007518180419,-6.76763000981703],[-43.0933063398157,-6.75677749408601],[-43.0821123506045,-6.74808103281338],[-43.0657811451837,-6.74924085248329],[-43.0556401991358,-6.75796342017566],[-43.0468654977445,-6.76145990964704],[-43.0291289721243,-6.76303522419619],[-43.0160287718103,-6.76056253733118],[-43.0032709532918,-6.75595205943995]]]}},{"type":"Feature","properties":{"id":"57","arrangementId":"2208007","name":"Picos/PI","state":"PI","municipality":"2204352","population2010":"5475","urbanPopulation2010":"1216","ruralPopulation2010":"4259"},"geometry":{"type":"Polygon","coordinates":[[[-41.443347951147,-7.21960738607198],[-41.4490235707811,-7.21728146496759],[-41.4538700919312,-7.21188743655592],[-41.4589334153448,-7.19436901092109],[-41.4624550921288,-7.18704975973856],[-41.4631909174269,-7.1218261162822],[-41.4600416894723,-7.12076107076678],[-41.4572556356391,-7.11542825291151],[-41.4499891494796,-7.1154002534189],[-41.4450144182807,-7.1200705362262],[-41.4373868588165,-7.12117680036898],[-41.4308000865547,-7.12439908025329],[-41.4263389518811,-7.1247974592353],[-41.4207609788361,-7.12222860516595],[-41.4173247988004,-7.12505270571774],[-41.4153407819515,-7.1233152461017],[-41.4098661347143,-7.12303279332872],[-41.4009698458817,-7.12958156833469],[-41.401296458065,-7.12228280460773],[-41.3861440731904,-7.09290491572921],[-41.1923323886288,-7.11468936991844],[-41.2640453897829,-7.22568138019148],[-41.2112640242153,-7.25778882749233],[-41.2050337611991,-7.25784238751612],[-41.208539160254,-7.27539049797303],[-41.2496340138986,-7.27558016319392],[-41.2834570277196,-7.26699285443664],[-41.3098842652466,-7.28725373657063],[-41.310482657049,-7.30695962728493],[-41.3908272990406,-7.25982270455415],[-41.422061614352,-7.27282219428879],[-41.443347951147,-7.21960738607198]]]}},{"type":"Feature","properties":{"id":"58","arrangementId":"2208007","name":"Picos/PI","state":"PI","municipality":"2208007","population2010":"73414","urbanPopulation2010":"59922","ruralPopulation2010":"13492"},"geometry":{"type":"Polygon","coordinates":[[[-41.6035539925227,-6.88046503763134],[-41.5782217173583,-6.91485597961975],[-41.5651509410631,-6.92266326949426],[-41.5557916146912,-6.9312547852801],[-41.5347664644008,-6.96964677777652],[-41.4781928789981,-6.99585260131648],[-41.44799371214,-6.99955358313133],[-41.442529679601,-7.02684428493576],[-41.4188123368198,-7.02917997267754],[-41.4008447987484,-7.05901384661166],[-41.3362069664783,-7.06855002916047],[-41.3332538338973,-7.09924839080054],[-41.3861440731904,-7.09290491572921],[-41.401296458065,-7.12228280460773],[-41.4009698458817,-7.12958156833469],[-41.4098661347143,-7.12303279332872],[-41.4153407819515,-7.1233152461017],[-41.4173247988004,-7.12505270571774],[-41.4207609788361,-7.12222860516595],[-41.4263389518811,-7.1247974592353],[-41.4308000865547,-7.12439908025329],[-41.4373868588165,-7.12117680036898],[-41.4450144182807,-7.1200705362262],[-41.4499891494796,-7.1154002534189],[-41.4572556356391,-7.11542825291151],[-41.4600416894723,-7.12076107076678],[-41.4631909174269,-7.1218261162822],[-41.4624550921288,-7.18704975973856],[-41.4773361965083,-7.18750361879694],[-41.50637185108,-7.16115202414654],[-41.548121472328,-7.16847246693079],[-41.6049588369807,-7.22510832139188],[-41.6171525539472,-7.1566006011368],[-41.6261828282748,-7.14878357070518],[-41.6176537155465,-7.09869610544087],[-41.616309649071,-7.10400533228022],[-41.6139088845873,-7.1064428304722],[-41.604651609684,-7.10776752914809],[-41.6010418020375,-7.10498304553106],[-41.5996825613011,-7.10102330987781],[-41.5934889654434,-7.1036735103242],[-41.5804525558407,-7.09879420618762],[-41.5812937627969,-7.0950708222606],[-41.5887056432508,-7.08843919541249],[-41.5914326215182,-7.07534670408705],[-41.603114047775,-7.06575936000645],[-41.606185396239,-7.05993286740784],[-41.6086497607778,-7.04871014935385],[-41.6014344523381,-7.04135805493024],[-41.5893239802174,-7.03785387985261],[-41.5854491495585,-7.03327787567339],[-41.6409404773211,-7.03381076355584],[-41.6409166506829,-7.02835670180031],[-41.617458650796,-7.00042293167291],[-41.6153151301891,-6.90647445822964],[-41.6204671501388,-6.90112755249454],[-41.6171766602746,-6.87870750424787],[-41.6035539925227,-6.88046503763134]]]}},{"type":"Feature","properties":{"id":"59","arrangementId":"2211001","name":"Teresina/PI","state":"PI","municipality":"2211001","population2010":"814230","urbanPopulation2010":"767021","ruralPopulation2010":"47209"},"geometry":{"type":"Polygon","coordinates":[[[-42.8417777995058,-5.05584917769733],[-42.8415274273489,-5.03078747975832],[-42.8499713257161,-5.01163025103523],[-42.8595774611309,-4.98223867807247],[-42.8620320104688,-4.97006952069177],[-42.8600305341818,-4.95862360529509],[-42.8547794844856,-4.9434537627809],[-42.8546249647703,-4.93611390453305],[-42.8580843832876,-4.93273565342765],[-42.8679110108844,-4.92769992211367],[-42.8718052084436,-4.91652651748472],[-42.8815830819936,-4.90774550195328],[-42.8962816887489,-4.88790515989519],[-42.8158618328572,-4.78627783055737],[-42.7886123748611,-4.81761184021423],[-42.7313893404457,-4.82382306098544],[-42.7128648918012,-4.90564201556652],[-42.7067678102862,-4.90381707799572],[-42.7037885191248,-4.90561749555093],[-42.6340995663419,-4.91322877099094],[-42.6017953482766,-4.9042777314321],[-42.6012292897998,-5.09930975194345],[-42.5989726533652,-5.19431243047422],[-42.6015257773927,-5.25187983058965],[-42.6337243197215,-5.24682645727512],[-42.6601457521247,-5.27634705417319],[-42.6790979111396,-5.27270527113132],[-42.7488595723114,-5.33909413198854],[-42.7485360951646,-5.5405271113371],[-42.7545427759283,-5.53692793277782],[-42.7589911186451,-5.52942156865044],[-42.7714735449681,-5.52253077247712],[-42.7782638868688,-5.52263712989958],[-42.7901111382184,-5.51992782151172],[-42.7975801013405,-5.51524317383336],[-42.8114689324452,-5.50146900808819],[-42.8149157190851,-5.50563305891848],[-42.8166426638278,-5.51895729654195],[-42.8189830370375,-5.52410236203435],[-42.8466837667424,-5.53607511287612],[-42.8498102319566,-5.54080116444214],[-42.8474627505055,-5.54619745374947],[-42.8511662387309,-5.54687224925488],[-42.8611998030285,-5.55820392467132],[-42.8618236330542,-5.56123549432255],[-42.8559517192963,-5.57050790931254],[-42.9146476246881,-5.55604486737667],[-42.9417924330743,-5.58660252378741],[-42.9551062313674,-5.56732419145822],[-42.9593050949541,-5.56840309372774],[-42.9706665658093,-5.56170306714278],[-42.960415040022,-5.54846204468754],[-42.9457564674869,-5.53892468402688],[-42.943353574308,-5.5355188660028],[-42.9359940505849,-5.5359594330813],[-42.9314505092336,-5.53900340528287],[-42.9217048206209,-5.54061189312432],[-42.917081386197,-5.53898472906196],[-42.9100611146287,-5.54253592699138],[-42.904700978967,-5.53111469708557],[-42.9000097158756,-5.53045501288847],[-42.8926947562579,-5.5262402762677],[-42.8871616440945,-5.5276700859057],[-42.8824742552826,-5.52594687245017],[-42.8780619376083,-5.52834617733419],[-42.8733928059332,-5.52150095790285],[-42.8646273657603,-5.52784682157352],[-42.8573399343904,-5.52514802536103],[-42.8478245927307,-5.52527453479189],[-42.8515112843183,-5.50113088188466],[-42.8515261420178,-5.4900848266534],[-42.819894005304,-5.49821393802279],[-42.8109298932,-5.49656327827262],[-42.8098200884263,-5.4930565239394],[-42.8008946246871,-5.48152660736701],[-42.7857211057444,-5.45612216160845],[-42.7777960316615,-5.452615367705],[-42.7758443184605,-5.45009565169295],[-42.7689712407301,-5.43151917636885],[-42.7527496114054,-5.35491148277868],[-42.7587807609233,-5.34023161429752],[-42.7624553719178,-5.33708872206683],[-42.7760857675441,-5.33079352979752],[-42.785235992547,-5.32841108989982],[-42.7886366835361,-5.32557246529701],[-42.7996163777935,-5.32359941837843],[-42.8065923109863,-5.31797969160943],[-42.8070396103897,-5.31897992568298],[-42.813758384242,-5.31794042541026],[-42.8150379315552,-5.31418484935126],[-42.8130265042697,-5.30727495607432],[-42.8113646542553,-5.28476913139025],[-42.8126365042712,-5.27932342613514],[-42.8179162027705,-5.27133009350894],[-42.8225358807263,-5.26064788419245],[-42.8286673765981,-5.23993007181531],[-42.8273071007421,-5.23284012437222],[-42.8041390665646,-5.20720032783283],[-42.8000216959445,-5.19908498778193],[-42.7979461568896,-5.18321690263792],[-42.8013763303533,-5.17226315022419],[-42.8029715244162,-5.15025205069157],[-42.8112240614412,-5.1385520345487],[-42.8142895670099,-5.12697726788657],[-42.816807688524,-5.10004759532024],[-42.8186089271602,-5.09350866339406],[-42.8366640672928,-5.07333383109136],[-42.8417777995058,-5.05584917769733]]]}},{"type":"Feature","properties":{"id":"62","arrangementId":"2211209","name":"Uruçuí/PI","state":"PI","municipality":"2211209","population2010":"20149","urbanPopulation2010":"15498","ruralPopulation2010":"4651"},"geometry":{"type":"Polygon","coordinates":[[[-44.5291268107537,-7.22396699987713],[-44.5228476722822,-7.21958194065399],[-44.5146826186079,-7.19635740027377],[-44.5008407249195,-7.18473177245329],[-44.4944145634813,-7.1844389298127],[-44.4908950801438,-7.18281801963588],[-44.4862276850596,-7.17643051825377],[-44.4758197635712,-7.16824221890324],[-44.4640688997599,-7.16166297486638],[-44.460976431617,-7.16032839623848],[-44.4525978132385,-7.16079221169116],[-44.4377050851215,-7.15572687289682],[-44.4235780667743,-7.146769885222],[-44.4180185244353,-7.1389592408762],[-44.4034893004908,-7.12947275756164],[-44.3951857952882,-7.12703515235035],[-44.3870553349357,-7.12093501134165],[-44.3800375508922,-7.11902328649541],[-44.3650392837359,-7.12166609181662],[-44.3540292355607,-7.11594217049475],[-44.3411091577614,-7.11364042496558],[-44.3376157286829,-7.11030526217808],[-44.3330485144773,-7.10872818495773],[-44.3276436285506,-7.11029006363549],[-44.3159011536153,-7.11799061747297],[-44.3216864635594,-7.12939054333885],[-44.3224887037906,-7.14727564145767],[-44.3248995514731,-7.15484365141333],[-44.3288622944593,-7.16135231755539],[-44.3245259074446,-7.17040098751551],[-44.3299013522655,-7.17936498630502],[-44.3275809772803,-7.18846078433768],[-44.3307124975836,-7.19316887644243],[-44.3329999915563,-7.20821030026508],[-44.3429883739143,-7.22068803032829],[-44.3469531475696,-7.22247335366228],[-44.3516879666263,-7.22777293347406],[-44.2975381170904,-7.26348942040038],[-44.3390802215749,-7.29882452283341],[-44.3478633604057,-7.3195429782258],[-44.3552971564385,-7.32883860921442],[-44.3550106414279,-7.33331354308553],[-44.3574857672543,-7.34093120101409],[-44.3549816877546,-7.35375747143013],[-44.3586877615309,-7.3688463461819],[-44.3564908454761,-7.3897750396863],[-44.3568534737088,-7.40712806290975],[-44.3543158512954,-7.41306131402837],[-44.3549978242901,-7.42045477726611],[-44.3531365729944,-7.42569420412418],[-44.1448269438084,-7.5449554563292],[-44.2616443333193,-7.9356876450687],[-44.3835184775956,-8.3661429578312],[-44.4084275354024,-8.46182957077803],[-44.8467935483835,-8.26292330596573],[-44.9184126540207,-7.87003370748954],[-44.9835641035005,-7.48231708946208],[-44.9691737447724,-7.48342608574524],[-44.957455617183,-7.47571637950727],[-44.9445458303257,-7.47400221413085],[-44.9372289218772,-7.47001959163083],[-44.9321126185025,-7.47238233187908],[-44.9244438880749,-7.47028993593177],[-44.9230626283376,-7.46115365042056],[-44.9202066234368,-7.45430210965459],[-44.9130146398137,-7.44497503387067],[-44.9098725434831,-7.44326146744271],[-44.9013966625259,-7.42603459661928],[-44.8966338736543,-7.42422672548292],[-44.886107417923,-7.42527030058387],[-44.8826767992948,-7.42755170434765],[-44.8689435527028,-7.42228633834378],[-44.8630095965156,-7.41127545289975],[-44.857770774002,-7.40879963729339],[-44.8526754032472,-7.4020396529076],[-44.8540594643728,-7.39642749663165],[-44.8503461933221,-7.39252426628184],[-44.8484895330655,-7.38633922117805],[-44.8303460983937,-7.38195266908036],[-44.8224887990188,-7.37719401259359],[-44.816732839349,-7.3612050001106],[-44.8108737076554,-7.36205886412523],[-44.7867702706315,-7.37146862627606],[-44.7809563262734,-7.3782208558078],[-44.772816061512,-7.37393669692097],[-44.7639093459395,-7.37269345433942],[-44.7478656285958,-7.36231212040799],[-44.7420550530982,-7.36183284830725],[-44.7363297423237,-7.38019552420406],[-44.7298923267694,-7.39104036512072],[-44.7122190019054,-7.39788064727401],[-44.7047444737784,-7.3926415279841],[-44.7003121380947,-7.39539828010653],[-44.6879780135744,-7.39453264486565],[-44.685125757048,-7.38768188920779],[-44.6834651130245,-7.37721072649379],[-44.6802303874224,-7.37216453696374],[-44.6790025484288,-7.35893771120635],[-44.6720536749371,-7.35246301335736],[-44.6633522422122,-7.33180614533729],[-44.656357612114,-7.32704231235277],[-44.646214397976,-7.3258934635125],[-44.6424093951774,-7.32113265225008],[-44.6421749751949,-7.31647010720963],[-44.6402705276627,-7.31485022945446],[-44.6337960546442,-7.31332143683477],[-44.62889424947,-7.30989240011411],[-44.6199499188537,-7.3100739480542],[-44.6172280757151,-7.30864619156841],[-44.6131347268861,-7.30330765762228],[-44.6099546297024,-7.29503182545836],[-44.6006808306558,-7.28113147493759],[-44.5961132711105,-7.27693944709774],[-44.5955961762225,-7.26904083556604],[-44.5925527454128,-7.26542191059264],[-44.5797521659297,-7.25760592157599],[-44.5729513217461,-7.24827528087946],[-44.5712450470213,-7.24123196418374],[-44.5681077233927,-7.23609072260871],[-44.5679035116377,-7.23161452878743],[-44.5627467999248,-7.22689643712084],[-44.5291268107537,-7.22396699987713]]]}},{"type":"Feature","properties":{"id":"119","arrangementId":"2601102","name":"Araripina/PE","state":"PI","municipality":"2205953","population2010":"7812","urbanPopulation2010":"6707","ruralPopulation2010":"1105"},"geometry":{"type":"Polygon","coordinates":[[[-40.7434689617232,-7.47847889988129],[-40.750104642715,-7.47626283186418],[-40.7542685379626,-7.47806533944379],[-40.7657654593085,-7.47556984487238],[-40.7822346701938,-7.47940736535758],[-40.8268183591799,-7.45931572933739],[-40.8289309215248,-7.45622107224466],[-40.8177260001547,-7.44611963251498],[-40.8187663655753,-7.44454190328617],[-40.8111411803212,-7.438622691484],[-40.7992232593459,-7.42314587528188],[-40.7757154918764,-7.40485993313934],[-40.7703479808746,-7.39789609223084],[-40.7654872504362,-7.3863765061708],[-40.7604722880656,-7.38273011770071],[-40.7598839785627,-7.38465202736911],[-40.7567043490264,-7.38362948471292],[-40.7514902057084,-7.37399258079291],[-40.7450645838634,-7.36608801395062],[-40.7401641600479,-7.35190742388846],[-40.737617686507,-7.35047694965147],[-40.6523232263358,-7.4333421656084],[-40.6540557693582,-7.43808380872076],[-40.6577186585892,-7.44050836566851],[-40.6633992784539,-7.44941097583581],[-40.6657053533194,-7.45094556818339],[-40.7012014272041,-7.45635633297831],[-40.7048977631212,-7.45873706326483],[-40.713226379194,-7.47300399004205],[-40.7149368555514,-7.4805177591872],[-40.7434689617232,-7.47847889988129]]]}}]}