{"type":"FeatureCollection","features":[{"type":"Feature","properties":{"id":"80","arrangementId":"2401859","name":"Caiçara do Norte/RN","state":"RN","municipality":"2401859","population2010":"6016","urbanPopulation2010":"5894","ruralPopulation2010":"122"},"geometry":{"type":"Polygon","coordinates":[[[-36.0380000345739,-5.05246000432567],[-36.0434999896328,-5.06419018103196],[-36.0427000102972,-5.06752999871043],[-36.0335824432751,-5.07381604937114],[-36.0420675665649,-5.08380613504506],[-36.0425352356126,-5.10861606148199],[-36.048786493302,-5.15581519481533],[-36.0550331923279,-5.1803706481868],[-36.053950203539,-5.20281331168497],[-36.060969650429,-5.22869888484559],[-36.0659342075975,-5.23411867523664],[-36.0587734844087,-5.23813364994794],[-36.0561647049371,-5.23702570946886],[-36.0410409652683,-5.23953316322485],[-36.0369510824265,-5.24503861494009],[-36.0229626639957,-5.24728616372545],[-36.0211521290674,-5.24979576326383],[-36.0143572015236,-5.25291775345153],[-36.0112189318082,-5.25186584972914],[-36.0061228640789,-5.25298988717349],[-36.0019485789637,-5.25610928731375],[-36.0773485181195,-5.27659942822101],[-36.1205463958994,-5.24453150342612],[-36.1517303177,-5.25718709420898],[-36.09945692140324,-5.077182143226827],[-36.067900238626784,-5.064101389237231],[-36.0586127791564,-5.06290065663995],[-36.0380000345739,-5.05246000432567]]]}},{"type":"Feature","properties":{"id":"81","arrangementId":"2401859","name":"Caiçara do Norte/RN","state":"RN","municipality":"2411601","population2010":"2975","urbanPopulation2010":"1038","ruralPopulation2010":"1937"},"geometry":{"type":"Polygon","coordinates":[[[-36.0019485789637,-5.25610928731375],[-36.0061228640789,-5.25298988717349],[-36.0112189318082,-5.25186584972914],[-36.0143572015236,-5.25291775345153],[-36.0211521290674,-5.24979576326383],[-36.0229626639957,-5.24728616372545],[-36.0369510824265,-5.24503861494009],[-36.0410409652683,-5.23953316322485],[-36.0561647049371,-5.23702570946886],[-36.0587734844087,-5.23813364994794],[-36.0659342075975,-5.23411867523664],[-36.060969650429,-5.22869888484559],[-36.053950203539,-5.20281331168497],[-36.0550331923279,-5.1803706481868],[-36.048786493302,-5.15581519481533],[-36.0425352356126,-5.10861606148199],[-36.0420675665649,-5.08380613504506],[-36.0335824432751,-5.07381604937114],[-36.0427000102972,-5.06752999871043],[-36.0434999896328,-5.06419018103196],[-36.0380000345739,-5.05246000432567],[-36.03461471617543,-5.0516786553451745],[-35.90826417768263,-5.059505461835442],[-35.9521544455712,-5.23738094797233],[-36.0019485789637,-5.25610928731375]]]}},{"type":"Feature","properties":{"id":"82","arrangementId":"2408102","name":"Natal/RN","state":"RN","municipality":"2407104","population2010":"69467","urbanPopulation2010":"48540","ruralPopulation2010":"20927"},"geometry":{"type":"Polygon","coordinates":[[[-35.4302198613575,-5.84456744722985],[-35.3987011471402,-5.84908850912734],[-35.3986133571207,-5.84520882033075],[-35.3092419418621,-5.83336757105649],[-35.3085003492117,-5.83668222300616],[-35.3045096831753,-5.8395290197484],[-35.298545966623,-5.83881319267466],[-35.2887686191764,-5.83120862887506],[-35.2819698227491,-5.82947252183936],[-35.2807069308801,-5.83654813408908],[-35.2830505974071,-5.83799497508801],[-35.2824141319066,-5.84981716682875],[-35.2960850806619,-5.95823853248226],[-35.3052160035157,-5.95884585095519],[-35.3153587041409,-5.96769833560967],[-35.3297734129126,-5.97422575441499],[-35.3438079413833,-5.97348122008219],[-35.3734400281347,-5.98737635453506],[-35.5467348061663,-6.05395500471962],[-35.5491633192318,-6.04997930430141],[-35.5577291872522,-6.04677659906076],[-35.5374012049016,-5.995684376133],[-35.5556165061968,-5.94849551035947],[-35.5722266921081,-5.93230810203721],[-35.5290102118518,-5.88180856291479],[-35.4875012042171,-5.82968793375108],[-35.4715851132623,-5.83482481721149],[-35.4302198613575,-5.84456744722985]]]}},{"type":"Feature","properties":{"id":"83","arrangementId":"2408102","name":"Natal/RN","state":"RN","municipality":"2412005","population2010":"87668","urbanPopulation2010":"62193","ruralPopulation2010":"25475"},"geometry":{"type":"Polygon","coordinates":[[[-35.2865742814778,-5.76349990049994],[-35.2515162907442,-5.77659596213392],[-35.2485467931999,-5.77961972836773],[-35.2481056361661,-5.78392998108371],[-35.2511044767901,-5.78796054734136],[-35.2522821920695,-5.79819668123179],[-35.2555439324065,-5.80502855022735],[-35.2612383451735,-5.81002874483068],[-35.2668901084917,-5.81156675640062],[-35.2744517602405,-5.8169925443704],[-35.279664329745,-5.81891556919812],[-35.281515411507,-5.82204474406961],[-35.2819698227491,-5.82947252183936],[-35.2887686191764,-5.83120862887506],[-35.298545966623,-5.83881319267466],[-35.3045096831753,-5.8395290197484],[-35.3085003492117,-5.83668222300616],[-35.3092419418621,-5.83336757105649],[-35.3986133571207,-5.84520882033075],[-35.3987011471402,-5.84908850912734],[-35.4302198613575,-5.84456744722985],[-35.4715851132623,-5.83482481721149],[-35.446864189131,-5.73335838378233],[-35.4404955699146,-5.73496689320752],[-35.4321616739221,-5.73270592833586],[-35.409959042176,-5.73780161115536],[-35.3844840733813,-5.73496195592946],[-35.3708722469566,-5.72939898357618],[-35.361034659322,-5.72851145434009],[-35.3463312690728,-5.73090053932839],[-35.3429079070742,-5.7330478146049],[-35.3398250014226,-5.73822865692693],[-35.3323554015805,-5.73496384990171],[-35.3217184560419,-5.73434209281328],[-35.3132127859413,-5.7379697762841],[-35.3042745896006,-5.73087235727343],[-35.2869904526472,-5.72194137079759],[-35.2851557079695,-5.71015990395637],[-35.2806316630208,-5.70523081245199],[-35.2772114432535,-5.70441384492295],[-35.2760148035403,-5.70091241187828],[-35.2694394931381,-5.70184749276752],[-35.2655357267923,-5.70404890992922],[-35.2765002575808,-5.72165431529436],[-35.2859465160188,-5.72654097138866],[-35.2910666109353,-5.73094570777812],[-35.2865742814778,-5.76349990049994]]]}},{"type":"Feature","properties":{"id":"84","arrangementId":"2408102","name":"Natal/RN","state":"RN","municipality":"2403251","population2010":"202456","urbanPopulation2010":"202456","ruralPopulation2010":"0"},"geometry":{"type":"Polygon","coordinates":[[[-35.123547701765,-5.98472213052185],[-35.1297866351451,-5.98212044400322],[-35.1514920650068,-5.9644339269841],[-35.1604537939074,-5.95449274554375],[-35.1756283470705,-5.94705491065554],[-35.1827161721136,-5.93777956837232],[-35.2040499400526,-5.93349425115873],[-35.2120436108239,-5.93475175518933],[-35.2402352165819,-5.94904100134107],[-35.2462399862863,-5.95416436529319],[-35.2506405785998,-5.96209747032197],[-35.2706790610898,-5.9612741212037],[-35.2812196928345,-5.9574088125666],[-35.2960850806619,-5.95823853248226],[-35.2824141319066,-5.84981716682875],[-35.2788120728189,-5.85390278958205],[-35.2653059581035,-5.85637417332941],[-35.2540349986162,-5.86580933503273],[-35.2474163372941,-5.86377765861204],[-35.2428632487399,-5.86491100134158],[-35.2359143122956,-5.87273772376687],[-35.2290912044954,-5.87670636450707],[-35.2250628469728,-5.88109278440442],[-35.2179351666746,-5.86857324575862],[-35.2113406467534,-5.87228857355877],[-35.2123575875326,-5.87427830559926],[-35.2091740450461,-5.87518488697294],[-35.1761952706951,-5.8998176550607],[-35.1551190847779,-5.89792422242488],[-35.1574862550866,-5.92345948716554],[-35.1541823446394,-5.92820118693516],[-35.1543040184157,-5.94011987683081],[-35.1518626180653,-5.95276912739326],[-35.1451139624394,-5.96437365172262],[-35.1385183588351,-5.96708589549764],[-35.133568877002,-5.96555310988805],[-35.1288960662005,-5.96776507160076],[-35.12237074570656,-5.978225511638059],[-35.122370745706554,-5.978225511638078],[-35.1217167801053,-5.98294567360393],[-35.123547701765,-5.98472213052185]]]}},{"type":"Feature","properties":{"id":"85","arrangementId":"2408102","name":"Natal/RN","state":"RN","municipality":"2408102","population2010":"803739","urbanPopulation2010":"803736","ruralPopulation2010":"3"},"geometry":{"type":"Polygon","coordinates":[[[-35.1761952706951,-5.8998176550607],[-35.2091740450461,-5.87518488697294],[-35.2123575875326,-5.87427830559926],[-35.2113406467534,-5.87228857355877],[-35.2179351666746,-5.86857324575862],[-35.2250628469728,-5.88109278440442],[-35.2290912044954,-5.87670636450707],[-35.2359143122956,-5.87273772376687],[-35.2428632487399,-5.86491100134158],[-35.2474163372941,-5.86377765861204],[-35.2540349986162,-5.86580933503273],[-35.2653059581035,-5.85637417332941],[-35.2788120728189,-5.85390278958205],[-35.2819994185383,-5.85064920879393],[-35.2830505974071,-5.83799497508801],[-35.2807069308801,-5.83654813408908],[-35.281515411507,-5.82204474406961],[-35.279664329745,-5.81891556919812],[-35.2744517602405,-5.8169925443704],[-35.2668901084917,-5.81156675640062],[-35.2612383451735,-5.81002874483068],[-35.2555439324065,-5.80502855022735],[-35.2522821920695,-5.79819668123179],[-35.2511044767901,-5.78796054734136],[-35.2481056361661,-5.78392998108371],[-35.2485467931999,-5.77961972836773],[-35.2518560015532,-5.77647769948619],[-35.2865742814778,-5.76349990049994],[-35.2873980119087,-5.76158762526864],[-35.2910666109353,-5.73094570777812],[-35.2859465160188,-5.72654097138866],[-35.2765002575808,-5.72165431529436],[-35.2655357267923,-5.70404890992922],[-35.2546827497091,-5.71009775630637],[-35.2498982745856,-5.71016211448995],[-35.2430485513495,-5.71682729054698],[-35.2371106561318,-5.7145994027402],[-35.2260651054202,-5.72725039439012],[-35.211522394343,-5.73629075281593],[-35.2042460444194,-5.74300705083471],[-35.2025953792733,-5.75027934121858],[-35.200617470194864,-5.752515133492413],[-35.19351770524458,-5.774689348872486],[-35.1918844887781,-5.78217775819696],[-35.19104344142008,-5.782417049625371],[-35.18247038066051,-5.809192710098679],[-35.1795838810912,-5.84630079514551],[-35.1772009852372,-5.85913997712823],[-35.1790664318703,-5.86823204477299],[-35.1742526712238,-5.87808947864648],[-35.1698182841864,-5.88273236900359],[-35.16432742577,-5.88381417698264],[-35.1634615045447,-5.88069737588313],[-35.1615714866348,-5.88022437295638],[-35.159075517901655,-5.882260301664721],[-35.15468974256529,-5.895958096957701],[-35.1551190847779,-5.89792422242488],[-35.1761952706951,-5.8998176550607]]]}},{"type":"Feature","properties":{"id":"86","arrangementId":"2408102","name":"Natal/RN","state":"RN","municipality":"2403608","population2010":"24569","urbanPopulation2010":"16221","ruralPopulation2010":"8348"},"geometry":{"type":"Polygon","coordinates":[[[-35.2149838736891,-5.679692517419556],[-35.20396363569428,-5.741171377041723],[-35.2042460444194,-5.74300705083471],[-35.211522394343,-5.73629075281593],[-35.2260651054202,-5.72725039439012],[-35.2371106561318,-5.7145994027402],[-35.2430485513495,-5.71682729054698],[-35.2498982745856,-5.71016211448995],[-35.2546827497091,-5.71009775630637],[-35.2694394931381,-5.70184749276752],[-35.2760148035403,-5.70091241187828],[-35.2772114432535,-5.70441384492295],[-35.2806316630208,-5.70523081245199],[-35.2851557079695,-5.71015990395637],[-35.2869904526472,-5.72194137079759],[-35.3042745896006,-5.73087235727343],[-35.3132127859413,-5.7379697762841],[-35.3217184560419,-5.73434209281328],[-35.3323554015805,-5.73496384990171],[-35.3398250014226,-5.73822865692693],[-35.3429079070742,-5.7330478146049],[-35.3463312690728,-5.73090053932839],[-35.361034659322,-5.72851145434009],[-35.2848113674506,-5.62429158189093],[-35.2276991196186,-5.61225072898793],[-35.21778908392991,-5.664043025395291],[-35.21778908392988,-5.664043025395441],[-35.2178063154091,-5.67083218036078],[-35.2149838736891,-5.679692517419556]]]}},{"type":"Feature","properties":{"id":"87","arrangementId":"2411502","name":"Santo Antônio/RN","state":"RN","municipality":"2411502","population2010":"22216","urbanPopulation2010":"14280","ruralPopulation2010":"7936"},"geometry":{"type":"Polygon","coordinates":[[[-35.4209384225701,-6.27323113510876],[-35.4255507027027,-6.28057718968552],[-35.4253548564414,-6.31936242603507],[-35.4030446298058,-6.3204602401479],[-35.3884803619791,-6.32284519724801],[-35.4006612312308,-6.34151776063612],[-35.409208391554,-6.38151597198447],[-35.4471482876633,-6.40575516077201],[-35.4473786939715,-6.41441826978729],[-35.4879350650512,-6.40474947320957],[-35.5176141143998,-6.40629729908102],[-35.5442430374861,-6.41737930471113],[-35.555037214196,-6.39101845513755],[-35.5970245766229,-6.3858398925969],[-35.6155498256639,-6.34993370897343],[-35.6271018682565,-6.34099449639882],[-35.6314652942879,-6.33922112325621],[-35.6432257412749,-6.32575644030743],[-35.6416434497854,-6.31843409545707],[-35.639125902938,-6.3153296789215],[-35.6348640922041,-6.31375848506599],[-35.6320116953834,-6.30902205622288],[-35.6217592109188,-6.30649684984968],[-35.616933042326,-6.30909792482931],[-35.6167356150565,-6.31148676520201],[-35.6094870137147,-6.31573623993546],[-35.601889950261,-6.30641349078991],[-35.601000259954,-6.30157242402811],[-35.5935833352027,-6.30020292652381],[-35.5860934304674,-6.30316587700355],[-35.5834678903308,-6.30156388496528],[-35.5800794804836,-6.301860567711],[-35.5749606158397,-6.29706566135116],[-35.5633366373759,-6.29592920067205],[-35.5599992847391,-6.28761232524857],[-35.5565468782358,-6.28465606212751],[-35.5533931024097,-6.28467159431859],[-35.5504864171144,-6.2880786659976],[-35.5478563156165,-6.28563622333298],[-35.5401440660957,-6.28602350108366],[-35.5256167559085,-6.28386996652568],[-35.5192001380759,-6.2861940215368],[-35.5163855406601,-6.28927560608429],[-35.5100997301184,-6.28979797189885],[-35.503123479465,-6.29769413277796],[-35.4690564391033,-6.27360102356836],[-35.4685000114663,-6.23074858078235],[-35.4364251564957,-6.25342645116973],[-35.4209384225701,-6.27323113510876]]]}},{"type":"Feature","properties":{"id":"88","arrangementId":"2411502","name":"Santo Antônio/RN","state":"RN","municipality":"2413508","population2010":"6581","urbanPopulation2010":"2121","ruralPopulation2010":"4460"},"geometry":{"type":"Polygon","coordinates":[[[-35.6586950526345,-6.22075827477455],[-35.6547119310108,-6.22200323236325],[-35.6531582118819,-6.22029983097234],[-35.6480506211392,-6.21931836664925],[-35.6393462251481,-6.21080115015291],[-35.6298446179347,-6.20767604111637],[-35.6262255130969,-6.20285332771886],[-35.6243194045169,-6.2024306310687],[-35.6241139975629,-6.20468160627104],[-35.6218082113798,-6.20521919311124],[-35.6160293118032,-6.19754099462114],[-35.6114298973718,-6.19797624850503],[-35.6103689329798,-6.20131944493636],[-35.6055348341652,-6.20501992133229],[-35.6039155238823,-6.20832127320813],[-35.5938536875976,-6.20914604775186],[-35.5919289666484,-6.21163235215129],[-35.5766150608363,-6.2089326242412],[-35.5677210544831,-6.20574163446884],[-35.4685000114663,-6.23074858078235],[-35.4690564391033,-6.27360102356836],[-35.503123479465,-6.29769413277796],[-35.5100997301184,-6.28979797189885],[-35.5163855406601,-6.28927560608429],[-35.5192001380759,-6.2861940215368],[-35.5256167559085,-6.28386996652568],[-35.5401440660957,-6.28602350108366],[-35.5478563156165,-6.28563622333298],[-35.5504864171144,-6.2880786659976],[-35.5533931024097,-6.28467159431859],[-35.5565468782358,-6.28465606212751],[-35.5599992847391,-6.28761232524857],[-35.5633366373759,-6.29592920067205],[-35.5749606158397,-6.29706566135116],[-35.5800794804836,-6.301860567711],[-35.5834678903308,-6.30156388496528],[-35.5860934304674,-6.30316587700355],[-35.5935833352027,-6.30020292652381],[-35.601000259954,-6.30157242402811],[-35.601889950261,-6.30641349078991],[-35.6094870137147,-6.31573623993546],[-35.6167356150565,-6.31148676520201],[-35.616933042326,-6.30909792482931],[-35.6217592109188,-6.30649684984968],[-35.6320116953834,-6.30902205622288],[-35.6348640922041,-6.31375848506599],[-35.639125902938,-6.3153296789215],[-35.6416434497854,-6.31843409545707],[-35.6432257412749,-6.32575644030743],[-35.6614118280933,-6.26777831351831],[-35.6638733345867,-6.2462039697374],[-35.6659700778567,-6.24256193668396],[-35.6664120784546,-6.2390199855838],[-35.659987306469,-6.22221459912442],[-35.6586950526345,-6.22075827477455]]]}},{"type":"Feature","properties":{"id":"89","arrangementId":"2412203","name":"São José de Mipibu - Nísia Floresta/RN","state":"RN","municipality":"2408201","population2010":"23784","urbanPopulation2010":"9380","ruralPopulation2010":"14404"},"geometry":{"type":"Polygon","coordinates":[[[-35.1111560440162,-6.13458286031073],[-35.1275672018648,-6.14599323000352],[-35.1280693095509,-6.14090556014344],[-35.1316848530735,-6.13670664529542],[-35.1361773390129,-6.13858075959434],[-35.1360611609937,-6.14035398974478],[-35.13841805385,-6.14223573209331],[-35.1453998892934,-6.13604589180443],[-35.1604801593318,-6.13550274535539],[-35.1631408944367,-6.13703752206397],[-35.1628420101506,-6.1386426293538],[-35.1578535966661,-6.14320287651151],[-35.1569129291883,-6.1508102228135],[-35.1754890438842,-6.16494003715298],[-35.1876329626911,-6.16517615595478],[-35.1960174041798,-6.16353849050888],[-35.2135283168783,-6.17434522085523],[-35.2202691061343,-6.17077902133474],[-35.2264375479545,-6.1623695732971],[-35.2292429560975,-6.12237665176104],[-35.2342762916175,-6.11392160090111],[-35.2345490173233,-6.10149729506407],[-35.2260592949005,-6.10663090679089],[-35.2280720073172,-6.07344885867786],[-35.2375448578089,-6.06825208756374],[-35.2356535367812,-6.04893440090183],[-35.229663048311,-6.01988966407669],[-35.2331576447095,-6.00495725337448],[-35.2327284918264,-5.99742949887224],[-35.2291478419993,-5.99137802467607],[-35.2303181738446,-5.97380524671473],[-35.2334423511835,-5.95558517721412],[-35.2353832491376,-5.95168314925787],[-35.2393379359969,-5.95154884989944],[-35.2462399862863,-5.95416436529319],[-35.2402352165819,-5.94904100134107],[-35.2120436108239,-5.93475175518933],[-35.2040499400526,-5.93349425115873],[-35.1827161721136,-5.93777956837232],[-35.1756283470705,-5.94705491065554],[-35.1604537939074,-5.95449274554375],[-35.1514920650068,-5.9644339269841],[-35.1297866351451,-5.98212044400322],[-35.123547701765,-5.98472213052185],[-35.120821015658,-5.982919716572002],[-35.11096838175097,-6.0500620191884265],[-35.09820692919727,-6.137026917841024],[-35.0984318394578,-6.13934184774803],[-35.1111560440162,-6.13458286031073]]]}},{"type":"Feature","properties":{"id":"90","arrangementId":"2412203","name":"São José de Mipibu - Nísia Floresta/RN","state":"RN","municipality":"2412203","population2010":"39776","urbanPopulation2010":"19773","ruralPopulation2010":"20003"},"geometry":{"type":"Polygon","coordinates":[[[-35.352381567855,-6.18196659837975],[-35.3403931858967,-6.16480405965956],[-35.3404579802515,-6.16096359479399],[-35.3424986462954,-6.15690600121093],[-35.3318905357196,-6.1440912619022],[-35.3260596913017,-6.14075596961226],[-35.3236074109532,-6.12544321673101],[-35.3240758920887,-6.11281399407051],[-35.3211667246646,-6.10838855258959],[-35.3153755214631,-6.10683974915504],[-35.314656931672,-6.10293363827674],[-35.3135749807008,-6.10308271709369],[-35.2964363774368,-6.06839049052866],[-35.2983857964673,-6.06634675779657],[-35.3066274211185,-6.06457198261086],[-35.3194685159592,-6.05475646883593],[-35.3194271363532,-6.0490320079208],[-35.3250831174918,-6.0467762456272],[-35.3284744240554,-6.04812274746678],[-35.3533471186745,-6.04988773982729],[-35.3588992847741,-6.05363753594351],[-35.3579340963814,-6.05455062571076],[-35.3605354060841,-6.05696912122789],[-35.3690877599921,-6.05355483248945],[-35.3729140974076,-6.04096485174648],[-35.3691219953838,-6.03896365424919],[-35.3718566691499,-6.03354992079215],[-35.3821223097967,-6.02177128501677],[-35.3822335100684,-6.01789808213073],[-35.374192047525,-6.01293472195983],[-35.3740253473918,-6.00809428112615],[-35.3702645201914,-6.00522456066489],[-35.3726936196148,-5.99237118917898],[-35.371367293166,-5.98795671582974],[-35.3734400281347,-5.98737635453506],[-35.3438079413833,-5.97348122008219],[-35.3297734129126,-5.97422575441499],[-35.3153587041409,-5.96769833560967],[-35.3052160035157,-5.95884585095519],[-35.2812196928345,-5.9574088125666],[-35.2706790610898,-5.9612741212037],[-35.2506405785998,-5.96209747032197],[-35.2462399862863,-5.95416436529319],[-35.2393379359969,-5.95154884989944],[-35.2353832491376,-5.95168314925787],[-35.2334423511835,-5.95558517721412],[-35.2303181738446,-5.97380524671473],[-35.2291478419993,-5.99137802467607],[-35.2327284918264,-5.99742949887224],[-35.2331576447095,-6.00495725337448],[-35.229663048311,-6.01988966407669],[-35.2356535367812,-6.04893440090183],[-35.2375448578089,-6.06825208756374],[-35.2280720073172,-6.07344885867786],[-35.2260592949005,-6.10663090679089],[-35.2345490173233,-6.10149729506407],[-35.2342762916175,-6.11392160090111],[-35.2292429560975,-6.12237665176104],[-35.2264375479545,-6.1623695732971],[-35.2202691061343,-6.17077902133474],[-35.2247694053837,-6.16810640168905],[-35.2388457469336,-6.16460789054167],[-35.2545993124083,-6.16741158907354],[-35.2596926237156,-6.17035057801673],[-35.2980842861608,-6.16125348675894],[-35.2856763551796,-6.20532225092108],[-35.3189557180319,-6.19095864162796],[-35.352381567855,-6.18196659837975]]]}}]}