{"type":"FeatureCollection","features":[{"type":"Feature","properties":{"id":"154","arrangementId":"2706703","name":"Penedo/AL","state":"SE","municipality":"2804409","population2010":"18506","urbanPopulation2010":"10517","ruralPopulation2010":"7989"},"geometry":{"type":"Polygon","coordinates":[[[-36.5619686433382,-10.4044164930267],[-36.5655816642624,-10.4118717981449],[-36.5653103738746,-10.4158091298874],[-36.5630267209064,-10.4196996887895],[-36.5660076929007,-10.4322805261253],[-36.5693666373604,-10.4343342988888],[-36.5757651248606,-10.4353373577328],[-36.5749594806954,-10.438489743207],[-36.5788637902317,-10.4385966528132],[-36.5799602112947,-10.4369123880962],[-36.5808519808342,-10.4390184762216],[-36.5821905929215,-10.4376726200953],[-36.5807743891267,-10.4414387155243],[-36.5818445355968,-10.4419503668159],[-36.5833029364813,-10.4402390675789],[-36.5840244895385,-10.4436853721821],[-36.5865922302472,-10.4448956546107],[-36.5853302017274,-10.4486031529131],[-36.5861950959269,-10.4510328620769],[-36.5886843779816,-10.450105006341],[-36.5907986544343,-10.4453025384813],[-36.5921033638791,-10.4453134940225],[-36.5928379616026,-10.448325653606],[-36.5953867248174,-10.44903848234],[-36.5939628749866,-10.4602632391571],[-36.5961645088849,-10.4616374041428],[-36.5970881881693,-10.4664342098708],[-36.5961610294079,-10.4698318269772],[-36.5974213024511,-10.4700606855521],[-36.6001437067666,-10.4780010660963],[-36.5919236919248,-10.4821032291806],[-36.5956880588568,-10.485540391276],[-36.5966475896145,-10.4898799708839],[-36.6005429212188,-10.4915997588218],[-36.6001493608043,-10.496842495185],[-36.6068226856184,-10.4319919606604],[-36.6095589143124,-10.4263746027057],[-36.6071969474811,-10.4198062449622],[-36.5988129286737,-10.4150926004431],[-36.6127322449971,-10.4116454432825],[-36.6315978451644,-10.4049660075751],[-36.6323274444559,-10.4033659517772],[-36.6354665919096,-10.402334671308],[-36.6447593243832,-10.4016529195466],[-36.6497578552408,-10.3998164868414],[-36.7020598506815,-10.4058990604932],[-36.7330652561566,-10.3588921869248],[-36.7360234717058,-10.3446765871547],[-36.7382931096392,-10.3402238008877],[-36.7379808308506,-10.3349665027019],[-36.7357735689949,-10.3313894735453],[-36.7364614487368,-10.3267817952436],[-36.7384752808095,-10.3256512332178],[-36.7395794989947,-10.321457583001],[-36.7506014820727,-10.3140145671185],[-36.7620851510089,-10.3186783685118],[-36.7634255077809,-10.3162651843907],[-36.7682200301302,-10.3140805827526],[-36.7699122385589,-10.3108024900428],[-36.773545030179,-10.3088860662389],[-36.7779928728727,-10.3088886311054],[-36.7808309893586,-10.3050938401086],[-36.7864514328872,-10.3022734015962],[-36.7935002633265,-10.2917488884004],[-36.7939781756522,-10.2885748076812],[-36.8003706727683,-10.2869957654422],[-36.7989065063302,-10.284742648954],[-36.7993853746353,-10.2825320614055],[-36.8020696602866,-10.2842340841356],[-36.8016620191868,-10.2806895789609],[-36.7990402633974,-10.2789318108543],[-36.7971882751187,-10.2799624384157],[-36.7954905997113,-10.2743854807054],[-36.7872651610583,-10.2622206508623],[-36.7773526212264,-10.2654629640445],[-36.7718679627362,-10.2606201525979],[-36.7596752799901,-10.2545684211956],[-36.7573278659882,-10.257208102272],[-36.7581660404304,-10.2613737709827],[-36.7497239865727,-10.2614555922018],[-36.7397449670565,-10.2714105521552],[-36.7384262713553,-10.2801001902715],[-36.7360558544941,-10.2823530792312],[-36.732001628872,-10.2790647756189],[-36.721165022148,-10.2799739650264],[-36.7136102277298,-10.2832177557947],[-36.7055107265388,-10.2827862934527],[-36.7074388487238,-10.2783978554766],[-36.7024515315129,-10.2735268233042],[-36.7019902575443,-10.2709747110141],[-36.6904156770418,-10.2727226036652],[-36.6851055086123,-10.2752594724466],[-36.6816628723436,-10.2734633176779],[-36.6744592613858,-10.2836682729724],[-36.6528275246705,-10.3225246034277],[-36.5889481977011,-10.3018295636834],[-36.5741789950645,-10.3152526763699],[-36.5661214067775,-10.3281654067081],[-36.5679724264863,-10.3394018241348],[-36.5660764658562,-10.3416756601036],[-36.5657658373235,-10.3452713142197],[-36.5684920313821,-10.3625792868046],[-36.5679300837064,-10.3728519277742],[-36.5617749743356,-10.3840864215511],[-36.5607621083846,-10.393390123955],[-36.5619686433382,-10.4044164930267]]]}},{"type":"Feature","properties":{"id":"156","arrangementId":"2800308","name":"Aracaju/SE","state":"SE","municipality":"2801504","population2010":"13503","urbanPopulation2010":"10716","ruralPopulation2010":"2787"},"geometry":{"type":"Polygon","coordinates":[[[-37.0123461733372,-10.6710547345883],[-37.0111139888195,-10.6408990805281],[-36.991947069002,-10.6316290343524],[-36.9688893195864,-10.6309563036904],[-36.9704973523709,-10.6378842400656],[-36.9672437940658,-10.6426204117026],[-36.9645240796225,-10.6436826971986],[-36.9638741773514,-10.6477974346039],[-36.958141656712,-10.6520488500743],[-36.9488840706433,-10.6505256782174],[-36.9341127411101,-10.6545567067266],[-36.9298491560137,-10.6644299524803],[-36.9295770310551,-10.6713533472791],[-36.9235489158497,-10.6768658901487],[-36.9197484033661,-10.6783079593448],[-36.9092966723035,-10.678103602799],[-36.9079923459699,-10.6816151981828],[-36.9026457945677,-10.6857207939794],[-36.9005306880408,-10.6937476119627],[-36.9030402066402,-10.6922999588759],[-36.9057359613455,-10.6978796972902],[-36.9102441431526,-10.7009876013967],[-36.9122757629161,-10.7006526030352],[-36.9130018953211,-10.705269860016],[-36.9149739781665,-10.7040152275207],[-36.9152863828602,-10.700296117172],[-36.9201875962805,-10.701034424599],[-36.9192929830846,-10.6962233358382],[-36.9175519468648,-10.6946460238948],[-36.9192670763145,-10.692000348837],[-36.9175347976927,-10.6862479540798],[-36.9739558814587,-10.6852117174468],[-37.0113154549442,-10.6757627457541],[-37.0123461733372,-10.6710547345883]]]}},{"type":"Feature","properties":{"id":"157","arrangementId":"2800308","name":"Aracaju/SE","state":"SE","municipality":"2806107","population2010":"9221","urbanPopulation2010":"7223","ruralPopulation2010":"1998"},"geometry":{"type":"Polygon","coordinates":[[[-37.0123461733372,-10.6710547345883],[-37.0113154549442,-10.6757627457541],[-37.0124804259308,-10.6794512710593],[-37.0109136702296,-10.6814117751333],[-37.0126385555249,-10.6831845520254],[-37.0150617508991,-10.6829280653779],[-37.0164201022059,-10.6848354348074],[-37.0128236422972,-10.689964413227],[-37.0102161524534,-10.6901286887879],[-37.0056817715964,-10.6964743195342],[-36.9922444289372,-10.7033010911724],[-36.9806500723429,-10.7007719736476],[-36.9753587590994,-10.7012927512594],[-36.974256025695,-10.7038186393187],[-36.970591759602,-10.7048446677472],[-36.9704015754723,-10.7066083219165],[-36.9615452956788,-10.7050076932504],[-36.9508388901026,-10.7135843630279],[-36.963883447563,-10.7274037116119],[-36.9689441701373,-10.730577805821],[-36.9715718182848,-10.7350288474033],[-36.9759510894712,-10.7362225966954],[-36.978159131039,-10.7388198756367],[-36.9862773462225,-10.7368283242677],[-36.9957065121458,-10.7309711306131],[-37.0108920496284,-10.7332747773091],[-37.0131843154038,-10.7307170082833],[-37.0161784804525,-10.721754604891],[-37.026648910219,-10.7284229672461],[-37.0594460251139,-10.7418393062389],[-37.0624184094819,-10.7450112339812],[-37.0702683227249,-10.7492227834047],[-37.0618822201883,-10.7141583715116],[-37.0525670406363,-10.7042456572113],[-37.0532564932925,-10.702050502029],[-37.0564679939027,-10.7008501130422],[-37.0594815591266,-10.6922466605549],[-37.064361010752,-10.6907220857556],[-37.0691317496305,-10.6917278407672],[-37.0702322194413,-10.6881954494604],[-37.0754627025416,-10.6847814503037],[-37.0849122911692,-10.6866373982973],[-37.0893710534313,-10.683187136677],[-37.0929699226238,-10.6737210688722],[-37.0920891140213,-10.6699897808037],[-37.0930119389498,-10.667137333621],[-37.0909808497863,-10.6649446722588],[-37.0915241823951,-10.6619874225814],[-37.0891376083139,-10.6577699097535],[-37.0906620572081,-10.6551354078727],[-37.0891154733004,-10.6482601717695],[-37.0928406909451,-10.6413061766387],[-37.0758552422256,-10.6322449620353],[-37.0736388819288,-10.6158444539584],[-37.036192747797,-10.6255812752556],[-37.0111139888195,-10.6408990805281],[-37.0123461733372,-10.6710547345883]]]}},{"type":"Feature","properties":{"id":"158","arrangementId":"2800308","name":"Aracaju/SE","state":"SE","municipality":"2806701","population2010":"78864","urbanPopulation2010":"67540","ruralPopulation2010":"11324"},"geometry":{"type":"Polygon","coordinates":[[[-37.1616349774722,-10.9231841650172],[-37.1586358634543,-10.9238938074532],[-37.1537154000456,-10.9223083827257],[-37.1496834605232,-10.9276183236267],[-37.1460463386675,-10.9286864565147],[-37.1298903094901,-10.9213619209159],[-37.1073824019762,-10.9148620690292],[-37.102062382373,-10.9171321332413],[-37.0913903722678,-10.940963421025],[-37.1391435698198,-11.0628591948959],[-37.1416571074895,-11.0633447343719],[-37.1446130909214,-11.0589606284302],[-37.1491444554522,-11.0557974438969],[-37.1570738040128,-11.0550775473909],[-37.1610523543826,-11.0583651144584],[-37.1728727169023,-11.0765795946725],[-37.1736913400832,-11.0803450812604],[-37.172288798789,-11.0836631991973],[-37.1621306936765,-11.0938162546164],[-37.1626455294676,-11.1007709017556],[-37.1663877586881,-11.1053587661941],[-37.1834520320856,-11.0936954226056],[-37.2020260243815,-11.0877304721835],[-37.2192181993603,-11.0765137723926],[-37.2247031033655,-11.0661305795625],[-37.2255580465666,-11.0433862016119],[-37.2271831304971,-11.040608319918],[-37.2503276033362,-11.0351702121355],[-37.2612618287703,-11.0345311601848],[-37.2656594874953,-11.0308772497852],[-37.2726047538063,-11.0282066446209],[-37.2779014485929,-11.0298216282655],[-37.2827035135563,-11.0257682713886],[-37.2845552698098,-11.0266228845384],[-37.2850616789533,-11.023830675745],[-37.2870853657969,-11.0240036405555],[-37.2880292087809,-11.020994351608],[-37.2915854420145,-11.0206481144189],[-37.2948612243659,-11.018016410329],[-37.2955136942016,-11.0156206208949],[-37.2974099363195,-11.015273996098],[-37.2943616770497,-11.0144278239848],[-37.2972366234713,-11.0128068427616],[-37.2991171373459,-11.0095491538703],[-37.3020011516318,-11.0086732681568],[-37.3006341803231,-11.0047416030425],[-37.3011006523732,-10.9996104320757],[-37.3026466283392,-10.9947278876819],[-37.3054319941911,-10.9920207997201],[-37.302884526,-10.9868043334532],[-37.3086283628086,-10.9827849736476],[-37.3199263577152,-10.9808825262076],[-37.3251544666053,-10.9766330640646],[-37.3279273120957,-10.9762920870102],[-37.3260487254682,-10.9708686327811],[-37.323777694485,-10.9710873730838],[-37.3232951803283,-10.9698457043157],[-37.3270073191324,-10.968398162745],[-37.3275863359406,-10.9653551096506],[-37.3324973807495,-10.9633639863588],[-37.3317618873012,-10.9594139211155],[-37.3331788699089,-10.9505211324442],[-37.3366608928858,-10.944642325383],[-37.3335780420929,-10.9426035659018],[-37.3310260889828,-10.9373611317108],[-37.3180827070513,-10.8322024362934],[-37.3158744937129,-10.8340850302999],[-37.3093096936874,-10.8330834976053],[-37.3040518217342,-10.8391862034804],[-37.3000087764838,-10.8474908921909],[-37.2913373640281,-10.8524992130682],[-37.2862763185972,-10.8505831346039],[-37.2825913501107,-10.8522680018667],[-37.2724400906376,-10.8521840177781],[-37.2670020916731,-10.8470278852287],[-37.2605868003405,-10.8530792344191],[-37.2587110249938,-10.8526934360532],[-37.2542569976623,-10.8557754288929],[-37.2509362797854,-10.8550619040836],[-37.2461594012353,-10.8650013021683],[-37.2415305861676,-10.8669695404119],[-37.2403065468096,-10.8689369665677],[-37.227816419592,-10.8720348828036],[-37.2229076527659,-10.8744850596377],[-37.2190388241823,-10.8788080440559],[-37.2178846234766,-10.8774384116533],[-37.2079312364374,-10.8758249289772],[-37.2057908436724,-10.8774832500519],[-37.2019895964427,-10.8876426789664],[-37.1983515869561,-10.8906019575143],[-37.190909607992,-10.8873883219135],[-37.1878810321838,-10.8883927198481],[-37.1841879095443,-10.8960800725373],[-37.1738906442378,-10.8995895904872],[-37.1736097068224,-10.9033774153354],[-37.1710614121544,-10.9079925364264],[-37.1719032477366,-10.9131017396535],[-37.1685708206868,-10.9135013192305],[-37.1622473159608,-10.9210363852209],[-37.1616349774722,-10.9231841650172]]]}},{"type":"Feature","properties":{"id":"159","arrangementId":"2800308","name":"Aracaju/SE","state":"SE","municipality":"2800308","population2010":"571149","urbanPopulation2010":"569744","ruralPopulation2010":"1405"},"geometry":{"type":"Polygon","coordinates":[[[-37.1645136461878,-11.1503377324004],[-37.1655371178436,-11.1433201866772],[-37.1642644458474,-11.1169156687231],[-37.1663877586881,-11.1053587661941],[-37.1626455294676,-11.1007709017556],[-37.1621306936765,-11.0938162546164],[-37.172288798789,-11.0836631991973],[-37.1736913400832,-11.0803450812604],[-37.1728727169023,-11.0765795946725],[-37.1610523543826,-11.0583651144584],[-37.1570738040128,-11.0550775473909],[-37.1491444554522,-11.0557974438969],[-37.1446130909214,-11.0589606284302],[-37.1416571074895,-11.0633447343719],[-37.1391435698198,-11.0628591948959],[-37.0913903722678,-10.940963421025],[-37.1075174028059,-10.9047974187658],[-37.1028064121861,-10.8962440216442],[-37.1027685471307,-10.89211274121],[-37.1051942624052,-10.8903379291521],[-37.1037955333372,-10.8859089650267],[-37.0992071122184,-10.8869291307747],[-37.0967206081695,-10.8853137190528],[-37.0973247088682,-10.8823525231504],[-37.1033278552962,-10.8774270244376],[-37.102680614119,-10.8756512815813],[-37.0925199585292,-10.8742504525963],[-37.0818127858313,-10.8625048156447],[-37.0774301763615,-10.8628570737949],[-37.0723273268446,-10.8657176895197],[-37.0704551964501,-10.8738594183774],[-37.0677387699283,-10.8767529897587],[-37.0660588651245,-10.8763175587083],[-37.0591999022536,-10.8664304723883],[-37.0524570517515,-10.8626816916067],[-37.03941688658,-10.8654732088215],[-37.0339090525607,-10.8700841264812],[-37.0352839352054,-10.8751910157527],[-37.0434926131935,-10.8897513760251],[-37.0444866518375,-10.9041933162685],[-37.0398453056163,-10.9257943474311],[-37.0390766397751,-10.9453410950155],[-37.03457361949886,-10.957269094641054],[-37.0346,-10.9573],[-37.07708803565417,-11.029696210876958],[-37.1203743454996,-11.0931354615323],[-37.139641376948,-11.1259493595753],[-37.14838776089844,-11.15118523395789],[-37.15438925174977,-11.161411293848854],[-37.1576651505262,-11.1592539663974],[-37.1645136461878,-11.1503377324004]]]}},{"type":"Feature","properties":{"id":"160","arrangementId":"2800308","name":"Aracaju/SE","state":"SE","municipality":"2800605","population2010":"24976","urbanPopulation2010":"20886","ruralPopulation2010":"4090"},"geometry":{"type":"Polygon","coordinates":[[[-37.0390766397751,-10.9453410950155],[-37.0398453056163,-10.9257943474311],[-37.0444866518375,-10.9041933162685],[-37.0434926131935,-10.8897513760251],[-37.0398172998285,-10.8840954416513],[-37.0315785485112,-10.8863853799813],[-37.0280467102874,-10.8852104705867],[-37.0241669234647,-10.8773648686937],[-37.0183771582792,-10.8769430093124],[-37.0164352764668,-10.8749581174232],[-37.0156542656318,-10.8643621692787],[-37.0092154012697,-10.8648508851602],[-37.0060915809617,-10.8593456636714],[-37.0016744321293,-10.8617546389653],[-36.9957878009662,-10.8588174072975],[-36.9951564211319,-10.8571540940861],[-36.9976062274454,-10.8529928077718],[-36.9951482103216,-10.8477889643892],[-36.9940486470274,-10.8473547096521],[-36.9939827986672,-10.8501237042455],[-36.9913718455342,-10.8523018748316],[-36.9832695366597,-10.8489564813565],[-36.9816677811431,-10.8462294311433],[-36.9819385643132,-10.8434185038608],[-36.9839408526881,-10.8397034575485],[-36.9884055729588,-10.8367361129812],[-36.9846109420413,-10.8320861449596],[-36.9833787404365,-10.8322483691669],[-36.9838707694204,-10.8354435551759],[-36.9826753842615,-10.835838661525],[-36.9803787648681,-10.8350571137947],[-36.978903249885,-10.8323941996326],[-36.9689642178244,-10.8332635913416],[-36.9652761008114,-10.8196834075632],[-36.9602626771808,-10.8171910750081],[-36.961640172356,-10.8114699505777],[-36.9599981398023,-10.8078574926291],[-36.9570292996624,-10.809175343867],[-36.9475928582238,-10.7985884986603],[-36.9394526303346,-10.7960405376406],[-36.937683582931,-10.7928818317311],[-36.9373224358816,-10.787272501125],[-36.9347266327279,-10.7891412473706],[-36.9330661928505,-10.7869822890014],[-36.9289525085514,-10.7905127539604],[-36.9274974801245,-10.7870887129737],[-36.9260754514209,-10.788677426522],[-36.9248759302799,-10.7863571549587],[-36.9214262819973,-10.7855192763935],[-36.9138376757681,-10.7797259094231],[-36.9055884455503,-10.7772037157788],[-36.9039595430984,-10.7735903315285],[-36.8994179946447,-10.7725714967771],[-36.8865094245702,-10.7552058353809],[-36.8812643418758,-10.7430890284359],[-36.8758277485517,-10.7385965002283],[-36.8694622517814,-10.7440697517176],[-36.8663508942783,-10.7418764572327],[-36.8540646316774,-10.743593716277],[-36.9374967244942,-10.8315404201542],[-36.983559909762,-10.8887975793448],[-37.0103320193072,-10.9239386764287],[-37.02128426800485,-10.941700316172806],[-37.02128426800486,-10.941700316172822],[-37.0348742931141,-10.9570197081929],[-37.0390766397751,-10.9453410950155]]]}},{"type":"Feature","properties":{"id":"161","arrangementId":"2800308","name":"Aracaju/SE","state":"SE","municipality":"2802502","population2010":"2929","urbanPopulation2010":"1843","ruralPopulation2010":"1086"},"geometry":{"type":"Polygon","coordinates":[[[-36.9739558814587,-10.6852117174468],[-36.9175347976927,-10.6862479540798],[-36.9358152000114,-10.6965532296478],[-36.9431397374089,-10.7066915101051],[-36.9508388901026,-10.7135843630279],[-36.9615452956788,-10.7050076932504],[-36.9704015754723,-10.7066083219165],[-36.970591759602,-10.7048446677472],[-36.974256025695,-10.7038186393187],[-36.9753587590994,-10.7012927512594],[-36.9806500723429,-10.7007719736476],[-36.9922444289372,-10.7033010911724],[-37.0056817715964,-10.6964743195342],[-37.0102161524534,-10.6901286887879],[-37.0128236422972,-10.689964413227],[-37.0164201022059,-10.6848354348074],[-37.0150617508991,-10.6829280653779],[-37.0126385555249,-10.6831845520254],[-37.0109136702296,-10.6814117751333],[-37.0124804259308,-10.6794512710593],[-37.0113154549442,-10.6757627457541],[-36.9739558814587,-10.6852117174468]]]}},{"type":"Feature","properties":{"id":"162","arrangementId":"2800308","name":"Aracaju/SE","state":"SE","municipality":"2802007","population2010":"4326","urbanPopulation2010":"2099","ruralPopulation2010":"2227"},"geometry":{"type":"Polygon","coordinates":[[[-37.1944670975785,-10.6784864486906],[-37.19299212039,-10.6769207523907],[-37.1909261447258,-10.6691293148659],[-37.1940054369014,-10.6680759371548],[-37.1887128439226,-10.6620143500821],[-37.1898201764599,-10.6581270368333],[-37.1812953714842,-10.6551012938896],[-37.1808029656843,-10.6532684377881],[-37.184004520692,-10.6491033806165],[-37.1809841547949,-10.6446228430697],[-37.1817953819512,-10.6417935633223],[-37.186440209448,-10.6392963555423],[-37.1878610384561,-10.6350175934871],[-37.1936513432349,-10.6272537030959],[-37.1960304286613,-10.6263679428263],[-37.2033714290482,-10.6284520191453],[-37.2050406058393,-10.6248903603018],[-37.2028461979936,-10.614607193667],[-37.204910964969,-10.6094701834022],[-37.2072712617593,-10.6075932866008],[-37.1779014353029,-10.625476523123],[-37.150495906261,-10.6208491811448],[-37.1520653905053,-10.6231238390939],[-37.1575101550695,-10.6252002010284],[-37.1589045242244,-10.6277891351604],[-37.150846033018,-10.6284348007254],[-37.1494357188833,-10.6246209144236],[-37.1433828048725,-10.6252299380112],[-37.1460287910958,-10.6364490066163],[-37.1423649791604,-10.644546702868],[-37.1328915890755,-10.6515679897709],[-37.1270803831531,-10.6480409818058],[-37.1203256571034,-10.6485213681665],[-37.1124515161245,-10.6471593692095],[-37.1096035187873,-10.6446153310326],[-37.0999884953727,-10.6446277317843],[-37.09430866871,-10.6386121351419],[-37.0891154733004,-10.6482601717695],[-37.0906620572081,-10.6551354078727],[-37.1154997708976,-10.6849314958918],[-37.1215581599811,-10.7027312033823],[-37.1425670604215,-10.7004703895968],[-37.1453073567491,-10.7133933785016],[-37.1470823082019,-10.7158914541273],[-37.1468402907467,-10.7198539201223],[-37.150837744866,-10.7203970458869],[-37.1540620850971,-10.7263192569281],[-37.1511752856109,-10.7335842349245],[-37.1510609368127,-10.7385457047204],[-37.1583278213718,-10.742276141131],[-37.1572188403771,-10.7431464222696],[-37.1582644452479,-10.7434519633374],[-37.1574141848167,-10.747250917296],[-37.1584551177095,-10.749789359891],[-37.1613708142116,-10.751420988188],[-37.1638761446683,-10.7437909349037],[-37.1609680977994,-10.7366907927458],[-37.1719524685316,-10.7341649379615],[-37.1682547611483,-10.7274347607056],[-37.1711579022154,-10.7239593819199],[-37.1733311130404,-10.7240264002981],[-37.1791463650127,-10.7174614195089],[-37.1812471570306,-10.7198941701798],[-37.1832485074127,-10.7180013796599],[-37.1855364726301,-10.7247360544253],[-37.1876368050944,-10.7244143804193],[-37.1918288500214,-10.7283001234519],[-37.196996122473,-10.7273516219797],[-37.2001176621004,-10.7239669730973],[-37.2078453880542,-10.7261093812429],[-37.2074097627503,-10.722959758486],[-37.203498949317,-10.7204719881917],[-37.1982508493971,-10.720176757851],[-37.2028230287597,-10.7156861550919],[-37.2016366494118,-10.712657462372],[-37.2025038449764,-10.710796472779],[-37.2069645974382,-10.7066358402718],[-37.2034785014317,-10.7021899931736],[-37.2044282952296,-10.7012605357451],[-37.2034862257087,-10.698076164983],[-37.1994107787844,-10.6961489969786],[-37.197038219738,-10.6927803830082],[-37.1998465551744,-10.6897917388976],[-37.1984088144152,-10.6824208459452],[-37.1997062501433,-10.6771683600318],[-37.1944670975785,-10.6784864486906]]]}},{"type":"Feature","properties":{"id":"163","arrangementId":"2800308","name":"Aracaju/SE","state":"SE","municipality":"2804003","population2010":"16343","urbanPopulation2010":"11143","ruralPopulation2010":"5200"},"geometry":{"type":"Polygon","coordinates":[[[-37.0891376083139,-10.6577699097535],[-37.0915241823951,-10.6619874225814],[-37.0909808497863,-10.6649446722588],[-37.0930119389498,-10.667137333621],[-37.0920891140213,-10.6699897808037],[-37.0929699226238,-10.6737210688722],[-37.0893710534313,-10.683187136677],[-37.0849122911692,-10.6866373982973],[-37.0754627025416,-10.6847814503037],[-37.0702322194413,-10.6881954494604],[-37.0691317496305,-10.6917278407672],[-37.064361010752,-10.6907220857556],[-37.0594815591266,-10.6922466605549],[-37.0564679939027,-10.7008501130422],[-37.0532564932925,-10.702050502029],[-37.0525670406363,-10.7042456572113],[-37.0618822201883,-10.7141583715116],[-37.0702683227249,-10.7492227834047],[-37.0716474924378,-10.7611214606868],[-37.0695918679703,-10.7694076485441],[-37.0719206920862,-10.7707431345879],[-37.0753501793673,-10.77916763278],[-37.0806313347682,-10.7784656696549],[-37.088178252924,-10.7831767726898],[-37.0934507037869,-10.7780205142353],[-37.1029549109404,-10.7747855278298],[-37.1085175829201,-10.7765474732872],[-37.1223546427525,-10.7862643701046],[-37.1272201009269,-10.7857627084821],[-37.1344095799381,-10.776600580952],[-37.1314991714495,-10.7693587164316],[-37.1381898450853,-10.7655459416918],[-37.1412026800596,-10.7653804493482],[-37.1473328233511,-10.769899844802],[-37.1500065698473,-10.7701676431222],[-37.1529106507059,-10.7674813681705],[-37.1613708142116,-10.751420988188],[-37.1584551177095,-10.749789359891],[-37.1574141848167,-10.747250917296],[-37.1582644452479,-10.7434519633374],[-37.1572188403771,-10.7431464222696],[-37.1583278213718,-10.742276141131],[-37.1510609368127,-10.7385457047204],[-37.1511752856109,-10.7335842349245],[-37.1540620850971,-10.7263192569281],[-37.150837744866,-10.7203970458869],[-37.1468402907467,-10.7198539201223],[-37.1470823082019,-10.7158914541273],[-37.1453073567491,-10.7133933785016],[-37.1425670604215,-10.7004703895968],[-37.1215581599811,-10.7027312033823],[-37.1154997708976,-10.6849314958918],[-37.0906620572081,-10.6551354078727],[-37.0891376083139,-10.6577699097535]]]}},{"type":"Feature","properties":{"id":"164","arrangementId":"2800308","name":"Aracaju/SE","state":"SE","municipality":"2807204","population2010":"8004","urbanPopulation2010":"3489","ruralPopulation2010":"4515"},"geometry":{"type":"Polygon","coordinates":[[[-37.2055677452552,-10.6025758007326],[-37.2020212381896,-10.6018960220837],[-37.2007315519195,-10.5978375786413],[-37.1972197703761,-10.5967190324573],[-37.194639688271,-10.5923025886935],[-37.1888553397021,-10.5906035885847],[-37.1867750989916,-10.5856620216849],[-37.1758384229049,-10.5796959345197],[-37.1722225475325,-10.5716062116573],[-37.1808145417576,-10.56280240101],[-37.1396678457944,-10.5070333958745],[-37.1380976681728,-10.4705647141902],[-37.133330910593,-10.4733775903035],[-37.1303227493953,-10.4731559415934],[-37.1268031779243,-10.4757948789304],[-37.1233182402445,-10.4760361976124],[-37.1148970335712,-10.4828466294683],[-37.1136432095664,-10.492663438267],[-37.1056837849786,-10.5030879927167],[-37.1028619947852,-10.5106691534586],[-37.104925723943,-10.5231280283358],[-37.1039918715276,-10.528806113911],[-37.1071840358146,-10.5311576216269],[-37.08037373476,-10.5273736971384],[-37.0673039773966,-10.5300288150777],[-37.0694471265836,-10.5454856141697],[-37.0719724552645,-10.5480888142473],[-37.0707896875939,-10.5515627748022],[-37.0739295994714,-10.5577307165992],[-37.0739223914052,-10.56593249319],[-37.070367159117,-10.5734999437673],[-37.0725192565584,-10.5767313202941],[-37.075035346504,-10.5777442114262],[-37.0759733340021,-10.5824799289056],[-37.0781042658991,-10.585323869401],[-37.0774605194873,-10.5895621116021],[-37.0682123673068,-10.5916975679883],[-37.0665899579602,-10.5952085185583],[-37.0666703429619,-10.6068434930327],[-37.0736388819288,-10.6158444539584],[-37.0758552422256,-10.6322449620353],[-37.0928406909451,-10.6413061766387],[-37.09430866871,-10.6386121351419],[-37.0999884953727,-10.6446277317843],[-37.1096035187873,-10.6446153310326],[-37.1124515161245,-10.6471593692095],[-37.1203256571034,-10.6485213681665],[-37.1270803831531,-10.6480409818058],[-37.1328915890755,-10.6515679897709],[-37.1423649791604,-10.644546702868],[-37.1460287910958,-10.6364490066163],[-37.1433828048725,-10.6252299380112],[-37.1494357188833,-10.6246209144236],[-37.150846033018,-10.6284348007254],[-37.1589045242244,-10.6277891351604],[-37.1575101550695,-10.6252002010284],[-37.1520653905053,-10.6231238390939],[-37.150495906261,-10.6208491811448],[-37.1779014353029,-10.625476523123],[-37.2072712617593,-10.6075932866008],[-37.2055677452552,-10.6025758007326]]]}},{"type":"Feature","properties":{"id":"165","arrangementId":"2800308","name":"Aracaju/SE","state":"SE","municipality":"2805901","population2010":"9355","urbanPopulation2010":"8113","ruralPopulation2010":"1242"},"geometry":{"type":"Polygon","coordinates":[[[-37.2819235270491,-10.7168057804624],[-37.2766033428699,-10.7114880919019],[-37.2719184514753,-10.7151916376839],[-37.2656190305938,-10.7130166174229],[-37.2656482630568,-10.7079420884565],[-37.2585593534314,-10.7023857683885],[-37.2570085517033,-10.7050779680737],[-37.25382592023,-10.7041131466044],[-37.2515372733264,-10.7052311630877],[-37.2517716888124,-10.7075155490034],[-37.2502487849534,-10.7092250271133],[-37.2481775734362,-10.706979698754],[-37.2456980535223,-10.7066465404055],[-37.239141073102,-10.7086600667087],[-37.2374093232816,-10.7074719094011],[-37.2369841139257,-10.7038357390281],[-37.2344688765374,-10.7051713195007],[-37.2308425231639,-10.7025511114446],[-37.2269379959917,-10.70818418775],[-37.2261069963408,-10.7059465674801],[-37.2243984364387,-10.7057895953136],[-37.2245301151726,-10.7038503368236],[-37.2328339953925,-10.696794711107],[-37.2292068335285,-10.691385412207],[-37.230416032274,-10.6882744225266],[-37.2282520754729,-10.6848677393546],[-37.231444354873,-10.6815217424344],[-37.2304106858045,-10.6762672789117],[-37.2318262519799,-10.6744097687957],[-37.1997062501433,-10.6771683600318],[-37.1984088144152,-10.6824208459452],[-37.1998465551744,-10.6897917388976],[-37.197038219738,-10.6927803830082],[-37.1994107787844,-10.6961489969786],[-37.2034862257087,-10.698076164983],[-37.2044282952296,-10.7012605357451],[-37.2034785014317,-10.7021899931736],[-37.2069645974382,-10.7066358402718],[-37.2025038449764,-10.710796472779],[-37.2016366494118,-10.712657462372],[-37.2028230287597,-10.7156861550919],[-37.1982508493971,-10.720176757851],[-37.203498949317,-10.7204719881917],[-37.2074097627503,-10.722959758486],[-37.2078453880542,-10.7261093812429],[-37.2001176621004,-10.7239669730973],[-37.196996122473,-10.7273516219797],[-37.1918288500214,-10.7283001234519],[-37.1876368050944,-10.7244143804193],[-37.1855364726301,-10.7247360544253],[-37.1832485074127,-10.7180013796599],[-37.1812471570306,-10.7198941701798],[-37.1791463650127,-10.7174614195089],[-37.1733311130404,-10.7240264002981],[-37.1711579022154,-10.7239593819199],[-37.1682547611483,-10.7274347607056],[-37.1719524685316,-10.7341649379615],[-37.1609680977994,-10.7366907927458],[-37.1638761446683,-10.7437909349037],[-37.1613708142116,-10.751420988188],[-37.2162955376089,-10.7664299779611],[-37.218055415525,-10.7655462672464],[-37.2210349980667,-10.7596082128487],[-37.2238139463565,-10.7597542960239],[-37.2289402924605,-10.7615007767394],[-37.2344223258297,-10.7660429214436],[-37.241033986829,-10.7756951597038],[-37.2429867783171,-10.7756862303352],[-37.245595720566,-10.7783565971792],[-37.2732908070251,-10.7523455569019],[-37.2709374943698,-10.7498433965554],[-37.2725341084623,-10.7468240981536],[-37.2814811289509,-10.7405985412896],[-37.2838209409836,-10.7326538934624],[-37.2802147558063,-10.7262827399564],[-37.2830227117287,-10.7215320496643],[-37.2819235270491,-10.7168057804624]]]}},{"type":"Feature","properties":{"id":"166","arrangementId":"2800308","name":"Aracaju/SE","state":"SE","municipality":"2804805","population2010":"160827","urbanPopulation2010":"157645","ruralPopulation2010":"3182"},"geometry":{"type":"Polygon","coordinates":[[[-37.1959909933896,-10.8526287181408],[-37.1937999382166,-10.8514016993289],[-37.1902477276505,-10.8538367216873],[-37.1877753861251,-10.8528282875953],[-37.1791006641643,-10.8551802054021],[-37.1770187228357,-10.8517305553208],[-37.1772422106595,-10.8472741852554],[-37.1737431257446,-10.842074888845],[-37.1692346057924,-10.8400258959783],[-37.167142217939,-10.8409562545275],[-37.166922253659,-10.8392364324154],[-37.1578395992181,-10.8360060937062],[-37.1585839707736,-10.833813354103],[-37.1570024877745,-10.8319977164214],[-37.1526072311387,-10.8323418294119],[-37.1515836335778,-10.8346791943893],[-37.1477287372913,-10.8350289173506],[-37.1418701272046,-10.8320271314469],[-37.1378366759218,-10.8349231354943],[-37.1332367129039,-10.8350608055117],[-37.1179219527359,-10.8320264065933],[-37.1116262523496,-10.8292629230454],[-37.1088493742992,-10.8267762849975],[-37.1073431195892,-10.8211981105043],[-37.1014778122512,-10.8181254715133],[-37.0911442017435,-10.8234094363963],[-37.0843053576061,-10.8218746030304],[-37.0755964191394,-10.8234040683431],[-37.0572626222722,-10.8229906167235],[-37.045781262795,-10.8258827303037],[-37.0382485413371,-10.8311233838371],[-37.0309610775916,-10.8399770448048],[-37.0283527423851,-10.84737458377],[-37.0339090525607,-10.8700841264812],[-37.03941688658,-10.8654732088215],[-37.0524570517515,-10.8626816916067],[-37.0591999022536,-10.8664304723883],[-37.0660588651245,-10.8763175587083],[-37.0677387699283,-10.8767529897587],[-37.0704551964501,-10.8738594183774],[-37.0723273268446,-10.8657176895197],[-37.0774301763615,-10.8628570737949],[-37.0818127858313,-10.8625048156447],[-37.0925199585292,-10.8742504525963],[-37.102680614119,-10.8756512815813],[-37.1033278552962,-10.8774270244376],[-37.0973247088682,-10.8823525231504],[-37.0967206081695,-10.8853137190528],[-37.0992071122184,-10.8869291307747],[-37.1037955333372,-10.8859089650267],[-37.1051942624052,-10.8903379291521],[-37.1027685471307,-10.89211274121],[-37.1025440520663,-10.8957904215906],[-37.1075174028059,-10.9047974187658],[-37.102062382373,-10.9171321332413],[-37.1073824019762,-10.9148620690292],[-37.1135938997386,-10.916053105966],[-37.1298903094901,-10.9213619209159],[-37.1460463386675,-10.9286864565147],[-37.1496834605232,-10.9276183236267],[-37.1537154000456,-10.9223083827257],[-37.1586358634543,-10.9238938074532],[-37.1616349774722,-10.9231841650172],[-37.1685708206868,-10.9135013192305],[-37.1719032477366,-10.9131017396535],[-37.1710614121544,-10.9079925364264],[-37.1736097068224,-10.9033774153354],[-37.1738906442378,-10.8995895904872],[-37.1841879095443,-10.8960800725373],[-37.1878810321838,-10.8883927198481],[-37.190909607992,-10.8873883219135],[-37.1983515869561,-10.8906019575143],[-37.2019895964427,-10.8876426789664],[-37.2057908436724,-10.8774832500519],[-37.2079312364374,-10.8758249289772],[-37.2178846234766,-10.8774384116533],[-37.2190388241823,-10.8788080440559],[-37.2229076527659,-10.8744850596377],[-37.227816419592,-10.8720348828036],[-37.2403065468096,-10.8689369665677],[-37.2415305861676,-10.8669695404119],[-37.2461594012353,-10.8650013021683],[-37.2509362797854,-10.8550619040836],[-37.2542569976623,-10.8557754288929],[-37.2587110249938,-10.8526934360532],[-37.2605868003405,-10.8530792344191],[-37.2670020916731,-10.8470278852287],[-37.2724400906376,-10.8521840177781],[-37.2825913501107,-10.8522680018667],[-37.2862763185972,-10.8505831346039],[-37.2913373640281,-10.8524992130682],[-37.3000087764838,-10.8474908921909],[-37.3040518217342,-10.8391862034804],[-37.3093096936874,-10.8330834976053],[-37.3158744937129,-10.8340850302999],[-37.3180827070513,-10.8322024362934],[-37.2436229074711,-10.8339360980724],[-37.2394732350018,-10.8364445545725],[-37.2315601758614,-10.83666210777],[-37.21494749613,-10.8481225166408],[-37.2084128305876,-10.8465332751904],[-37.2035607974927,-10.8486296785168],[-37.2014410720478,-10.8476814135664],[-37.2003979771849,-10.8500763981073],[-37.1963872023075,-10.851292958703],[-37.1959909933896,-10.8526287181408]]]}},{"type":"Feature","properties":{"id":"167","arrangementId":"2800308","name":"Aracaju/SE","state":"SE","municipality":"2803609","population2010":"26902","urbanPopulation2010":"20559","ruralPopulation2010":"6343"},"geometry":{"type":"Polygon","coordinates":[[[-37.2003979771849,-10.8500763981073],[-37.2014410720478,-10.8476814135664],[-37.2035607974927,-10.8486296785168],[-37.2084128305876,-10.8465332751904],[-37.21494749613,-10.8481225166408],[-37.2315601758614,-10.83666210777],[-37.2394732350018,-10.8364445545725],[-37.2436229074711,-10.8339360980724],[-37.317672341905,-10.8316402116264],[-37.2429867783171,-10.7756862303352],[-37.241033986829,-10.7756951597038],[-37.2344223258297,-10.7660429214436],[-37.2289402924605,-10.7615007767394],[-37.2210349980667,-10.7596082128487],[-37.218055415525,-10.7655462672464],[-37.2162955376089,-10.7664299779611],[-37.1613708142116,-10.751420988188],[-37.1529106507059,-10.7674813681705],[-37.1500065698473,-10.7701676431222],[-37.1473328233511,-10.769899844802],[-37.1412026800596,-10.7653804493482],[-37.1381898450853,-10.7655459416918],[-37.1314991714495,-10.7693587164316],[-37.1344095799381,-10.776600580952],[-37.1272201009269,-10.7857627084821],[-37.1223546427525,-10.7862643701046],[-37.1085175829201,-10.7765474732872],[-37.1029549109404,-10.7747855278298],[-37.0934507037869,-10.7780205142353],[-37.088178252924,-10.7831767726898],[-37.0893758090463,-10.7909211163164],[-37.087330791183,-10.7984015089224],[-37.0752910048759,-10.8075479396856],[-37.0648793988651,-10.8230341529038],[-37.0755964191394,-10.8234040683431],[-37.0843053576061,-10.8218746030304],[-37.0911442017435,-10.8234094363963],[-37.1014778122512,-10.8181254715133],[-37.1073431195892,-10.8211981105043],[-37.1088493742992,-10.8267762849975],[-37.1116262523496,-10.8292629230454],[-37.1179219527359,-10.8320264065933],[-37.1332367129039,-10.8350608055117],[-37.1378366759218,-10.8349231354943],[-37.1418701272046,-10.8320271314469],[-37.1477287372913,-10.8350289173506],[-37.1515836335778,-10.8346791943893],[-37.1526072311387,-10.8323418294119],[-37.1570024877745,-10.8319977164214],[-37.1585839707736,-10.833813354103],[-37.1578395992181,-10.8360060937062],[-37.166922253659,-10.8392364324154],[-37.167142217939,-10.8409562545275],[-37.1692346057924,-10.8400258959783],[-37.1737431257446,-10.842074888845],[-37.1772422106595,-10.8472741852554],[-37.1770187228357,-10.8517305553208],[-37.1791006641643,-10.8551802054021],[-37.1877753861251,-10.8528282875953],[-37.1902477276505,-10.8538367216873],[-37.1937999382166,-10.8514016993289],[-37.1959909933896,-10.8526287181408],[-37.1963872023075,-10.851292958703],[-37.2003979771849,-10.8500763981073]]]}},{"type":"Feature","properties":{"id":"168","arrangementId":"2805703","name":"Propriá/SE","state":"SE","municipality":"2805703","population2010":"28451","urbanPopulation2010":"24390","ruralPopulation2010":"4061"},"geometry":{"type":"Polygon","coordinates":[[[-36.8485010064163,-10.2402757585194],[-36.8677089200306,-10.2281985810996],[-36.8672375098032,-10.2057718985543],[-36.8575582037481,-10.1765096445045],[-36.8534070617864,-10.179442178114],[-36.8485980810366,-10.1890786629499],[-36.8436497296512,-10.1900819682082],[-36.8397929106143,-10.1988717773106],[-36.8356563052942,-10.2040769301062],[-36.8143118857848,-10.2188537778795],[-36.7885810607673,-10.2246392901711],[-36.7788146481774,-10.2247733197329],[-36.7760319137418,-10.2264281964041],[-36.7472137305292,-10.2309804162132],[-36.7436979443046,-10.2332382109746],[-36.7430134514096,-10.2360246083489],[-36.7468639724943,-10.2381432564061],[-36.746176767244,-10.244095667581],[-36.7492058619609,-10.2476013139494],[-36.7469085177139,-10.2516798743267],[-36.7306873524393,-10.2561553981531],[-36.7260227371596,-10.2633315779899],[-36.7226239644244,-10.2653031527183],[-36.7203943661071,-10.2649442917456],[-36.7019902575443,-10.2709747110141],[-36.7024515315129,-10.2735268233042],[-36.7074388487238,-10.2783978554766],[-36.7055107265388,-10.2827862934527],[-36.7136102277298,-10.2832177557947],[-36.721165022148,-10.2799739650264],[-36.732001628872,-10.2790647756189],[-36.7360558544941,-10.2823530792312],[-36.7384262713553,-10.2801001902715],[-36.7397449670565,-10.2714105521552],[-36.7497239865727,-10.2614555922018],[-36.7581660404304,-10.2613737709827],[-36.7573278659882,-10.257208102272],[-36.7596752799901,-10.2545684211956],[-36.7718679627362,-10.2606201525979],[-36.7773526212264,-10.2654629640445],[-36.7872651610583,-10.2622206508623],[-36.7954905997113,-10.2743854807054],[-36.7971882751187,-10.2799624384157],[-36.7990402633974,-10.2789318108543],[-36.8016620191868,-10.2806895789609],[-36.8053545365826,-10.2917576441999],[-36.8097104110066,-10.2966004583444],[-36.8109218679498,-10.2961235379709],[-36.8110490006109,-10.2977614507303],[-36.8148432924839,-10.2960204837583],[-36.8191670799967,-10.2976864535669],[-36.8238701332,-10.2945335069157],[-36.8290530430634,-10.2937432609427],[-36.8366018713792,-10.2899157328247],[-36.8372540543311,-10.2818575051197],[-36.8419006013316,-10.2780467889281],[-36.8420423578685,-10.273734980385],[-36.8394239727381,-10.2707274846856],[-36.8421566428148,-10.2680885257648],[-36.8444497377652,-10.2619036263512],[-36.8485010064163,-10.2402757585194]]]}},{"type":"Feature","properties":{"id":"169","arrangementId":"2805703","name":"Propriá/SE","state":"SE","municipality":"2807303","population2010":"2957","urbanPopulation2010":"1847","ruralPopulation2010":"1110"},"geometry":{"type":"Polygon","coordinates":[[[-36.867373373982,-10.1575521875834],[-36.8643016720845,-10.1589597399],[-36.8616682152159,-10.1575412725117],[-36.8585849570301,-10.1594087794915],[-36.8513296449471,-10.160002589248],[-36.8486071057333,-10.1627874973451],[-36.8458359392772,-10.1888304869374],[-36.8485980810366,-10.1890786629499],[-36.8534070617864,-10.179442178114],[-36.8575582037481,-10.1765096445045],[-36.8672375098032,-10.2057718985543],[-36.8677089200306,-10.2281985810996],[-36.9290282233738,-10.2228286823977],[-36.9434241048385,-10.2275438620595],[-36.8805968164899,-10.1450685561689],[-36.8769827118826,-10.1461240284011],[-36.867373373982,-10.1575521875834]]]}}]}