{"type":"FeatureCollection","features":[{"type":"Feature","properties":{"id":"30","arrangementId":"1721208","name":"Tocantinópolis/TO - Porto Franco/MA","state":"TO","municipality":"1721208","population2010":"22619","urbanPopulation2010":"18318","ruralPopulation2010":"4301"},"geometry":{"type":"MultiPolygon","coordinates":[[[[-47.4284652132989,-6.03627550241248],[-47.4280224123044,-6.04717740980961],[-47.43020360925162,-6.068377795256331],[-47.438747587631,-6.01279769585693],[-47.4284652132989,-6.03627550241248]]],[[[-47.4199384639889,-6.40162196298314],[-47.43008482019296,-6.421851208977916],[-47.41096175976795,-6.3553060430634805],[-47.4097224488319,-6.36635178080996],[-47.4199384639889,-6.40162196298314]]],[[[-47.3786438556294,-6.27275832283829],[-47.398262553074886,-6.311114852030765],[-47.38466929838455,-6.263812518168834],[-47.3808600646722,-6.250556999242375],[-47.3772357754107,-6.26676831190804],[-47.3786438556294,-6.27275832283829]]],[[[-47.382282742787936,-6.244193412317377],[-47.38445502134491,-6.236224002500271],[-47.38642162671152,-6.229009143215925],[-47.3853683662571,-6.23039153194361],[-47.382282742787936,-6.244193412317377]]]]}},{"type":"Feature","properties":{"id":"34","arrangementId":"2102804","name":"Carolina/MA","state":"TO","municipality":"1707702","population2010":"8505","urbanPopulation2010":"5538","ruralPopulation2010":"2967"},"geometry":{"type":"Polygon","coordinates":[[[-47.671800669865,-7.26731919592414],[-47.6539303071379,-7.29820283409346],[-47.6506558449912,-7.30225854269753],[-47.6449874235307,-7.30516970751591],[-47.634124900144,-7.30481081326838],[-47.6270110837945,-7.30082367976894],[-47.60737271328,-7.27212222855799],[-47.6001226325534,-7.26673403224976],[-47.5875337759629,-7.26371822321739],[-47.5654439272954,-7.26649184122544],[-47.5428977419372,-7.26538355630601],[-47.5318208840266,-7.26929763337905],[-47.525820084829,-7.27358080660889],[-47.5243413403805,-7.27759467605341],[-47.5038449006216,-7.29009459329081],[-47.4997863618511,-7.29385834958311],[-47.4883219599904,-7.31182036221993],[-47.4829180678145,-7.32234672082444],[-47.4782024232032,-7.33675369003072],[-47.4804505934201,-7.35297004213368],[-47.4858777015946,-7.36710201754403],[-47.4904491156341,-7.3726880575078],[-47.4982577904646,-7.37873071564998],[-47.5236183475087,-7.39273970067661],[-47.5639058743566,-7.40682489515273],[-47.5774889395628,-7.41606460090055],[-47.5868944919871,-7.42882682699644],[-47.59149016384486,-7.440172703660171],[-47.59149016384486,-7.44017270366017],[-47.67649519247568,-7.261213701569109],[-47.67649519247608,-7.261213701568251],[-47.6745303218169,-7.25982885411827],[-47.671800669865,-7.26731919592414]]]}},{"type":"Feature","properties":{"id":"35","arrangementId":"2104057","name":"Estreito/MA","state":"TO","municipality":"1700301","population2010":"5162","urbanPopulation2010":"4142","ruralPopulation2010":"1020"},"geometry":{"type":"MultiPolygon","coordinates":[[[[-47.46669102315403,-6.587419015399386],[-47.46481447432366,-6.580898177709775],[-47.4644074858168,-6.58555625771511],[-47.46669102315403,-6.587419015399386]]],[[[-47.4163424897141,-6.48387658423696],[-47.4194142239872,-6.49196532863699],[-47.42523731786077,-6.496852671375337],[-47.42574228063913,-6.489446550626137],[-47.428420608159456,-6.450164413661269],[-47.4212003827914,-6.46510328688715],[-47.4163424897141,-6.48387658423696]]]]}}]}