{"type":"FeatureCollection","features":[{"type":"Feature","properties":{"name":"Amazônia","year":2004,"id":"AMZ"},"geometry":{"type":"MultiPolygon","coordinates":[[[[-44.4878,-2.9033],[-44.4871,-2.9449],[-44.4941,-2.9597],[-44.560218187523496,-2.969692206988012],[-44.5545,-2.9567],[-44.554,-2.9334],[-44.5807,-2.8547],[-44.57963601694158,-2.8091767248572386],[-44.487287694396414,-2.7314700656764477],[-44.48060134054594,-2.809743972689688],[-44.4979,-2.8299],[-44.5035,-2.8531],[-44.4934,-2.8549],[-44.4847,-2.8385],[-44.480294604164236,-2.838123222724573],[-44.479752784677984,-2.8882523615929783],[-44.4878,-2.9033]]],[[[-44.511,-2.5269],[-44.4982,-2.4839],[-44.494,-2.4491],[-44.4854,-2.4393],[-44.4601,-2.4349],[-44.4468,-2.4419],[-44.44207556319817,-2.449589428174011],[-44.50537873606478,-2.5317263377221626],[-44.511,-2.5269]]],[[[-48.3289,-5.2063],[-48.295616890895786,-5.224296099690066],[-48.40966123531174,-5.206202107593562],[-48.3289,-5.2063]]],[[[-45.3181,-1.3528],[-45.3242,-1.3893],[-45.31275406233111,-1.4050768330030614],[-45.315436373461424,-1.4516819888922246],[-45.3531,-1.4686],[-45.3898,-1.4576],[-45.3959,-1.4357],[-45.3766,-1.4046],[-45.38009432900352,-1.3958270037784122],[-45.323610854272474,-1.3461120700576785],[-45.3181,-1.3528]]],[[[-45.98719147029914,-1.061014636593223],[-45.9554,-1.1069],[-45.9679,-1.1332],[-45.9864,-1.1344],[-45.9974,-1.1107],[-45.98719147029914,-1.061014636593223]]],[[[-45.2925,-1.7085],[-45.2974,-1.7051],[-45.2938,-1.6968],[-45.2589,-1.6427],[-45.2471,-1.643],[-45.2499,-1.683],[-45.2688,-1.7025],[-45.2925,-1.7085]]],[[[-44.6093,-2.9289],[-44.5953,-2.9059],[-44.5787,-2.9113],[-44.5779,-2.9512],[-44.591754847976446,-2.9742710684365554],[-44.6381,-2.981],[-44.62445958442225,-2.9372928495071293],[-44.6093,-2.9289]]],[[[-45.3316,-1.7292],[-45.3382,-1.724],[-45.3366,-1.6657],[-45.3234,-1.6094],[-45.3032,-1.6066],[-45.2908,-1.6436],[-45.3112,-1.6564],[-45.3108,-1.7031],[-45.318,-1.7212],[-45.3316,-1.7292]]],[[[-43.818090291829854,-2.476344253309832],[-43.8001,-2.4899],[-43.7987,-2.5016],[-43.8212,-2.5293],[-43.838,-2.5306],[-43.8545,-2.5186],[-43.85398486031045,-2.513167617819273],[-43.818090291829854,-2.476344253309832]]],[[[-44.7616,-1.6822],[-44.7865,-1.6716],[-44.78591838889118,-1.6589536866596706],[-44.75471720411416,-1.6780356192959582],[-44.7616,-1.6822]]],[[[-43.7663,-2.4774],[-43.7797,-2.4788],[-43.79309676644807,-2.4507040036991783],[-43.76733897046818,-2.4242797074761993],[-43.75815203948131,-2.4216693986718103],[-43.7663,-2.4774]]],[[[-43.633,-2.5202],[-43.6357,-2.5649],[-43.6294,-2.5658],[-43.6365,-2.5894],[-43.6486,-2.5915],[-43.6568,-2.5835],[-43.676,-2.5807],[-43.6881,-2.5828],[-43.7082,-2.598],[-43.7325,-2.6032],[-43.7672,-2.6003],[-43.7709,-2.6095],[-43.8081,-2.6319],[-43.834,-2.6862],[-43.8328,-2.7073],[-43.8478,-2.7204],[-43.8949,-2.7341],[-43.8933,-2.7601],[-43.8838,-2.7899],[-43.9305,-2.8168],[-43.9545,-2.8451],[-43.9615,-2.8622],[-44.0403,-2.9195],[-44.0442,-2.957],[-44.0398,-2.9778],[-43.9759,-3.0606],[-43.9584,-3.1271],[-43.9582,-3.1479],[-43.9831,-3.1898],[-43.9911,-3.2274],[-43.9908,-3.2566],[-43.9686,-3.2806],[-44.0276,-3.3099],[-44.0342,-3.3244],[-44.0843,-3.3639],[-44.1061,-3.3974],[-44.1133,-3.4005],[-44.1348,-3.3865],[-44.1575,-3.3407],[-44.1588,-3.2942],[-44.1473,-3.2516],[-44.1652,-3.2225],[-44.1949,-3.2276],[-44.228,-3.2623],[-44.2568,-3.3012],[-44.2768,-3.3441],[-44.3141,-3.3832],[-44.3399,-3.3755],[-44.3454,-3.3334],[-44.329,-3.3117],[-44.3212,-3.2862],[-44.3343,-3.2738],[-44.3681,-3.2875],[-44.4727,-3.3581],[-44.5089,-3.4352],[-44.5563,-3.5676],[-44.5984,-3.5899],[-44.6494,-3.5956],[-44.67,-3.6215],[-44.6232,-3.7682],[-44.6171,-3.8314],[-44.5985,-3.8858],[-44.5972,-3.9323],[-44.589,-3.9586],[-44.5922,-3.9766],[-44.7312,-4.1254],[-44.7389,-4.1696],[-44.797,-4.321],[-44.8566,-4.4196],[-44.9086,-4.4738],[-45.0326,-4.5036],[-45.1108,-4.5762],[-45.2161,-4.6407],[-45.2884,-4.6074],[-45.4242,-4.5317],[-45.487,-4.5157],[-45.6232,-4.4224],[-45.6652,-4.5203],[-45.6397,-4.6166],[-45.6412,-4.6918],[-45.6295,-4.7428],[-45.6178,-4.7903],[-45.5852,-4.861],[-45.5921,-4.9236],[-45.6691,-5.0488],[-45.7228,-5.0414],[-45.7564,-5.1215],[-45.8257,-5.2025],[-45.8955,-5.266],[-46.0951,-5.4911],[-46.1652,-5.5456],[-46.2096,-5.5555],[-46.2729,-5.5217],[-46.3353,-5.5322],[-46.3453,-5.4884],[-46.3471,-5.4181],[-46.5004,-5.3601],[-46.5553,-5.3086],[-46.5997,-5.3185],[-46.6876,-5.3734],[-46.7323,-5.3745],[-46.7507,-5.3485],[-46.735,-5.2601],[-46.7361,-5.2161],[-46.7803,-5.2348],[-46.8247,-5.2446],[-46.8863,-5.2813],[-46.956,-5.3533],[-47.0523,-5.4348],[-47.1412,-5.4545],[-47.1858,-5.4555],[-47.2766,-5.3959],[-47.3685,-5.2835],[-47.4587,-5.2415],[-47.5476,-5.2611],[-47.7156,-5.3352],[-47.8235,-5.3675],[-47.8708,-5.2813],[-47.9373,-5.2396],[-48.0147,-5.238],[-48.0257,-5.2442],[-48.1087,-5.2635],[-48.1287,-5.2624],[-48.2768,-5.209],[-48.3214,-5.1712],[-48.3414,-5.1624],[-48.463,-5.1782],[-48.5055,-5.1974],[-48.52259113784012,-5.214408372039439],[-48.672346363809,-5.301188172759468],[-48.6846,-5.2992],[-48.696679975184004,-5.303472186345562],[-47.8162,-4.6147],[-47.68,-4.6086],[-47.3472,-4.1087],[-47.0887,-3.8616],[-47.0306,-3.6046],[-47.0383,-3.5643],[-46.6765,-3.0941],[-46.6696,-2.7346],[-46.4358,-2.4709],[-46.4394,-2.4132],[-46.2632,-2.0493],[-46.2234,-1.9149],[-46.3152,-1.7416],[-46.1613,-1.6228],[-46.128978047029264,-1.3850189194041176],[-46.1317,-1.4144],[-46.1068,-1.3764],[-46.0987,-1.3462],[-46.1005,-1.3357],[-46.11841430281492,-1.307305220708327],[-46.10771733779905,-1.2286114640880996],[-46.0753,-1.1971],[-46.0728,-1.1671],[-46.063812058460435,-1.14717896539365],[-46.03088135358031,-1.1023691477942135],[-46.0223,-1.1039],[-46.0181,-1.1142],[-46.0084,-1.2022],[-45.9967,-1.2042],[-45.9898,-1.1977],[-45.9841,-1.1729],[-45.9685,-1.1566],[-45.9504,-1.1671],[-45.9576,-1.2437],[-45.9563,-1.2571],[-45.948,-1.2623],[-45.936,-1.251],[-45.9327,-1.1943],[-45.9163,-1.148],[-45.91066247072196,-1.143804629374483],[-45.89109977451985,-1.16496778956608],[-45.8972,-1.1836],[-45.8941,-1.1937],[-45.88231316559733,-1.174473248846702],[-45.87111460953188,-1.1865879815747034],[-45.8816,-1.2258],[-45.9055,-1.2418],[-45.9058,-1.2518],[-45.8907,-1.2539],[-45.8703,-1.2428],[-45.8672,-1.2512],[-45.9019,-1.292],[-45.9172,-1.2999],[-45.9191,-1.3099],[-45.9126,-1.3167],[-45.8977,-1.3222],[-45.8773,-1.3144],[-45.8345,-1.2204],[-45.81786066834772,-1.1955355441786981],[-45.8052,-1.1945],[-45.7972,-1.208],[-45.7824,-1.2185],[-45.7847,-1.2418],[-45.7987,-1.2597],[-45.7988,-1.2664],[-45.7832,-1.2485],[-45.76132971002643,-1.2022044796353837],[-45.72046171207228,-1.2218594698538008],[-45.7411,-1.2413],[-45.7414,-1.2513],[-45.697,-1.2842],[-45.6785,-1.283],[-45.6629,-1.2634],[-45.66005727657107,-1.2509102834086345],[-45.62793009942096,-1.2663614771113283],[-45.6511,-1.3222],[-45.6437,-1.3591],[-45.6506,-1.3656],[-45.6757,-1.3632],[-45.6835,-1.343],[-45.6935,-1.341],[-45.6957,-1.3577],[-45.7128,-1.3705],[-45.7165,-1.3821],[-45.7051,-1.3958],[-45.6767,-1.3999],[-45.6395,-1.3892],[-45.6272,-1.3678],[-45.6274,-1.3145],[-45.6032,-1.2884],[-45.5961459546529,-1.2968247605707728],[-45.6043,-1.3284],[-45.5946,-1.342],[-45.5953,-1.367],[-45.5889,-1.3789],[-45.5737,-1.376],[-45.57809308017788,-1.3242042863821057],[-45.52846424360137,-1.3994728544937083],[-45.5529,-1.4132],[-45.5514,-1.4199],[-45.5347,-1.422],[-45.51913827111013,-1.413616901464899],[-45.48815254644041,-1.4606107721391455],[-45.5192,-1.4675],[-45.5161,-1.4776],[-45.4829,-1.4901],[-45.4658,-1.5406],[-45.4592,-1.5458],[-45.4557,-1.5376],[-45.461562227637366,-1.4675324220487058],[-45.432325785782616,-1.441799448361097],[-45.4212,-1.4434],[-45.4104,-1.477],[-45.3872,-1.4877],[-45.383,-1.5161],[-45.3571,-1.4918],[-45.318086887082714,-1.4977346630622301],[-45.32237256651266,-1.5721983431575606],[-45.3471,-1.6171],[-45.3534,-1.6653],[-45.3677,-1.6999],[-45.3705,-1.7399],[-45.3525,-1.7587],[-45.3005,-1.7583],[-45.2806,-1.7672],[-45.2488,-1.833],[-45.2413,-1.8699],[-45.1755,-1.9199],[-45.1726,-1.9349],[-45.1912,-2.0078],[-45.1849,-2.0213],[-45.1693,-2.0033],[-45.1581,-1.9603],[-45.1375,-1.9425],[-45.1371,-1.9258],[-45.1877,-1.8729],[-45.2241,-1.8536],[-45.2343,-1.7917],[-45.2649,-1.7426],[-45.2575,-1.7194],[-45.2168,-1.7005],[-45.2097,-1.6873],[-45.2204,-1.6471],[-45.248,-1.6114],[-45.2475,-1.593],[-45.2332,-1.5634],[-45.2159,-1.5405],[-45.1851,-1.518],[-45.17497918836644,-1.49432229870915],[-45.13488115948243,-1.506191579387455],[-45.1297,-1.5178],[-45.1196,-1.5164],[-45.116972792180285,-1.5114925740726115],[-45.0046236720778,-1.5447486536747899],[-44.9781,-1.5584],[-44.9738,-1.5868],[-45.0212,-1.6023],[-45.0248,-1.6122],[-45.0133,-1.6191],[-44.9813,-1.6166],[-44.9472,-1.5942],[-44.94778314958701,-1.5636679537659235],[-44.90429321258341,-1.593670505243087],[-44.8991,-1.6154],[-44.891,-1.6256],[-44.8644,-1.633],[-44.828,-1.6555],[-44.8121,-1.6876],[-44.7841,-1.7066],[-44.7813,-1.73],[-44.7544,-1.7257],[-44.7212,-1.7415],[-44.7218,-1.7614],[-44.7643,-1.7837],[-44.7681,-1.8019],[-44.7549,-1.8105],[-44.7198,-1.8148],[-44.6984,-1.8303],[-44.6661,-1.8161],[-44.6483,-1.7766],[-44.646205008330696,-1.7443992021199022],[-44.6153,-1.7633],[-44.61316277488298,-1.7675072418970221],[-44.6352,-1.7869],[-44.643,-1.8283],[-44.6742,-1.8692],[-44.698,-1.8802],[-44.7001,-1.8968],[-44.68,-1.899],[-44.6137,-1.8624],[-44.5785,-1.8666],[-44.56766423266985,-1.8570735545555765],[-44.555852337795066,-1.8803259010700777],[-44.6045,-1.8975],[-44.6066,-1.9141],[-44.5697,-1.9167],[-44.555181461559144,-1.907340063129707],[-44.5777,-2.0292],[-44.66514657987764,-2.2489532552325153],[-44.7024,-2.2529],[-44.7046,-2.2761],[-44.7317,-2.2855],[-44.6952,-2.3013],[-44.6731,-2.2919],[-44.6666,-2.2987],[-44.6901,-2.368],[-44.687,-2.3781],[-44.6605,-2.3937],[-44.6578,-2.4203],[-44.6461,-2.4223],[-44.6374,-2.4092],[-44.6369,-2.3892],[-44.6539,-2.3306],[-44.6483,-2.3074],[-44.616784573903885,-2.273317524926613],[-44.4615,-2.1472],[-44.358,-2.3405],[-44.40884654793967,-2.406474233515231],[-44.4293,-2.4124],[-44.4864,-2.4144],[-44.5126,-2.3855],[-44.5243,-2.3835],[-44.5297,-2.3984],[-44.512,-2.4287],[-44.5229,-2.4651],[-44.5187,-2.5001],[-44.5257,-2.5116],[-44.5952,-2.5383],[-44.618,-2.581],[-44.6506,-2.6119],[-44.6526,-2.6268],[-44.6359,-2.6305],[-44.5604,-2.5607],[-44.5456,-2.571],[-44.54994627504352,-2.5895534536803844],[-44.56694654627223,-2.622115030567074],[-44.5957,-2.6314],[-44.6053,-2.6828],[-44.6279,-2.7172],[-44.6288,-2.7571],[-44.6501,-2.805],[-44.65180993872756,-2.884197162118586],[-44.6712,-2.9192],[-44.6781,-3.0039],[-44.6684,-3.0191],[-44.6302,-3.0366],[-44.6348,-3.0914],[-44.6753,-3.1038],[-44.6808,-3.122],[-44.6998,-3.1449],[-44.7391,-3.1774],[-44.7831,-3.1947],[-44.7869,-3.213],[-44.7663,-3.2667],[-44.7718,-3.2898],[-44.7919,-3.2861],[-44.8242,-3.2305],[-44.8395,-3.2351],[-44.8482,-3.2516],[-44.8784,-3.251],[-44.8854,-3.2641],[-44.8806,-3.2726],[-44.8606,-3.2796],[-44.8183,-3.2672],[-44.7908,-3.3161],[-44.7607,-3.32],[-44.7402,-3.3055],[-44.7365,-3.2873],[-44.7488,-3.2354],[-44.7415,-3.2089],[-44.7041,-3.1898],[-44.6589,-3.1974],[-44.6348,-3.1679],[-44.6256,-3.1348],[-44.6032,-3.107],[-44.5642,-3.0912],[-44.5346,-3.0436],[-44.4955,-3.026],[-44.486701661329064,-3.002661248999202],[-44.4644,-2.9836],[-44.4348,-2.936],[-44.4096,-2.8584],[-44.41,-2.7992],[-44.2208,-2.4739],[-44.1738,-2.458],[-44.052388252773376,-2.466094116481775],[-44.03738153842974,-2.5500510943021912],[-44.041282966627215,-2.5583164911535303],[-44.0976,-2.5795],[-44.17568541297191,-2.702077582781917],[-44.1827,-2.7039],[-44.2041,-2.6835],[-44.2175,-2.6832],[-44.237,-2.7293],[-44.2933,-2.7646],[-44.2972,-2.7911],[-44.2909,-2.8062],[-44.2825,-2.8064],[-44.2634,-2.7802],[-44.25,-2.7805],[-44.2353,-2.7991],[-44.2219,-2.8027],[-44.2179,-2.7729],[-44.20944074757151,-2.7640964756703523],[-44.182345468846904,-2.7658735936105523],[-44.1796,-2.7854],[-44.1868,-2.8068],[-44.2127,-2.8411],[-44.2131,-2.8578],[-44.1979,-2.8514],[-44.1721,-2.8238],[-44.134693359533394,-2.763314491906054],[-44.11343560642378,-2.7558926039669225],[-44.0733,-2.7628],[-44.0614,-2.7564],[-44.049013201192615,-2.713242447799684],[-43.98183282794484,-2.644323737345751],[-43.9429,-2.6411],[-43.9507,-2.6127],[-43.91475135493051,-2.5755064862351147],[-43.8985,-2.6072],[-43.8886,-2.6141],[-43.8735,-2.6128],[-43.8355,-2.5671],[-43.7933,-2.5598],[-43.7623,-2.5256],[-43.7471,-2.521],[-43.7365,-2.4963],[-43.7199,-2.5066],[-43.70056338038524,-2.508136086604911],[-43.6968,-2.5149],[-43.6879049070225,-2.513821692259213],[-43.6819,-2.5291],[-43.6685,-2.531],[-43.66459344816104,-2.510995760410845],[-43.64125984199825,-2.508167143755636],[-43.633,-2.5202]],[[-44.9329,-3.8376],[-44.9076,-3.8314],[-44.8628,-3.7807],[-44.8724,-3.7572],[-44.8959,-3.7534],[-44.9212,-3.7579],[-44.9201,-3.7862],[-44.941,-3.8241],[-44.9329,-3.8376]],[[-45.0737,-3.3484],[-45.0617,-3.337],[-45.0545,-3.3155],[-45.0573,-3.2871],[-45.0887,-3.2681],[-45.0832,-3.2466],[-45.073,-3.2385],[-45.0531,-3.2505],[-45.0276,-3.2394],[-45.0064,-3.2665],[-44.9912,-3.2619],[-44.9783,-3.2122],[-44.9773,-3.1672],[-44.9854,-3.1537],[-45.0252,-3.1312],[-45.0807,-3.1317],[-45.0809,-3.1433],[-45.0613,-3.1687],[-45.0653,-3.1953],[-45.0924,-3.2047],[-45.1171,-3.1825],[-45.1488,-3.1752],[-45.1541,-3.1884],[-45.1316,-3.2322],[-45.1423,-3.2586],[-45.1171,-3.2592],[-45.1156,-3.2692],[-45.136,-3.2788],[-45.1645,-3.2781],[-45.1766,-3.2895],[-45.1735,-3.3046],[-45.1569,-3.3133],[-45.1267,-3.3139],[-45.122,-3.3274],[-45.1102,-3.3276],[-45.0945,-3.2996],[-45.086,-3.2981],[-45.0813,-3.3116],[-45.0887,-3.3431],[-45.0737,-3.3484]],[[-45.4887,-2.4256],[-45.4799,-2.4091],[-45.4459,-2.3899],[-45.4421,-2.375],[-45.4738,-2.3676],[-45.4975,-2.3754],[-45.4999,-2.4053],[-45.5105,-2.4234],[-45.4887,-2.4256]],[[-45.3352,-2.3926],[-45.325,-2.3912],[-45.3242,-2.2879],[-45.3013,-2.2451],[-45.2634,-2.206],[-45.2664,-2.1926],[-45.2915,-2.1903],[-45.3004,-2.2101],[-45.3344,-2.2259],[-45.3318,-2.2593],[-45.3524,-2.2755],[-45.3578,-2.292],[-45.3762,-2.2899],[-45.3821,-2.2564],[-45.3938,-2.2545],[-45.4226,-2.2638],[-45.4381,-2.2817],[-45.4737,-2.2942],[-45.4776,-2.3158],[-45.4711,-2.3243],[-45.4268,-2.3004],[-45.4118,-2.3007],[-45.4036,-2.3093],[-45.4078,-2.3458],[-45.3944,-2.3462],[-45.3922,-2.3229],[-45.3769,-2.3182],[-45.3478,-2.3606],[-45.3433,-2.3841],[-45.3352,-2.3926]]]]}},{"type":"Feature","properties":{"name":"Mata Atlântica","year":2004,"id":"MAT"},"geometry":{"type":"MultiPolygon","coordinates":[[[[-38.9633,-13.5473],[-38.9852,-13.5104],[-39.0151,-13.4901],[-39.0313,-13.4693],[-39.0285,-13.448],[-39.0361,-13.4254],[-39.0279,-13.4104],[-38.9663,-13.3972],[-38.95068725147918,-13.389278826118113],[-38.9633,-13.5473]]],[[[-38.8231,-13.1207],[-38.8545,-13.1085],[-38.8515,-13.0938],[-38.8191,-13.0831],[-38.8069,-13.0893],[-38.8231,-13.1207]]],[[[-34.8765,-7.7982],[-34.8883,-7.7968],[-34.8788,-7.7519],[-34.8691,-7.7214],[-34.849,-7.7068],[-34.8485,-7.7403],[-34.8681,-7.7885],[-34.8765,-7.7982]]],[[[-38.7974,-13.1184],[-38.7798,-13.0755],[-38.7459,-13.0549],[-38.7261,-13.0283],[-38.6983,-12.9786],[-38.6926,-12.9393],[-38.6811,-12.9211],[-38.6552,-12.9269],[-38.6229,-12.97],[-38.6188,-12.991],[-38.6267,-13.0141],[-38.6451,-13.0309],[-38.7062,-13.0587],[-38.73941446401146,-13.10329011377362],[-38.79530000588356,-13.136204297943694],[-38.7974,-13.1184]]],[[[-38.9676,-13.5752],[-38.96250142368623,-13.576461681596289],[-38.96430972372736,-13.605292318410205],[-38.9676,-13.5752]]],[[[-39.0337,-13.5592],[-39.0632,-13.5519],[-39.0689,-13.5357],[-39.0646,-13.5062],[-39.0475,-13.5024],[-39.0333,-13.5151],[-39.009,-13.5225],[-39.0017,-13.5337],[-39.0046,-13.5502],[-39.0337,-13.5592]]],[[[-34.8783,-7.6688],[-34.8851,-7.6641],[-34.8854,-7.6401],[-34.8786,-7.6417],[-34.875,-7.6592],[-34.8783,-7.6688]]],[[[-37.0573,-9.9621],[-37.0902,-9.9495],[-37.1288,-9.9211],[-37.0929,-9.8837],[-37.0876,-9.8698],[-37.0488,-9.8683],[-37.0155,-9.8555],[-37.0036,-9.8563],[-36.9945,-9.8615],[-37.0039,-9.9069],[-37.0406,-9.9397],[-37.0573,-9.9621]]],[[[-37.0417,-10.8717],[-37.0439,-10.8507],[-36.9958,-10.7962],[-36.986,-10.7782],[-36.9343,-10.7301],[-36.902,-10.7261],[-36.9001,-10.7357],[-36.91,-10.7473],[-36.9721,-10.7908],[-36.9997,-10.8464],[-37.023,-10.8696],[-37.0417,-10.8717]]],[[[-35.94263860605551,-9.911368858508753],[-36.0104,-9.9735],[-36.0563,-10.0486],[-36.0746,-10.0667],[-36.1217,-10.0871],[-36.1615,-10.1314],[-36.18,-10.1415],[-36.1903,-10.1385],[-36.2191,-10.1472],[-36.2601,-10.2126],[-36.3067,-10.2572],[-36.3181,-10.2784],[-36.3319,-10.3399],[-36.3869,-10.3895],[-36.4232,-10.4355],[-36.4352,-10.4342],[-36.4551,-10.3879],[-36.4845,-10.3725],[-36.5479,-10.3594],[-36.5755,-10.3423],[-36.5994,-10.2735],[-36.6248,-10.242],[-36.6122,-10.2181],[-36.6058,-10.1743],[-36.5809,-10.1739],[-36.5192,-10.1895],[-36.4557,-10.1905],[-36.4401,-10.1765],[-36.4213,-10.1433],[-36.3954,-10.1293],[-36.3863,-10.1112],[-36.3048,-10.0889],[-36.2909,-10.0741],[-36.2868,-10.0284],[-36.3373,-9.9974],[-36.3697,-9.9976],[-36.4068,-10.0318],[-36.4497,-10.0858],[-36.4848,-10.0932],[-36.5713,-10.0772],[-36.5932,-10.0811],[-36.629,-10.1026],[-36.6707,-10.0696],[-36.7317,-10.0439],[-36.8241,-10.0183],[-36.8322,-9.9766],[-36.8305,-9.9541],[-36.8164,-9.9421],[-36.7573,-9.942],[-36.732,-9.9251],[-36.7261,-9.9262],[-36.7014,-9.906],[-36.6881,-9.9054],[-36.6589,-9.9139],[-36.6498,-9.9049],[-36.6432,-9.8891],[-36.6427,-9.8723],[-36.6098,-9.809],[-36.6042,-9.7751],[-36.6049,-9.7078],[-36.6191,-9.6074],[-36.6132,-9.5777],[-36.5995,-9.5574],[-36.5506,-9.5326],[-36.538,-9.4913],[-36.5251,-9.4822],[-36.5112,-9.4795],[-36.5101,-9.4444],[-36.4776,-9.4162],[-36.4723,-9.3869],[-36.4753,-9.3757],[-36.4927,-9.3629],[-36.4948,-9.3221],[-36.4899,-9.2764],[-36.4781,-9.2281],[-36.4469,-9.1673],[-36.386,-9.086],[-36.3874,-9.0286],[-36.3952,-9.0205],[-36.4183,-9.0314],[-36.4323,-9.046],[-36.4455,-9.0467],[-36.47,-9.0001],[-36.4881,-8.9911],[-36.516,-8.9952],[-36.5303,-9.0042],[-36.5564,-9.0419],[-36.5764,-9.1143],[-36.5888,-9.1331],[-36.6251,-9.1432],[-36.6493,-9.1317],[-36.658,-9.076],[-36.6926,-9.0326],[-36.6968,-9.0062],[-36.6812,-8.9942],[-36.6415,-8.991],[-36.6307,-8.9709],[-36.6244,-8.9201],[-36.6063,-8.866],[-36.6057,-8.8183],[-36.5953,-8.7898],[-36.5743,-8.7664],[-36.5332,-8.7632],[-36.5135,-8.7427],[-36.4991,-8.7364],[-36.4114,-8.7214],[-36.3681,-8.7026],[-36.3339,-8.6787],[-36.2634,-8.6126],[-36.2377,-8.5946],[-36.1435,-8.5331],[-36.0715,-8.4977],[-36.0188,-8.4605],[-35.9913,-8.4495],[-35.962,-8.4468],[-35.9185,-8.4337],[-35.87,-8.3994],[-35.7497,-8.3606],[-35.7168,-8.3089],[-35.6936,-8.2895],[-35.7625,-8.2145],[-35.8021,-8.1869],[-35.855,-8.1892],[-35.8957,-8.2138],[-35.9263,-8.2219],[-35.9974,-8.2295],[-36.0332,-8.2287],[-36.0597,-8.2175],[-36.0842,-8.1962],[-36.0809,-8.1736],[-36.0554,-8.1516],[-35.9744,-8.1106],[-35.8733,-8.0814],[-35.8532,-8.1011],[-35.8367,-8.1088],[-35.8129,-8.1133],[-35.7807,-8.1106],[-35.7274,-8.0934],[-35.6926,-8.0738],[-35.6458,-8.0364],[-35.6234,-8.0256],[-35.5724,-8.046],[-35.533,-7.9633],[-35.4739,-7.7767],[-35.4343,-7.7096],[-35.3674,-7.6943],[-35.3546,-7.6854],[-35.2572,-7.6605],[-35.2371,-7.6513],[-35.221,-7.6172],[-35.172,-7.5623],[-35.1725,-7.5526],[-35.18,-7.5487],[-35.2036,-7.5455],[-35.227,-7.5492],[-35.3319,-7.5844],[-35.3674,-7.6126],[-35.3872,-7.6143],[-35.4142,-7.568],[-35.4334,-7.566],[-35.4517,-7.5848],[-35.4691,-7.5897],[-35.4809,-7.5874],[-35.4949,-7.5699],[-35.5005,-7.5101],[-35.5095,-7.4729],[-35.5277,-7.4582],[-35.5631,-7.4555],[-35.5762,-7.4334],[-35.567,-7.4061],[-35.5412,-7.3835],[-35.5181,-7.3421],[-35.4915,-7.3104],[-35.4615,-7.2911],[-35.415,-7.2796],[-35.3759,-7.2321],[-35.3104,-7.185],[-35.2779,-7.1559],[-35.2514,-7.1228],[-35.2499,-7.0518],[-35.2554,-7.0255],[-35.2617,-7.016],[-35.3009,-6.9896],[-35.3307,-6.9782],[-35.3624,-6.9585],[-35.3659,-6.9447],[-35.3619,-6.9348],[-35.3363,-6.9144],[-35.2481,-6.8832],[-35.1901,-6.8337],[-35.2221,-6.8002],[-35.2243,-6.7808],[-35.2147,-6.7275],[-35.2197,-6.7017],[-35.2119,-6.6737],[-35.2467,-6.6229],[-35.2478,-6.5937],[-35.2435,-6.5922],[-35.2518,-6.5037],[-35.2781,-6.4556],[-35.3313,-6.4059],[-35.3499,-6.3773],[-35.3502,-6.369],[-35.3577,-6.3637],[-35.3683,-6.3153],[-35.3653,-6.2372],[-35.37,-6.1886],[-35.362,-6.1689],[-35.3376,-6.1372],[-35.328,-6.1064],[-35.3209,-6.1002],[-35.3291,-6.0805],[-35.3264,-6.0535],[-35.3067,-5.9958],[-35.3088,-5.975],[-35.3183,-5.9572],[-35.3213,-5.9128],[-35.3046,-5.8454],[-35.2877,-5.8254],[-35.266,-5.8217],[-35.2685,-5.8016],[-35.2857,-5.7341],[-35.3416,-5.6155],[-35.3706,-5.5342],[-35.375,-5.533],[-35.3754,-5.5191],[-35.4222,-5.4286],[-35.4484,-5.3911],[-35.4815,-5.3551],[-35.5046,-5.3181],[-35.5296,-5.2248],[-35.5495,-5.1762],[-35.544770619923135,-5.162075770310994],[-35.4104,-5.2553],[-35.3953,-5.2873],[-35.3786,-5.3594],[-35.345,-5.3866],[-35.3332,-5.417],[-35.313,-5.4394],[-35.308,-5.4666],[-35.2777,-5.4906],[-35.2878,-5.5258],[-35.2541,-5.5882],[-35.2101,-5.7593],[-35.2031,-5.8665],[-35.171,-5.924],[-35.1267,-6.0598],[-35.1283,-6.0982],[-35.1043,-6.1988],[-35.0924,-6.2227],[-35.0466,-6.2689],[-35.0481,-6.3008],[-35.0733,-6.3362],[-35.0259,-6.3519],[-34.98896716701691,-6.430253497448212],[-34.9866,-6.4475],[-34.9996,-6.5291],[-35.0019,-6.6746],[-34.9588,-6.7989],[-34.9394,-6.8914],[-34.8931,-6.974],[-34.8945,-7.0044],[-34.911,-7.0413],[-34.907,-7.0988],[-34.9218,-7.1437],[-34.9166,-7.1532],[-34.8981,-7.1498],[-34.8881,-7.1353],[-34.8636,-7.0504],[-34.8518,-7.0455],[-34.8476,-7.1285],[-34.8232,-7.2001],[-34.8322,-7.3025],[-34.8328,-7.5245],[-34.8391,-7.5597],[-34.8556,-7.5966],[-34.8442177475056,-7.649035695998592],[-34.846323295845984,-7.669531663060249],[-34.8495,-7.6732],[-34.8596,-7.6718],[-34.8738,-7.6208],[-34.9026,-7.6196],[-34.9072,-7.6596],[-34.8997,-7.709],[-34.9174,-7.7716],[-34.9172,-7.786],[-34.8876,-7.8447],[-34.8851,-7.8974],[-34.8749,-7.902],[-34.8665,-7.8971],[-34.85,-7.8697],[-34.837269415984316,-7.878434853266236],[-34.83491655778207,-7.89891010785067],[-34.8613,-8.0169],[-34.8944,-8.0621],[-34.947,-8.1604],[-34.9566,-8.1989],[-34.9765,-8.2232],[-34.981,-8.2585],[-34.9752,-8.2967],[-34.9999,-8.3387],[-34.9791,-8.3672],[-34.9789,-8.3799],[-35.0019,-8.4187],[-35.0277,-8.4911],[-35.0367,-8.5569],[-35.0703,-8.5718],[-35.1143,-8.5758],[-35.1193,-8.5839],[-35.1121,-8.6062],[-35.1167,-8.6319],[-35.13,-8.6417],[-35.1539,-8.6357],[-35.1656,-8.6471],[-35.1666,-8.6808],[-35.1527,-8.6997],[-35.1373,-8.7059],[-35.1302,-8.7233],[-35.1712,-8.7945],[-35.1772,-8.833],[-35.1571,-8.9063],[-35.15679641202652,-8.920872222726853],[-35.3391,-9.2307],[-35.3868,-9.2863],[-35.4725,-9.358],[-35.51334177881448,-9.424318896117175],[-35.5384,-9.4235],[-35.53964694686913,-9.462529437003651],[-35.5585,-9.4875],[-35.79374016847737,-9.715837969306952],[-35.7971,-9.7116],[-35.7877,-9.6761],[-35.8012,-9.678],[-35.8478,-9.7256],[-35.8914,-9.7506],[-35.8878,-9.7618],[-35.8337,-9.7462],[-35.826829800283065,-9.75478774964617],[-35.8798,-9.8131],[-35.8978,-9.8424],[-35.9198,-9.8477],[-35.9729,-9.8344],[-35.9916,-9.8348],[-36.005,-9.8431],[-36.0046,-9.8576],[-35.9417,-9.8562],[-35.9243,-9.8735],[-35.92786301091893,-9.889765919412506],[-35.94263860605551,-9.911368858508753]]],[[[-39.0547,-14.4792],[-39.0872,-14.6354],[-39.0921,-14.6911],[-39.0891,-14.7253],[-39.0738,-14.7624],[-39.076,-14.7984],[-39.0644,-14.829],[-39.0479,-15.1715],[-39.0358,-15.3018],[-38.9925,-15.5125],[-38.99,-15.6578],[-38.9837,-15.6821],[-38.9635,-15.7074],[-38.95,-15.738],[-38.9339,-15.8304],[-38.9454,-15.8472],[-38.9981,-15.8378],[-39.0169,-15.8451],[-38.9582,-15.8739],[-38.9354,-15.8762],[-38.9313,-15.8891],[-38.9656,-15.9836],[-38.9898,-16.1496],[-39.0381,-16.243],[-39.0451,-16.2825],[-39.0437,-16.3511],[-39.0831,-16.4099],[-39.1311,-16.5851],[-39.1278,-16.6585],[-39.1434,-16.7001],[-39.172,-16.7258],[-39.1814,-16.7491],[-39.1827,-16.8358],[-39.1743,-16.8649],[-39.1574,-16.8887],[-39.1547,-16.9099],[-39.1843,-16.952],[-39.2,-16.9903],[-39.2509,-17.2133],[-39.256,-17.2888],[-39.241,-17.3454],[-39.2096,-17.4127],[-39.2021,-17.5286],[-39.1944,-17.5756],[-39.1662,-17.6478],[-39.2108,-17.6943],[-39.2968,-17.8011],[-39.3249,-17.8276],[-39.3686,-17.8364],[-39.4567,-17.871],[-39.5534,-18.0107],[-39.5822,-18.1038],[-39.655,-18.2365],[-39.690381655333944,-18.32255894314004],[-40.2224,-17.9804],[-40.2119,-17.8949],[-40.2237,-17.7343],[-40.2402,-17.7349],[-40.3441,-17.6156],[-40.483,-17.4885],[-40.6047,-17.3562],[-40.5478,-17.2837],[-40.5787,-17.1496],[-40.4336,-16.8874],[-40.4077,-16.8987],[-40.4013,-16.8902],[-40.307,-16.6968],[-40.3132,-16.6786],[-40.0172,-16.3478],[-39.9178,-16.2843],[-39.9148,-16.0],[-40.1275,-15.9071],[-40.2357,-15.8035],[-40.45,-15.7616],[-40.5198,-15.7976],[-40.6449,-15.7289],[-40.7006,-15.6673],[-40.8168,-15.6476],[-41.1425,-15.772],[-41.3302,-15.7433],[-41.3619,-15.495],[-41.8023,-15.1003],[-42.0485,-15.1707],[-42.24478465315725,-15.129381673655983],[-42.2048,-15.1223],[-42.1852,-15.1122],[-42.1722,-15.0975],[-42.1428,-15.0831],[-42.0712,-15.0693],[-42.0655,-15.0633],[-42.027,-15.0504],[-41.9853,-15.0426],[-41.9259,-15.0076],[-41.8773,-15.0039],[-41.8056,-15.0172],[-41.7767,-15.0168],[-41.7534,-15.0031],[-41.715,-14.9897],[-41.6958,-14.9886],[-41.6496,-14.9965],[-41.6018,-14.9916],[-41.5726,-14.9958],[-41.5624,-15.0055],[-41.5556,-15.0302],[-41.4361,-15.04],[-41.3956,-15.035],[-41.3791,-15.0207],[-41.3792,-14.9682],[-41.3428,-14.959],[-41.3411,-14.9374],[-41.321,-14.9205],[-41.2953,-14.922],[-41.2505,-14.9138],[-41.2067,-14.89],[-41.1343,-14.8158],[-41.0641,-14.779],[-41.044,-14.7622],[-41.043,-14.7549],[-41.0325,-14.7529],[-41.0071,-14.7109],[-40.9985,-14.6854],[-40.9862,-14.6866],[-40.9713,-14.68],[-40.9539,-14.657],[-40.9497,-14.6281],[-40.9592,-14.5943],[-40.9725,-14.5735],[-41.0075,-14.5425],[-41.0167,-14.5144],[-41.0184,-14.4858],[-41.0102,-14.4372],[-40.9972,-14.4153],[-40.9817,-14.4202],[-40.9627,-14.4342],[-40.9375,-14.4786],[-40.9094,-14.5458],[-40.8848,-14.5802],[-40.8445,-14.598],[-40.82,-14.6053],[-40.6599,-14.6121],[-40.6302,-14.6062],[-40.5498,-14.5659],[-40.5221,-14.5272],[-40.5153,-14.4668],[-40.5047,-14.4433],[-40.4846,-14.4279],[-40.4288,-14.4048],[-40.4036,-14.3706],[-40.4053,-14.3438],[-40.3978,-14.3318],[-40.3651,-14.3184],[-40.336,-14.2996],[-40.3083,-14.2609],[-40.2814,-14.2337],[-40.274,-14.2318],[-40.2328,-14.1681],[-40.1937,-14.0946],[-40.1681,-14.0218],[-40.1512,-13.9552],[-40.1466,-13.9041],[-40.135,-13.8939],[-40.1251,-13.8653],[-40.123,-13.8252],[-40.137,-13.7643],[-40.1242,-13.7312],[-40.1237,-13.7139],[-40.1346,-13.6817],[-40.16,-13.6588],[-40.2697,-13.6548],[-40.3278,-13.6622],[-40.3543,-13.6436],[-40.4114,-13.6167],[-40.4618,-13.5751],[-40.4896,-13.508],[-40.5079,-13.4761],[-40.565,-13.4748],[-40.5953,-13.4368],[-40.6231,-13.4145],[-40.6128,-13.3802],[-40.5626,-13.3575],[-40.5138,-13.3207],[-40.4803,-13.3032],[-40.4342,-13.298],[-40.3858,-13.3069],[-40.3378,-13.3086],[-40.2787,-13.2941],[-40.2319,-13.2745],[-40.1859,-13.2421],[-40.1524,-13.199],[-40.1139,-13.1327],[-40.0953,-13.0779],[-40.0593,-13.0703],[-40.0167,-13.0536],[-39.8539,-12.9779],[-39.8317,-12.9739],[-39.8132,-12.9586],[-39.8024,-12.9381],[-39.7993,-12.8991],[-39.7388,-12.9006],[-39.7154,-12.8908],[-39.6885,-12.8652],[-39.6428,-12.8542],[-39.5907,-12.8258],[-39.5735,-12.8121],[-39.5612,-12.7929],[-39.5459,-12.748],[-39.5111,-12.6778],[-39.5139,-12.6552],[-39.5506,-12.64],[-39.5535,-12.616],[-39.5313,-12.582],[-39.4764,-12.5404],[-39.4206,-12.5123],[-39.3765,-12.5],[-39.3376,-12.5008],[-39.3118,-12.5094],[-39.2655,-12.5353],[-39.2424,-12.5316],[-39.2672,-12.5528],[-39.3136,-12.554],[-39.3185,-12.5639],[-39.297,-12.5977],[-39.2848,-12.6023],[-39.2665,-12.5822],[-39.2459,-12.5785],[-39.2176,-12.5451],[-39.2004,-12.5447],[-39.1898,-12.5559],[-39.1559,-12.5403],[-39.1129,-12.5425],[-39.0966,-12.5732],[-39.0689,-12.5839],[-39.0547,-12.5982],[-39.0201,-12.6072],[-39.01,-12.602],[-39.0644,-12.5593],[-39.0806,-12.5303],[-39.0829,-12.5075],[-39.0764,-12.4943],[-39.0511,-12.4774],[-39.0464,-12.4577],[-39.031,-12.4556],[-39.0205,-12.4635],[-39.0086,-12.4584],[-39.0025,-12.3652],[-39.0133,-12.3459],[-39.038,-12.384],[-39.0357,-12.4084],[-39.044,-12.4184],[-39.0596,-12.4123],[-39.0739,-12.3914],[-39.0926,-12.4],[-39.0936,-12.4262],[-39.0843,-12.4521],[-39.1107,-12.4968],[-39.1313,-12.494],[-39.1392,-12.4844],[-39.1254,-12.4694],[-39.1232,-12.4487],[-39.1294,-12.4372],[-39.1514,-12.4184],[-39.2115,-12.4103],[-39.2421,-12.3977],[-39.2716,-12.3779],[-39.2877,-12.3574],[-39.3423,-12.2622],[-39.3618,-12.2063],[-39.3829,-12.122],[-39.4052,-12.0723],[-39.4095,-12.0736],[-39.4773,-12.0045],[-39.4855,-11.9907],[-39.5084,-11.9135],[-39.2512,-11.9192],[-39.1549,-11.91],[-39.1184,-11.9223],[-39.0767,-11.95],[-39.0465,-11.9826],[-39.0051,-12.0452],[-38.9967,-12.1013],[-38.9747,-12.1194],[-38.9722,-12.1377],[-38.9764,-12.1422],[-38.9763,-12.1691],[-38.9724,-12.186],[-38.9319,-12.2406],[-38.9348,-12.3714],[-38.9232,-12.4435],[-38.8679,-12.4174],[-38.832,-12.3928],[-38.8083,-12.366],[-38.7715,-12.3058],[-38.7645,-12.2627],[-38.7788,-12.2577],[-38.7869,-12.2362],[-38.7875,-12.2027],[-38.7763,-12.1261],[-38.7756,-12.0913],[-38.7816,-12.0581],[-38.8031,-12.0271],[-38.7586,-11.9647],[-38.7429,-11.9525],[-38.6959,-11.9416],[-38.6718,-11.9445],[-38.6707,-11.9402],[-38.6426,-11.9452],[-38.6388,-11.9182],[-38.6478,-11.8498],[-38.6354,-11.7996],[-38.619,-11.7885],[-38.6082,-11.7879],[-38.5937,-11.8015],[-38.5735,-11.8671],[-38.5716,-11.952],[-38.5612,-12.0025],[-38.5503,-12.0359],[-38.5388,-12.0551],[-38.5233,-12.0656],[-38.5048,-12.0939],[-38.4856,-12.0721],[-38.4763,-12.0277],[-38.43,-12.0039],[-38.3829,-12.0076],[-38.3507,-12.0239],[-38.3423,-12.0157],[-38.3345,-11.987],[-38.3316,-11.9213],[-38.3363,-11.8984],[-38.3351,-11.8726],[-38.351,-11.8015],[-38.3476,-11.7843],[-38.3418,-11.7811],[-38.317,-11.7354],[-38.2966,-11.7391],[-38.276,-11.7352],[-38.2147,-11.6881],[-38.1972,-11.6815],[-38.1466,-11.683],[-38.1276,-11.6509],[-38.1161,-11.6446],[-38.1012,-11.6438],[-38.0734,-11.6621],[-38.0659,-11.6872],[-38.0548,-11.6993],[-38.0396,-11.7042],[-37.9924,-11.6974],[-37.9581,-11.7492],[-37.9489,-11.7544],[-37.919,-11.7556],[-37.8819,-11.7296],[-37.8847,-11.6621],[-37.8795,-11.6363],[-37.852,-11.5795],[-37.8605,-11.5631],[-37.8878,-11.538],[-37.9146,-11.5366],[-37.9064,-11.5147],[-37.8733,-11.4706],[-37.8517,-11.3564],[-37.8175,-11.2529],[-37.8019,-11.1617],[-37.7561,-11.0267],[-37.7234,-10.9756],[-37.6725,-10.9306],[-37.6384,-10.924],[-37.6044,-10.9288],[-37.5662,-10.8673],[-37.5213,-10.8213],[-37.5051,-10.7937],[-37.4938,-10.7564],[-37.4852,-10.7491],[-37.5101,-10.7274],[-37.5245,-10.707],[-37.5393,-10.6796],[-37.5621,-10.6159],[-37.5624,-10.5835],[-37.5558,-10.5424],[-37.5411,-10.5134],[-37.4859,-10.4938],[-37.4477,-10.5172],[-37.4302,-10.5403],[-37.408,-10.6196],[-37.387,-10.6509],[-37.3642,-10.661],[-37.3033,-10.6492],[-37.3053,-10.6003],[-37.2998,-10.5703],[-37.3031,-10.498],[-37.3126,-10.4682],[-37.335,-10.4384],[-37.3547,-10.4295],[-37.3815,-10.428],[-37.3931,-10.4209],[-37.3943,-10.3984],[-37.3894,-10.3799],[-37.3289,-10.3234],[-37.2915,-10.2765],[-37.3414,-10.2016],[-37.3525,-10.1956],[-37.4067,-10.1302],[-37.3474,-10.0981],[-37.3247,-10.0787],[-37.3068,-10.0451],[-37.2621,-10.0542],[-37.2326,-10.0528],[-37.2042,-10.0317],[-37.179,-10.0052],[-37.169,-9.9709],[-37.154,-9.9489],[-37.0976,-10.0046],[-37.0753,-10.009],[-37.0415,-10.0003],[-37.007,-10.019],[-36.9693,-10.1103],[-36.9328,-10.1435],[-36.8035,-10.2118],[-36.7482,-10.2494],[-36.719,-10.2568],[-36.6544,-10.2522],[-36.6389,-10.2583],[-36.6108,-10.2947],[-36.6023,-10.3639],[-36.5914,-10.3911],[-36.5654,-10.4082],[-36.4871,-10.4032],[-36.4613,-10.4139],[-36.441,-10.4746],[-36.4526,-10.4894],[-36.488,-10.5032],[-36.5017,-10.5003],[-36.5074,-10.4794],[-36.5313,-10.4768],[-36.5731,-10.5084],[-36.6323,-10.5292],[-36.6304,-10.5356],[-36.6168,-10.5369],[-36.5422,-10.5174],[-36.5387,-10.5237],[-36.5453,-10.5303],[-36.7297,-10.5912],[-36.8341,-10.6437],[-36.8607,-10.6734],[-36.975,-10.7408],[-37.0149,-10.7853],[-37.018,-10.7984],[-37.0381,-10.8101],[-37.0468,-10.8071],[-37.0422,-10.7844],[-37.0716,-10.7689],[-37.0787,-10.7577],[-37.083,-10.7206],[-37.1257,-10.7216],[-37.16,-10.7143],[-37.1597,-10.7273],[-37.1302,-10.7476],[-37.1212,-10.7636],[-37.1244,-10.775],[-37.1464,-10.782],[-37.1477,-10.7982],[-37.1389,-10.8093],[-37.073,-10.8482],[-37.0707,-10.874],[-37.0818,-10.905],[-37.0543,-10.914],[-37.0487,-10.9317],[-37.0954,-10.9765],[-37.1264,-11.0306],[-37.1448,-11.044],[-37.1637,-11.0412],[-37.1673,-11.0332],[-37.1645,-11.0089],[-37.1446,-10.989],[-37.1483,-10.9778],[-37.1653,-10.9782],[-37.1751,-10.9978],[-37.1953,-11.008],[-37.2227,-11.0054],[-37.2573,-10.9869],[-37.283,-10.9875],[-37.298,-10.9992],[-37.284,-11.0134],[-37.2496,-11.0223],[-37.2391,-11.0334],[-37.2402,-11.056],[-37.228,-11.0671],[-37.2022,-11.0713],[-37.1878,-11.0985],[-37.1654,-11.106],[-37.1635,-11.1156],[-37.2049,-11.1636],[-37.2623,-11.1925],[-37.2873,-11.2158],[-37.3118,-11.2602],[-37.3404,-11.3402],[-37.3586,-11.3617],[-37.3944,-11.3659],[-37.4051,-11.3516],[-37.4025,-11.3191],[-37.3318,-11.2137],[-37.3273,-11.1877],[-37.341,-11.188],[-37.3774,-11.2359],[-37.4251,-11.2419],[-37.4185,-11.2952],[-37.4251,-11.3051],[-37.4605,-11.3238],[-37.4652,-11.3401],[-37.4353,-11.3718],[-37.4329,-11.3993],[-37.4185,-11.4248],[-37.4686,-11.4698],[-37.538,-11.4959],[-37.5445,-11.5107],[-37.534,-11.5185],[-37.5169,-11.5181],[-37.4881,-11.5076],[-37.3941,-11.442],[-37.3786,-11.4432],[-37.3749,-11.4545],[-37.4509,-11.5536],[-37.481,-11.5787],[-37.5334,-11.6644],[-37.5838,-11.6981],[-37.5885,-11.7145],[-37.5443,-11.702],[-37.5386,-11.7213],[-37.585,-11.836],[-37.6442,-11.8635],[-37.6385,-11.8828],[-37.5991,-11.8818],[-37.59156389505685,-11.903922114510529],[-37.6857,-12.099],[-37.7699,-12.2387],[-38.0302,-12.5972],[-38.3043,-12.9109],[-38.54242658801204,-12.997075921292662],[-38.5329,-12.9853],[-38.5275,-12.9396],[-38.4955,-12.9142],[-38.4997,-12.8916],[-38.4903,-12.8603],[-38.5051,-12.8249],[-38.4764,-12.8078],[-38.4751,-12.7932],[-38.4842,-12.7788],[-38.564,-12.7516],[-38.5997,-12.7673],[-38.6238,-12.7663],[-38.6309,-12.7567],[-38.6319,-12.7258],[-38.6531,-12.7036],[-38.6574,-12.6743],[-38.6908,-12.6492],[-38.72,-12.6499],[-38.7262,-12.6713],[-38.7481,-12.6882],[-38.7355,-12.709],[-38.7703,-12.8127],[-38.7918,-12.8442],[-38.8174,-12.8498],[-38.8669,-12.8039],[-38.8795,-12.7814],[-38.8823,-12.7439],[-38.8581,-12.6894],[-38.8618,-12.6798],[-38.8823,-12.6819],[-38.9117,-12.7398],[-38.9548,-12.7344],[-38.9561,-12.7491],[-38.9256,-12.794],[-38.929,-12.8577],[-38.9237,-12.8625],[-38.9066,-12.8571],[-38.8937,-12.8258],[-38.875,-12.8204],[-38.861,-12.8298],[-38.8443,-12.8701],[-38.8283,-12.8876],[-38.8007,-12.8918],[-38.7804,-12.8782],[-38.7441,-12.887],[-38.7315,-12.9062],[-38.7581,-12.9363],[-38.769,-12.9757],[-38.7905,-13.0024],[-38.818,-13.0619],[-38.8777,-13.0798],[-38.903,-13.1001],[-38.9392,-13.0978],[-38.9476,-13.103],[-38.9455,-13.116],[-38.8379,-13.1456],[-38.83107640343152,-13.158564833480119],[-38.9188,-13.2136],[-38.9497,-13.263],[-38.9694,-13.3533],[-38.9861,-13.3684],[-39.0289,-13.3778],[-39.0395,-13.3716],[-39.0505,-13.349],[-39.0726,-13.3595],[-39.0961,-13.5479],[-39.0847,-13.5819],[-39.0382,-13.5789],[-39.0085,-13.5927],[-38.9975,-13.612],[-38.9931,-13.6412],[-38.9732,-13.6717],[-38.9936,-13.7327],[-38.9805,-13.8172],[-38.9853,-13.8304],[-39.0043,-13.8277],[-39.0191,-13.8004],[-39.0418,-13.7913],[-39.0458,-13.7195],[-39.055,-13.7018],[-39.0704,-13.7056],[-39.0782,-13.7319],[-39.0886,-13.7322],[-39.1101,-13.7067],[-39.1306,-13.7122],[-39.1389,-13.7255],[-39.1333,-13.7385],[-39.0735,-13.771],[-39.0651,-13.8164],[-39.0294,-13.8546],[-39.0218,-13.8739],[-39.032,-13.8808],[-39.0618,-13.8653],[-39.1166,-13.8801],[-39.116,-13.8996],[-39.091,-13.9234],[-39.0932,-13.961],[-39.0726,-13.9571],[-39.0576,-13.9403],[-39.0439,-13.9383],[-39.0229,-13.9458],[-39.0138,-13.9586],[-39.0175,-14.0044],[-39.0083,-14.0204],[-39.0076,-14.0416],[-39.0554,-14.0595],[-39.0751,-14.0911],[-39.0743,-14.1123],[-39.0649,-14.1365],[-39.0438,-14.1473],[-39.04,-14.1063],[-38.9962,-14.0723],[-38.9579,-13.9258],[-38.9588,-13.8997],[-38.95393958585838,-13.893170352718837],[-38.9889,-14.2174],[-39.0023,-14.2472],[-39.00047468656377,-14.298221856526903],[-39.01073789968728,-14.369886167608048],[-39.0547,-14.4792]]],[[[-42.636347420320476,-14.927512555027294],[-42.6095,-14.9333],[-42.59178867625548,-14.950987079473427],[-42.636347420320476,-14.927512555027294]]]]}},{"type":"Feature","properties":{"name":"Cerrado","year":2004,"id":"CER"},"geometry":{"type":"MultiPolygon","coordinates":[[[[-43.205,-11.0386],[-43.1716,-10.9734],[-43.142,-10.9334],[-43.126,-10.9242],[-43.1262,-10.9185],[-43.0501,-10.8525],[-42.969,-10.7589],[-42.9297,-10.7388],[-42.9018,-10.7321],[-42.8595,-10.7134],[-42.8207,-10.6832],[-42.7729,-10.611],[-42.7376,-10.5249],[-42.7107,-10.4909],[-42.6834,-10.4698],[-42.5906,-10.3745],[-42.5245,-10.3327],[-42.5236,-10.3704],[-42.5684,-10.4247],[-42.602,-10.5109],[-42.6512,-10.5525],[-42.6936,-10.6073],[-42.7389,-10.7349],[-42.761,-10.7516],[-42.8104,-10.7651],[-42.9415,-10.8238],[-43.0466,-10.9535],[-43.0772,-10.9769],[-43.1505,-11.0021],[-43.205,-11.0386]]],[[[-48.1287,-5.2624],[-48.1087,-5.2635],[-48.0257,-5.2442],[-48.10098579940417,-5.267507391266316],[-48.1287,-5.2624]]],[[[-43.1806,-11.2874],[-43.1797,-11.274],[-43.192,-11.2277],[-43.1602,-11.1099],[-43.1128,-11.035],[-43.0294,-10.9683],[-42.9684,-10.8935],[-42.9107,-10.8418],[-42.8579,-10.8134],[-42.7712,-10.7848],[-42.7763,-10.8163],[-42.8244,-10.8603],[-42.8763,-10.8996],[-42.9032,-10.98],[-42.9146,-10.9979],[-42.993,-11.0319],[-43.0188,-11.0544],[-43.1806,-11.2874]]],[[[-43.175,-12.666],[-43.1932,-12.5613],[-43.202,-12.5415],[-43.2241,-12.3876],[-43.2695,-12.3085],[-43.2681,-12.2671],[-43.2514,-12.2205],[-43.2517,-12.1824],[-43.3599,-11.9546],[-43.3601,-11.9264],[-43.3348,-11.8715],[-43.3334,-11.8301],[-43.3632,-11.7292],[-43.3757,-11.6547],[-43.3639,-11.6215],[-43.3197,-11.5913],[-43.3094,-11.5929],[-43.2916,-11.5699],[-43.2869,-11.6463],[-43.3062,-11.7707],[-43.3024,-11.8311],[-43.2768,-11.9512],[-43.2438,-12.0307],[-43.2009,-12.1703],[-43.1854,-12.3056],[-43.1537,-12.4479],[-43.1447,-12.5196],[-43.1443,-12.5628],[-43.15,-12.6063],[-43.16,-12.6513],[-43.175,-12.666]]],[[[-42.7713,-14.8123],[-42.7417,-14.7934],[-42.7115,-14.7445],[-42.6686,-14.6417],[-42.6342,-14.5153],[-42.6123,-14.5308],[-42.6033,-14.5232],[-42.5872,-14.5582],[-42.5815,-14.5876],[-42.5835,-14.6414],[-42.6049,-14.7653],[-42.6237,-14.8381],[-42.6357,-14.8675],[-42.641963319526624,-14.923634171597632],[-42.79331271429987,-14.81911110890893],[-42.7713,-14.8123]]],[[[-43.8741,-14.5613],[-43.8023,-14.3728],[-43.76,-14.3009],[-43.7038,-14.2387],[-43.6888,-14.1937],[-43.6636,-14.0108],[-43.6198,-13.9257],[-43.5985,-13.8391],[-43.5403,-13.6659],[-43.4724,-13.5739],[-43.4473,-13.5155],[-43.4445,-13.4641],[-43.4609,-13.3863],[-43.4545,-13.3498],[-43.4243,-13.2831],[-43.4197,-13.2333],[-43.4294,-13.1406],[-43.42,-13.0559],[-43.3861,-13.0075],[-43.3733,-12.9178],[-43.3445,-12.8777],[-43.3261,-12.8295],[-43.2309,-12.734],[-43.1894,-12.7153],[-43.1906,-12.7445],[-43.2186,-12.782],[-43.2436,-12.8262],[-43.2603,-12.8754],[-43.2842,-12.9191],[-43.2813,-12.92],[-43.3193,-13.0094],[-43.3711,-13.1932],[-43.4009,-13.2651],[-43.4298,-13.3678],[-43.4332,-13.4177],[-43.3779,-13.4127],[-43.3747,-13.4183],[-43.3672,-13.418],[-43.356,-13.4334],[-43.3514,-13.4707],[-43.3574,-13.5027],[-43.3901,-13.5761],[-43.4031,-13.6199],[-43.3982,-13.6616],[-43.3715,-13.7295],[-43.3831,-13.7506],[-43.3911,-13.7842],[-43.3943,-13.8474],[-43.3801,-13.9276],[-43.3241,-14.0665],[-43.3107,-14.1266],[-43.3119,-14.1896],[-43.3546,-14.3418],[-43.3554,-14.388],[-43.3805,-14.4612],[-43.3836,-14.4902],[-43.3652,-14.5283],[-43.3543,-14.5365],[-43.3118,-14.5433],[-43.2883,-14.5307],[-43.2787,-14.5115],[-43.2857,-14.4296],[-43.2718,-14.4074],[-43.2421,-14.3988],[-43.1876,-14.4065],[-43.1659,-14.3896],[-43.1421,-14.3842],[-43.1326,-14.3925],[-43.1121,-14.4434],[-43.0707,-14.5193],[-43.0369,-14.5336],[-42.989,-14.5286],[-42.9552,-14.5428],[-42.9347,-14.5606],[-42.9268,-14.5991],[-42.942,-14.6243],[-42.9613,-14.6428],[-42.9907,-14.6419],[-43.0111,-14.6356],[-43.2624,-14.5987],[-43.2956,-14.5988],[-43.3493,-14.6084],[-43.3611,-14.6133],[-43.371,-14.6252],[-43.3733,-14.6398],[-43.3645,-14.6971],[-43.369756064396825,-14.73799116719243],[-43.487,-14.7903],[-43.5308,-14.8155],[-43.7122,-14.7153],[-43.8812,-14.5624],[-43.87733357310471,-14.551644191423446],[-43.8741,-14.5613]]],[[[-41.6862,-2.842],[-41.6302,-2.8975],[-41.5221,-2.905],[-41.5246,-2.9503],[-41.5387,-2.9876],[-41.5676,-3.008],[-41.6027,-2.9883],[-41.635,-2.9572],[-41.6498,-2.9316],[-41.6878,-2.9149],[-41.7228,-2.9095],[-41.7433,-2.8979],[-41.7546,-2.905],[-41.786,-2.9654],[-41.7863,-2.9785],[-41.8069,-3.0012],[-41.8219,-2.9927],[-41.8476,-2.9394],[-41.8842,-2.9222],[-41.8999,-2.8675],[-41.9581,-2.8256],[-41.982,-2.8379],[-41.994,-2.8579],[-41.9915,-2.9017],[-41.9994,-2.9177],[-41.9892,-2.9406],[-41.9852,-2.9719],[-41.9342,-3.0496],[-41.909,-3.1131],[-41.8708,-3.1416],[-41.8339,-3.1568],[-41.8061,-3.1787],[-41.7881,-3.2038],[-41.8026,-3.2124],[-41.82,-3.2409],[-41.8331,-3.2511],[-41.8447,-3.2512],[-41.9076,-3.2305],[-41.9324,-3.2307],[-41.9445,-3.2517],[-41.9562,-3.317],[-41.9892,-3.3533],[-41.9979,-3.3562],[-42.0271,-3.3551],[-42.0331,-3.3466],[-42.1018,-3.3317],[-42.1106,-3.3217],[-42.1502,-3.3035],[-42.1954,-3.3012],[-42.2127,-3.3229],[-42.2157,-3.3826],[-42.2233,-3.4074],[-42.2365,-3.4281],[-42.2752,-3.4695],[-42.3385,-3.4908],[-42.3517,-3.4897],[-42.2926,-3.3908],[-42.2843,-3.3552],[-42.2956,-3.3467],[-42.3431,-3.3546],[-42.3922,-3.3294],[-42.4035,-3.332],[-42.4132,-3.3518],[-42.4204,-3.3838],[-42.4515,-3.3989],[-42.464,-3.3978],[-42.4764,-3.409],[-42.4773,-3.4348],[-42.4646,-3.4555],[-42.4328,-3.4872],[-42.4718,-3.4961],[-42.5124,-3.4748],[-42.537,-3.4703],[-42.5516,-3.4753],[-42.56,-3.4863],[-42.5659,-3.508],[-42.5648,-3.5691],[-42.5456,-3.5609],[-42.5217,-3.5635],[-42.507,-3.5734],[-42.511,-3.5993],[-42.5456,-3.6356],[-42.5774,-3.6575],[-42.5787,-3.669],[-42.5859,-3.6734],[-42.5986,-3.7095],[-42.5968,-3.7382],[-42.5879,-3.7424],[-42.5632,-3.7364],[-42.4696,-3.6504],[-42.4473,-3.6498],[-42.433,-3.6576],[-42.4496,-3.7277],[-42.4356,-3.7907],[-42.4656,-3.8399],[-42.5194,-3.8521],[-42.5266,-3.858],[-42.5265,-3.8637],[-42.5367,-3.8653],[-42.5439,-3.8726],[-42.5527,-3.8698],[-42.5793,-3.8429],[-42.6122,-3.7801],[-42.6505,-3.7576],[-42.6648,-3.7765],[-42.6647,-3.7836],[-42.6734,-3.7909],[-42.6866,-3.8888],[-42.7133,-3.9049],[-42.7296,-3.8971],[-42.7639,-3.8478],[-42.8285,-3.8634],[-42.8789,-3.91],[-42.8889,-3.926],[-42.8974,-3.9923],[-42.9282,-4.0253],[-42.9097,-4.02],[-42.8934,-4.0258],[-42.8771,-4.0466],[-42.8344,-4.0719],[-42.8322,-4.1237],[-42.8372,-4.1812],[-42.8311,-4.1998],[-42.8133,-4.2197],[-42.7768,-4.2192],[-42.7697,-4.2119],[-42.7406,-4.2029],[-42.6721,-4.1947],[-42.642,-4.1584],[-42.6146,-4.1379],[-42.5577,-4.1385],[-42.5502,-4.1499],[-42.5513,-4.1729],[-42.5758,-4.1933],[-42.5814,-4.2092],[-42.579,-4.2767],[-42.6001,-4.3244],[-42.6,-4.3359],[-42.5808,-4.35],[-42.5798,-4.3765],[-42.5735,-4.3963],[-42.5784,-4.4703],[-42.5727,-4.4978],[-42.5794,-4.5324],[-42.6026,-4.5711],[-42.6301,-4.6314],[-42.659,-4.6644],[-42.6794,-4.6719],[-42.7125,-4.6969],[-42.7223,-4.7272],[-42.6663,-4.7579],[-42.6687,-4.7896],[-42.6579,-4.7999],[-42.6242,-4.8084],[-42.6033,-4.845],[-42.5697,-4.8544],[-42.5514,-4.916],[-42.5541,-4.9341],[-42.5947,-4.9672],[-42.6045,-4.9823],[-42.6062,-5.0034],[-42.5819,-5.1603],[-42.5794,-5.2177],[-42.58,-5.2637],[-42.5935,-5.3214],[-42.6077,-5.3432],[-42.6208,-5.3506],[-42.6485,-5.3511],[-42.6677,-5.3414],[-42.6872,-5.3145],[-42.696,-5.2341],[-42.7215,-5.1972],[-42.739,-5.2004],[-42.7474,-5.2178],[-42.765,-5.2986],[-42.7734,-5.3146],[-42.7982,-5.3193],[-42.8366,-5.2984],[-42.8831,-5.2317],[-42.9246,-5.1993],[-42.9482,-5.1882],[-42.976,-5.1844],[-42.9934,-5.1947],[-42.9957,-5.2307],[-42.9805,-5.2636],[-42.9597,-5.2805],[-42.9347,-5.2887],[-42.9154,-5.3027],[-42.905,-5.3126],[-42.9033,-5.3284],[-42.9279,-5.3389],[-42.9841,-5.3039],[-43.0061,-5.3014],[-43.0191,-5.3117],[-43.0347,-5.335],[-43.0342,-5.3667],[-43.0264,-5.3895],[-43.0006,-5.4409],[-42.9766,-5.4764],[-42.9689,-5.4993],[-42.9713,-5.5267],[-42.9854,-5.5514],[-43.0085,-5.5691],[-43.0466,-5.5669],[-43.0716,-5.5587],[-43.079,-5.5517],[-43.1202,-5.5409],[-43.1478,-5.5486],[-43.1953,-5.5897],[-43.221,-5.6233],[-43.2293,-5.6465],[-43.2289,-5.6681],[-43.2066,-5.6864],[-43.189,-5.689],[-43.1786,-5.6974],[-43.1755,-5.7074],[-43.1839,-5.7306],[-43.2039,-5.7555],[-43.2036,-5.7699],[-43.1708,-5.8024],[-43.1629,-5.8296],[-43.1673,-5.8311],[-43.1671,-5.8397],[-43.1814,-5.8587],[-43.2352,-5.8756],[-43.2622,-5.9149],[-43.2998,-5.9401],[-43.3232,-5.942],[-43.3704,-5.9213],[-43.388,-5.9202],[-43.3966,-5.9305],[-43.3977,-5.9463],[-43.388,-5.9922],[-43.3901,-6.0384],[-43.3852,-6.0599],[-43.3753,-6.0732],[-43.356,-6.0749],[-43.3369,-6.0645],[-43.3236,-6.0672],[-43.3122,-6.08],[-43.3249,-6.1523],[-43.3188,-6.1609],[-43.2476,-6.207],[-43.2028,-6.2507],[-43.1893,-6.2677],[-43.183,-6.2863],[-43.1741,-6.2919],[-43.1447,-6.2956],[-43.1319,-6.2781],[-43.124,-6.1685],[-43.125,-6.1167],[-43.1103,-6.0473],[-43.1004,-6.0313],[-43.076,-6.0107],[-43.0439,-6.0029],[-43.031,-6.0066],[-43.0261,-6.0155],[-43.0194,-6.129],[-43.0115,-6.1576],[-42.9906,-6.1773],[-42.9728,-6.1856],[-42.9464,-6.1894],[-42.9238,-6.2134],[-42.8545,-6.2413],[-42.8316,-6.2938],[-42.8339,-6.3151],[-42.8465,-6.3398],[-42.8727,-6.3489],[-42.9254,-6.3515],[-42.947,-6.3663],[-42.9581,-6.3953],[-42.9578,-6.4083],[-42.9413,-6.4252],[-42.9192,-6.4319],[-42.8944,-6.43],[-42.8538,-6.4076],[-42.8541,-6.5255],[-42.8809,-6.5735],[-42.8833,-6.598],[-42.8777,-6.6497],[-42.8873,-6.6786],[-42.9119,-6.6936],[-42.9557,-6.6989],[-43.0154,-6.6968],[-43.013,-6.7596],[-43.0261,-6.8256],[-43.0224,-6.8586],[-43.0409,-6.8821],[-43.0465,-6.8966],[-43.0456,-6.9325],[-43.0323,-7.0013],[-43.046,-7.0419],[-43.0853,-7.0529],[-43.0913,-7.0501],[-43.0997,-7.0043],[-43.146,-6.9679],[-43.1499,-6.9262],[-43.1458,-6.9103],[-43.1477,-6.8283],[-43.1613,-6.748],[-43.1571,-6.7125],[-43.1396,-6.6786],[-43.1602,-6.663],[-43.171,-6.6417],[-43.1869,-6.583],[-43.1991,-6.5631],[-43.2215,-6.5419],[-43.2754,-6.556],[-43.3106,-6.5568],[-43.3371,-6.5501],[-43.4018,-6.5072],[-43.4253,-6.4991],[-43.4442,-6.5023],[-43.4871,-6.5525],[-43.4212,-6.5908],[-43.3941,-6.6233],[-43.3893,-6.6434],[-43.3902,-6.6665],[-43.4027,-6.7013],[-43.4514,-6.7499],[-43.4699,-6.7777],[-43.4739,-6.7936],[-43.4718,-6.8238],[-43.4582,-6.8423],[-43.4343,-6.8619],[-43.4114,-6.9032],[-43.405,-6.9261],[-43.4066,-6.9838],[-43.4274,-7.0305],[-43.4602,-7.0672],[-43.531,-7.1636],[-43.571,-7.2048],[-43.5965,-7.2399],[-43.6397,-7.2667],[-43.691,-7.3116],[-43.7165,-7.3525],[-43.7445,-7.4109],[-43.7545,-7.4212],[-43.8074,-7.607],[-43.8464,-7.8763],[-43.8551,-7.8823],[-43.8586,-7.9199],[-43.9065,-8.0596],[-43.9233,-8.1281],[-43.9163,-8.1711],[-43.9179,-8.2259],[-43.927,-8.249],[-43.9122,-8.2474],[-43.8947,-8.2345],[-43.8451,-8.2139],[-43.8675,-8.3245],[-43.9361,-8.4869],[-43.9572,-8.5073],[-43.9241,-8.5527],[-43.8543,-8.4868],[-43.8058,-8.4293],[-43.7511,-8.327],[-43.7341,-8.3049],[-43.7329,-8.2967],[-43.7193,-8.2847],[-43.7025,-8.2396],[-43.6963,-8.1727],[-43.6977,-8.1208],[-43.7127,-8.0519],[-43.7165,-7.9597],[-43.7048,-7.8989],[-43.7035,-7.7113],[-43.6888,-7.5293],[-43.6668,-7.4682],[-43.6442,-7.4331],[-43.6141,-7.3992],[-43.5101,-7.3277],[-43.3187,-7.2339],[-43.3012,-7.2292],[-43.2659,-7.2313],[-43.2371,-7.2695],[-43.2398,-7.3401],[-43.2541,-7.4153],[-43.2519,-7.4455],[-43.2483,-7.4604],[-43.2046,-7.5044],[-43.2506,-7.5714],[-43.3263,-7.6418],[-43.3505,-7.6712],[-43.3732,-7.7063],[-43.4037,-7.7762],[-43.4077,-7.7936],[-43.4055,-7.8223],[-43.3776,-7.8793],[-43.3838,-7.9803],[-43.4055,-8.05],[-43.4199,-8.1714],[-43.4306,-8.2121],[-43.4286,-8.2293],[-43.4417,-8.2887],[-43.453,-8.3078],[-43.4876,-8.3332],[-43.4932,-8.3434],[-43.5129,-8.4304],[-43.5267,-8.4654],[-43.5378,-8.5267],[-43.52,-8.5673],[-43.5065,-8.5766],[-43.4897,-8.5794],[-43.4666,-8.5756],[-43.4179,-8.5332],[-43.3893,-8.5249],[-43.3493,-8.527],[-43.3038,-8.514],[-43.2995,-8.5371],[-43.3127,-8.5908],[-43.3134,-8.6181],[-43.3054,-8.641],[-43.2938,-8.6574],[-43.2945,-8.6783],[-43.2793,-8.7415],[-43.2747,-8.7878],[-43.2802,-8.7987],[-43.3,-8.9289],[-43.2968,-8.9361],[-43.2816,-8.9459],[-43.3041,-8.9881],[-43.3379,-8.9934],[-43.3494,-9.0038],[-43.3541,-9.0429],[-43.3711,-9.0664],[-43.3871,-9.0741],[-43.4369,-9.0856],[-43.5224,-9.0837],[-43.6251,-9.101],[-43.6651,-9.0949],[-43.695,-9.0813],[-43.7087,-9.0673],[-43.7141,-9.0328],[-43.7324,-8.9972],[-43.7669,-8.9895],[-43.7956,-8.9658],[-43.845,-8.9383],[-43.8832,-8.9407],[-43.9021,-8.9748],[-43.8671,-9.0428],[-43.8661,-9.0774],[-43.8901,-9.1155],[-43.8996,-9.1447],[-43.9018,-9.1693],[-43.8916,-9.2166],[-43.887,-9.2742],[-43.8363,-9.4179],[-43.8629,-9.4438],[-43.9211,-9.4715],[-43.9645,-9.5016],[-44.0401,-9.5889],[-44.0677,-9.6055],[-44.1697,-9.6503],[-44.2388,-9.7144],[-44.3159,-9.7541],[-44.3385,-9.7894],[-44.3726,-9.8088],[-44.3535,-9.8303],[-44.3374,-9.8761],[-44.3166,-9.8813],[-44.3022,-9.8664],[-44.2941,-9.8416],[-44.2758,-9.8108],[-44.2485,-9.7854],[-44.2164,-9.773],[-44.1539,-9.7856],[-44.1392,-9.7838],[-44.1232,-9.7775],[-44.0949,-9.7348],[-44.0714,-9.7298],[-44.0385,-9.7419],[-44.0215,-9.7197],[-43.9979,-9.7176],[-43.9154,-9.7614],[-43.883,-9.7561],[-43.8697,-9.7586],[-43.8469,-9.7796],[-43.8081,-9.8391],[-43.7946,-9.8921],[-43.7958,-9.9498],[-43.8054,-10.0036],[-43.8224,-10.0415],[-43.8217,-10.0646],[-43.7988,-10.0884],[-43.7751,-10.0877],[-43.7493,-10.0638],[-43.7369,-10.0346],[-43.7332,-9.9981],[-43.712,-9.9283],[-43.7115,-9.9088],[-43.672,-9.8898],[-43.652,-9.8676],[-43.6452,-9.8501],[-43.6476,-9.8213],[-43.6176,-9.7887],[-43.6121,-9.777],[-43.5954,-9.6957],[-43.5717,-9.6489],[-43.5527,-9.6425],[-43.5288,-9.6519],[-43.4547,-9.7073],[-43.4184,-9.7268],[-43.3937,-9.7331],[-43.4029,-9.7609],[-43.4308,-9.8089],[-43.4279,-9.8521],[-43.4428,-9.8958],[-43.4384,-9.9389],[-43.4235,-9.9969],[-43.4476,-10.0843],[-43.4465,-10.1439],[-43.437,-10.1846],[-43.4119,-10.2022],[-43.3414,-10.3221],[-43.3359,-10.3248],[-43.3341,-10.3489],[-43.3035,-10.4332],[-43.2813,-10.4757],[-43.2807,-10.493],[-43.2725,-10.5158],[-43.2782,-10.565],[-43.3008,-10.5974],[-43.3487,-10.625],[-43.402,-10.6309],[-43.4373,-10.8845],[-43.448,-11.0002],[-43.4345,-11.0863],[-43.4086,-11.1863],[-43.3798,-11.2429],[-43.3234,-11.3123],[-43.3041,-11.2732],[-43.228,-11.0793],[-43.2065,-11.0687],[-43.1877,-11.0719],[-43.1825,-11.0835],[-43.1925,-11.1316],[-43.2178,-11.198],[-43.2139,-11.2659],[-43.2511,-11.349],[-43.2658,-11.4468],[-43.3199,-11.5565],[-43.3352,-11.5732],[-43.3795,-11.5984],[-43.4033,-11.6267],[-43.4132,-11.6748],[-43.3678,-11.8038],[-43.3691,-11.8668],[-43.3857,-11.9316],[-43.3821,-11.9647],[-43.3628,-12.0176],[-43.3124,-12.1084],[-43.3017,-12.1497],[-43.2792,-12.1827],[-43.2772,-12.2108],[-43.3007,-12.269],[-43.3004,-12.2988],[-43.2601,-12.3962],[-43.2169,-12.5897],[-43.2059,-12.6625],[-43.2124,-12.6924],[-43.2704,-12.7327],[-43.3077,-12.7829],[-43.3418,-12.813],[-43.367,-12.863],[-43.3977,-12.8899],[-43.4094,-12.9215],[-43.4018,-12.9894],[-43.4527,-13.0546],[-43.4624,-13.1094],[-43.4827,-13.1445],[-43.479,-13.166],[-43.465,-13.1841],[-43.454,-13.2486],[-43.4787,-13.3385],[-43.4741,-13.4429],[-43.4817,-13.5192],[-43.4901,-13.5426],[-43.5088,-13.5627],[-43.5551,-13.5815],[-43.5721,-13.6032],[-43.5746,-13.6796],[-43.6237,-13.7532],[-43.6378,-13.8695],[-43.6944,-14.0361],[-43.7355,-14.1943],[-43.8031,-14.3081],[-43.81241252684728,-14.333034765762516],[-44.0457,-14.2838],[-44.296,-14.2532],[-44.4118,-14.2816],[-44.7414,-14.4671],[-45.3057,-14.8337],[-45.6169,-15.0141],[-45.7398,-15.1204],[-45.9717,-15.1539],[-46.0394,-14.8753],[-46.0251,-14.6781],[-45.9072,-14.3552],[-46.0601,-14.2319],[-46.227,-14.049],[-46.2121,-14.0101],[-46.2357,-13.7081],[-46.209,-13.4656],[-46.0683,-13.2954],[-46.2925,-13.3169],[-46.2987,-13.0638],[-46.113,-12.918],[-46.328,-12.9547],[-46.2824,-12.7639],[-46.1982,-12.504],[-46.3716,-12.3498],[-46.3712,-12.0997],[-46.3889,-12.0488],[-46.3376,-11.8131],[-46.3617,-11.631],[-46.0809,-11.624],[-46.1128,-11.606],[-46.4393,-11.521],[-46.5599,-11.3716],[-46.553,-11.2654],[-46.1276,-10.6206],[-45.8202,-10.4561],[-45.7235,-10.1554],[-46.0124,-10.2507],[-46.1949,-10.183],[-46.4452,-10.0774],[-46.4751,-9.9045],[-46.6444,-9.7403],[-46.6328,-9.4116],[-47.0383,-9.0006],[-46.8461,-8.534],[-46.7267,-8.3831],[-46.544,-8.3174],[-46.4657,-8.0727],[-46.6086,-7.893],[-46.8066,-7.951],[-47.0148,-8.0588],[-47.4298,-7.5472],[-47.57958088072236,-7.448055795269685],[-47.5691,-7.4435],[-47.5518,-7.422],[-47.4955,-7.3894],[-47.4747,-7.3613],[-47.464,-7.328],[-47.4802,-7.2858],[-47.5069,-7.2619],[-47.5591,-7.2494],[-47.581,-7.249],[-47.6236,-7.2668],[-47.6388,-7.2665],[-47.67297303940092,-7.226978773637628],[-47.575918304268534,-7.064842777108937],[-47.5539,-7.0468],[-47.5046,-6.927],[-47.4972,-6.8936],[-47.4956,-6.8015],[-47.4639,-6.725],[-47.4694,-6.6545],[-47.4091,-6.4915],[-47.4042,-6.4061],[-47.3701,-6.2962],[-47.3676,-6.2527],[-47.3802,-6.2039],[-47.4078,-6.1431],[-47.4172,-6.0173],[-47.4128,-5.8751],[-47.45226719305596,-5.775058616869133],[-47.46404274001099,-5.709204040690003],[-47.4574,-5.6548],[-47.4772,-5.5506],[-47.4935,-5.5201],[-47.5248,-5.4877],[-47.6047,-5.4425],[-47.6533,-5.4265],[-47.6796,-5.3991],[-47.8139,-5.3746],[-47.8235,-5.3675],[-47.7156,-5.3352],[-47.5476,-5.2611],[-47.4587,-5.2415],[-47.3685,-5.2835],[-47.2766,-5.3959],[-47.1858,-5.4555],[-47.1412,-5.4545],[-47.0523,-5.4348],[-46.956,-5.3533],[-46.8863,-5.2813],[-46.8247,-5.2446],[-46.7803,-5.2348],[-46.7361,-5.2161],[-46.735,-5.2601],[-46.7507,-5.3485],[-46.7323,-5.3745],[-46.6876,-5.3734],[-46.5997,-5.3185],[-46.5553,-5.3086],[-46.5004,-5.3601],[-46.3471,-5.4181],[-46.3453,-5.4884],[-46.3353,-5.5322],[-46.2729,-5.5217],[-46.2096,-5.5555],[-46.1652,-5.5456],[-46.0951,-5.4911],[-45.8955,-5.266],[-45.8257,-5.2025],[-45.7564,-5.1215],[-45.7228,-5.0414],[-45.6691,-5.0488],[-45.5921,-4.9236],[-45.5852,-4.861],[-45.6178,-4.7903],[-45.6295,-4.7428],[-45.6412,-4.6918],[-45.6397,-4.6166],[-45.6652,-4.5203],[-45.6232,-4.4224],[-45.487,-4.5157],[-45.4242,-4.5317],[-45.2884,-4.6074],[-45.2161,-4.6407],[-45.1108,-4.5762],[-45.0326,-4.5036],[-44.9086,-4.4738],[-44.8566,-4.4196],[-44.797,-4.321],[-44.7389,-4.1696],[-44.7312,-4.1254],[-44.5922,-3.9766],[-44.589,-3.9586],[-44.5972,-3.9323],[-44.5985,-3.8858],[-44.6171,-3.8314],[-44.6232,-3.7682],[-44.67,-3.6215],[-44.6494,-3.5956],[-44.5984,-3.5899],[-44.5563,-3.5676],[-44.5089,-3.4352],[-44.4727,-3.3581],[-44.3681,-3.2875],[-44.3343,-3.2738],[-44.3212,-3.2862],[-44.329,-3.3117],[-44.3454,-3.3334],[-44.3399,-3.3755],[-44.3141,-3.3832],[-44.2768,-3.3441],[-44.2568,-3.3012],[-44.228,-3.2623],[-44.1949,-3.2276],[-44.1652,-3.2225],[-44.1473,-3.2516],[-44.1588,-3.2942],[-44.1575,-3.3407],[-44.1348,-3.3865],[-44.1133,-3.4005],[-44.1061,-3.3974],[-44.0843,-3.3639],[-44.0342,-3.3244],[-44.0276,-3.3099],[-43.9686,-3.2806],[-43.9908,-3.2566],[-43.9911,-3.2274],[-43.9831,-3.1898],[-43.9582,-3.1479],[-43.9584,-3.1271],[-43.9759,-3.0606],[-44.0398,-2.9778],[-44.0442,-2.957],[-44.0403,-2.9195],[-43.9615,-2.8622],[-43.9545,-2.8451],[-43.9305,-2.8168],[-43.8838,-2.7899],[-43.8933,-2.7601],[-43.8949,-2.7341],[-43.8478,-2.7204],[-43.8328,-2.7073],[-43.834,-2.6862],[-43.8181,-2.648],[-43.8081,-2.6319],[-43.7709,-2.6095],[-43.7672,-2.6003],[-43.7325,-2.6032],[-43.7082,-2.598],[-43.6881,-2.5828],[-43.676,-2.5807],[-43.6568,-2.5835],[-43.6486,-2.5915],[-43.6365,-2.5894],[-43.6294,-2.5658],[-43.6206,-2.5669],[-43.6018,-2.5508],[-43.6013,-2.5275],[-43.576,-2.5231],[-43.56089262909169,-2.498424627516432],[-43.50762377549033,-2.491967110172158],[-43.5032,-2.4949],[-43.5059,-2.5429],[-43.486,-2.5517],[-43.4702,-2.5205],[-43.4617,-2.5174],[-43.4526,-2.5607],[-43.441,-2.5659],[-43.4321,-2.5412],[-43.4348,-2.5163],[-43.457351623566524,-2.47889957079297],[-43.442106365554274,-2.4526033243172964],[-43.3999,-2.4574],[-43.3946,-2.4476],[-43.42632324556233,-2.4253793302642075],[-43.39016355593205,-2.363008190973691],[-43.3711,-2.3752],[-43.3411,-2.3808],[-43.3423,-2.3642],[-43.35700274131356,-2.3488491497924526],[-43.078013514484205,-2.4367772160516346],[-43.044,-2.4554],[-42.9724,-2.4768],[-42.8796,-2.5301],[-42.8164,-2.5563],[-42.77334218165398,-2.5657538124113017],[-42.66092405405043,-2.616527175159648],[-42.6419,-2.6361],[-42.5543,-2.6958],[-42.511,-2.7099],[-42.4847,-2.7402],[-42.4414,-2.756],[-42.3869,-2.7951],[-42.3751,-2.7937],[-42.3732,-2.7838],[-42.4409,-2.7312],[-42.4423,-2.7163],[-42.3819,-2.7208],[-42.3455,-2.7431],[-42.3001,-2.7407],[-42.2075,-2.807],[-42.1254,-2.8136],[-42.1665,-2.7748],[-42.2362,-2.7337],[-42.22968100373558,-2.69249660053383],[-42.2226,-2.6922],[-42.2008327924963,-2.695772983379957],[-42.1537,-2.7222],[-42.0895,-2.7813],[-42.0849,-2.8045],[-42.0995,-2.8243],[-42.0671,-2.8378],[-42.0436,-2.835],[-42.0323,-2.8233],[-42.0808,-2.7666],[-42.154244492375,-2.7034202308280073],[-42.041531626581055,-2.721921510614154],[-42.0205,-2.7728],[-41.9927,-2.8113],[-41.9854,-2.7817],[-41.9933,-2.7601],[-41.98167822319285,-2.7317461615485255],[-41.815968543005226,-2.7575269560406057],[-41.8088,-2.7775],[-41.797,-2.764],[-41.7785,-2.7611],[-41.68979939196272,-2.8321370991887695],[-41.6862,-2.842]],[[-44.5572,-7.1947],[-44.5385,-7.1899],[-44.4756,-7.1472],[-44.3958,-7.1148],[-44.357,-7.1168],[-44.2994,-7.1057],[-44.2823,-7.0793],[-44.2619,-7.0712],[-44.2476,-6.9965],[-44.2357,-6.9817],[-44.2153,-6.9736],[-44.2014,-6.9388],[-44.181,-6.9191],[-44.1757,-6.8959],[-44.1587,-6.8877],[-44.1364,-6.8547],[-44.1024,-6.8351],[-44.087,-6.812],[-44.0531,-6.8007],[-44.051,-6.7659],[-44.0289,-6.7461],[-43.9227,-6.7588],[-43.8802,-6.7393],[-43.8431,-6.7347],[-43.7973,-6.7119],[-43.7703,-6.7138],[-43.738,-6.6925],[-43.6571,-6.7049],[-43.6237,-6.7433],[-43.6119,-6.7484],[-43.5798,-6.7454],[-43.5544,-6.7307],[-43.5525,-6.7141],[-43.5691,-6.6808],[-43.6062,-6.6755],[-43.6229,-6.6621],[-43.6584,-6.6667],[-43.6853,-6.6598],[-43.7003,-6.6365],[-43.7241,-6.6545],[-43.7611,-6.6409],[-43.7714,-6.6623],[-43.8068,-6.6603],[-43.8187,-6.6685],[-43.8274,-6.6883],[-43.8595,-6.6914],[-43.9036,-6.7142],[-43.9474,-6.7054],[-43.9893,-6.6801],[-43.998,-6.7016],[-44.0201,-6.7114],[-44.0706,-6.7059],[-44.0843,-6.7223],[-44.0813,-6.7539],[-44.1187,-6.7751],[-44.1462,-6.8214],[-44.1698,-6.8261],[-44.2068,-6.8125],[-44.2036,-6.8291],[-44.1786,-6.8543],[-44.1788,-6.8742],[-44.2678,-6.9847],[-44.2848,-6.9928],[-44.2921,-7.0493],[-44.3041,-7.0674],[-44.3262,-7.0772],[-44.3633,-7.0735],[-44.407,-7.0531],[-44.4105,-7.0664],[-44.4039,-7.0798],[-44.4107,-7.088],[-44.5043,-7.1453],[-44.5519,-7.1814],[-44.5572,-7.1947]]],[[[-47.67106269712184,-7.272660745350399],[-47.6396,-7.3117],[-47.6158,-7.3037],[-47.5917,-7.2807],[-47.5663,-7.2777],[-47.5141,-7.287],[-47.4858,-7.3142],[-47.488,-7.346],[-47.5019,-7.3676],[-47.5634,-7.4051],[-47.594719712766164,-7.433526319528443],[-47.67106269712184,-7.272660745350399]]],[[[-47.5212,-6.9133],[-47.53793361228863,-6.955981296438232],[-47.52340976897869,-6.859774484738514],[-47.5212,-6.9133]]],[[[-47.5011,-6.7277],[-47.5015735136374,-6.7288882512032995],[-47.501068214267185,-6.725908440513872],[-47.5011,-6.7277]]],[[[-47.43812168943383,-5.879963570275776],[-47.4358,-5.9333],[-47.438756329386315,-5.945416104042285],[-47.43812168943383,-5.879963570275776]]],[[[-47.587,-5.4831],[-47.5537,-5.4988],[-47.5191,-5.5397],[-47.4982,-5.587],[-47.498693273687394,-5.602176769498212],[-47.62174845689707,-5.4756880585059005],[-47.587,-5.4831]]]]}},{"type":"Feature","properties":{"name":"Caatinga","year":2004,"id":"CAAT"},"geometry":{"type":"MultiPolygon","coordinates":[[[[-39.2435,-8.6646],[-39.2589,-8.6501],[-39.2658,-8.6354],[-39.2506,-8.6304],[-39.2318,-8.6499],[-39.23,-8.6613],[-39.2435,-8.6646]]],[[[-39.7414,-8.7583],[-39.7754,-8.7552],[-39.7806,-8.7389],[-39.7364,-8.7419],[-39.7347,-8.7533],[-39.7414,-8.7583]]],[[[-39.3632,-8.5284],[-39.3837,-8.5106],[-39.3905,-8.4959],[-39.3855,-8.4861],[-39.3634,-8.4925],[-39.3429,-8.5168],[-39.3463,-8.5283],[-39.3632,-8.5284]]],[[[-39.4513,-8.529],[-39.4565,-8.5176],[-39.4295,-8.4995],[-39.4261,-8.5043],[-39.4412,-8.5273],[-39.4513,-8.529]]],[[[-39.5442,-8.5852],[-39.5679,-8.5837],[-39.5714,-8.5772],[-39.563,-8.569],[-39.546,-8.5722],[-39.5442,-8.5852]]],[[[-42.641963319526624,-14.923634171597632],[-42.6357,-14.8675],[-42.6237,-14.8381],[-42.6049,-14.7653],[-42.5835,-14.6414],[-42.5815,-14.5876],[-42.5872,-14.5582],[-42.6033,-14.5232],[-42.6123,-14.5308],[-42.6342,-14.5153],[-42.6686,-14.6417],[-42.7115,-14.7445],[-42.7417,-14.7934],[-42.7713,-14.8123],[-42.79331271429987,-14.81911110890893],[-42.8721,-14.7647],[-43.175,-14.6511],[-43.369756064396825,-14.73799116719243],[-43.3645,-14.6971],[-43.3733,-14.6398],[-43.371,-14.6252],[-43.3611,-14.6133],[-43.3493,-14.6084],[-43.2956,-14.5988],[-43.2624,-14.5987],[-43.0111,-14.6356],[-42.9907,-14.6419],[-42.9613,-14.6428],[-42.942,-14.6243],[-42.9268,-14.5991],[-42.9272,-14.5905],[-42.9347,-14.5606],[-42.9552,-14.5428],[-42.989,-14.5286],[-43.0369,-14.5336],[-43.0707,-14.5193],[-43.1121,-14.4434],[-43.1326,-14.3925],[-43.1421,-14.3842],[-43.1659,-14.3896],[-43.1876,-14.4065],[-43.2421,-14.3988],[-43.2718,-14.4074],[-43.2857,-14.4296],[-43.2787,-14.5115],[-43.2883,-14.5307],[-43.3118,-14.5433],[-43.3435,-14.5404],[-43.3652,-14.5283],[-43.372,-14.5113],[-43.3766,-14.5101],[-43.3843,-14.4758],[-43.3554,-14.388],[-43.3546,-14.3418],[-43.3119,-14.1896],[-43.3107,-14.1266],[-43.3241,-14.0665],[-43.3801,-13.9276],[-43.3943,-13.8474],[-43.3911,-13.7842],[-43.3831,-13.7506],[-43.3715,-13.7295],[-43.3982,-13.6616],[-43.4031,-13.6199],[-43.3901,-13.5761],[-43.3574,-13.5027],[-43.3514,-13.4707],[-43.356,-13.4334],[-43.3672,-13.418],[-43.3747,-13.4183],[-43.3779,-13.4127],[-43.4332,-13.4177],[-43.4298,-13.3678],[-43.4187,-13.3207],[-43.3711,-13.1932],[-43.3313,-13.0431],[-43.2436,-12.8262],[-43.2186,-12.782],[-43.1906,-12.7445],[-43.1894,-12.7153],[-43.1745,-12.7085],[-43.175,-12.666],[-43.16,-12.6513],[-43.1452,-12.5773],[-43.1447,-12.5196],[-43.1516,-12.4623],[-43.1808,-12.3337],[-43.2009,-12.1703],[-43.2438,-12.0307],[-43.2768,-11.9512],[-43.3024,-11.8311],[-43.3062,-11.7707],[-43.2869,-11.6463],[-43.2916,-11.5699],[-43.267,-11.538],[-43.2134,-11.352],[-43.1813,-11.2988],[-43.1806,-11.2874],[-43.0992,-11.1667],[-43.0074,-11.0425],[-42.9682,-11.0195],[-42.9146,-10.9979],[-42.9032,-10.98],[-42.8886,-10.9288],[-42.8707,-10.8922],[-42.8244,-10.8603],[-42.7763,-10.8163],[-42.7712,-10.7848],[-42.7251,-10.7564],[-42.7099,-10.7348],[-42.6832,-10.637],[-42.6629,-10.5989],[-42.5764,-10.5256],[-42.5394,-10.4312],[-42.475,-10.3598],[-42.4311,-10.2719],[-42.4074,-10.2536],[-42.3989,-10.2371],[-42.4093,-10.2074],[-42.3992,-10.1891],[-42.3907,-10.1891],[-42.3616,-10.2187],[-42.3531,-10.2186],[-42.3463,-10.2087],[-42.3635,-10.1691],[-42.4045,-10.1561],[-42.4233,-10.1331],[-42.4251,-10.1083],[-42.4049,-10.0553],[-42.3777,-10.0403],[-42.2466,-10.0496],[-42.2194,-10.0363],[-42.1856,-9.9866],[-42.1229,-9.9384],[-42.1045,-9.8739],[-42.0622,-9.8192],[-42.0659,-9.7631],[-42.0557,-9.7482],[-41.9945,-9.7545],[-41.9687,-9.8122],[-41.95,-9.8005],[-41.9485,-9.7609],[-41.8739,-9.716],[-41.8535,-9.7192],[-41.8226,-9.7636],[-41.7698,-9.788],[-41.7595,-9.8011],[-41.7916,-9.8425],[-41.7864,-9.8573],[-41.7728,-9.8572],[-41.7626,-9.8489],[-41.7086,-9.786],[-41.6949,-9.7876],[-41.6881,-9.7974],[-41.693,-9.8353],[-41.6794,-9.8303],[-41.6743,-9.8204],[-41.6438,-9.8136],[-41.6099,-9.7887],[-41.5844,-9.7836],[-41.5642,-9.7505],[-41.5318,-9.7652],[-41.5213,-9.8096],[-41.506,-9.8012],[-41.4977,-9.7699],[-41.4859,-9.7649],[-41.4672,-9.7647],[-41.4228,-9.7925],[-41.4024,-9.7907],[-41.3533,-9.7426],[-41.3228,-9.7276],[-41.3009,-9.6995],[-41.2533,-9.7024],[-41.2312,-9.6908],[-41.2057,-9.6972],[-41.187,-9.6937],[-41.1549,-9.6606],[-41.1483,-9.6326],[-41.1586,-9.6097],[-41.1435,-9.5816],[-41.1438,-9.5355],[-41.1152,-9.491],[-41.0865,-9.4628],[-41.0695,-9.4561],[-41.0508,-9.4626],[-41.0488,-9.5086],[-41.0437,-9.5119],[-41.0318,-9.5101],[-41.0133,-9.4771],[-40.9674,-9.4851],[-40.9518,-9.5244],[-40.9366,-9.5144],[-40.9469,-9.4915],[-40.9471,-9.4718],[-40.9319,-9.4503],[-40.9064,-9.4468],[-40.852,-9.4629],[-40.8078,-9.4642],[-40.8044,-9.4543],[-40.643,-9.4482],[-40.587,-9.438],[-40.5532,-9.4213],[-40.4587,-9.3385],[-40.3908,-9.32],[-40.3503,-9.2901],[-40.3134,-9.2226],[-40.3057,-9.1209],[-40.2958,-9.0815],[-40.2638,-9.0387],[-40.2503,-9.032],[-40.2265,-9.0335],[-40.1923,-9.0611],[-40.1651,-9.0675],[-40.0789,-9.0275],[-39.9838,-9.0235],[-39.945,-8.9954],[-39.898,-8.9263],[-39.8931,-8.8984],[-39.9052,-8.8642],[-39.9054,-8.8412],[-39.8937,-8.8183],[-39.8582,-8.7984],[-39.792,-8.7995],[-39.7192,-8.7794],[-39.7024,-8.7564],[-39.7063,-8.6779],[-39.6947,-8.6516],[-39.5305,-8.6047],[-39.4512,-8.5454],[-39.4022,-8.5336],[-39.3614,-8.5431],[-39.3155,-8.5689],[-39.2981,-8.6259],[-39.2622,-8.668],[-39.2264,-8.6841],[-39.1415,-8.6981],[-39.1246,-8.6898],[-39.0856,-8.6911],[-39.0567,-8.7055],[-39.0412,-8.7331],[-39.0427,-8.7478],[-39.0645,-8.7741],[-39.0576,-8.7903],[-39.0153,-8.7818],[-38.9507,-8.7975],[-38.9238,-8.7728],[-38.8644,-8.7706],[-38.8542,-8.7721],[-38.8319,-8.8012],[-38.7588,-8.8201],[-38.7519,-8.8347],[-38.7581,-8.8852],[-38.7461,-8.9014],[-38.7171,-8.9125],[-38.722,-8.9353],[-38.7454,-8.9665],[-38.7367,-8.9844],[-38.7064,-8.9677],[-38.6674,-8.9641],[-38.6178,-8.8366],[-38.5926,-8.8135],[-38.5553,-8.8082],[-38.5468,-8.8147],[-38.5448,-8.8423],[-38.5899,-8.9128],[-38.5878,-8.9469],[-38.5724,-8.9582],[-38.55,-8.9921],[-38.5192,-9.0113],[-38.4834,-9.0222],[-38.4648,-9.0204],[-38.4142,-8.9938],[-38.3971,-9.0001],[-38.3952,-9.0212],[-38.4356,-9.0461],[-38.4388,-9.0656],[-38.4319,-9.0753],[-38.4081,-9.0734],[-38.3859,-9.0878],[-38.3563,-9.1492],[-38.347,-9.206],[-38.3064,-9.3225],[-38.2631,-9.3886],[-38.2028,-9.4463],[-38.059,-9.5108],[-38.011,-9.5409],[-37.8999,-9.5765],[-37.8413,-9.6275],[-37.7932,-9.6544],[-37.7318,-9.6631],[-37.7045,-9.674],[-37.5614,-9.7785],[-37.5171,-9.7842],[-37.4782,-9.7722],[-37.4406,-9.7829],[-37.2322,-9.9134],[-37.1618,-9.9412],[-37.154,-9.9489],[-37.169,-9.9709],[-37.179,-10.0052],[-37.2042,-10.0317],[-37.2326,-10.0528],[-37.2621,-10.0542],[-37.3068,-10.0451],[-37.3247,-10.0787],[-37.3474,-10.0981],[-37.4067,-10.1302],[-37.3525,-10.1956],[-37.3414,-10.2016],[-37.2915,-10.2765],[-37.3289,-10.3234],[-37.3894,-10.3799],[-37.3943,-10.3984],[-37.3931,-10.4209],[-37.3815,-10.428],[-37.3547,-10.4295],[-37.335,-10.4384],[-37.3126,-10.4682],[-37.3031,-10.498],[-37.2998,-10.5703],[-37.3053,-10.6003],[-37.3033,-10.6492],[-37.3642,-10.661],[-37.387,-10.6509],[-37.408,-10.6196],[-37.4302,-10.5403],[-37.4477,-10.5172],[-37.4859,-10.4938],[-37.5411,-10.5134],[-37.5558,-10.5424],[-37.5624,-10.5835],[-37.5621,-10.6159],[-37.5393,-10.6796],[-37.5245,-10.707],[-37.5101,-10.7274],[-37.4852,-10.7491],[-37.4938,-10.7564],[-37.5051,-10.7937],[-37.5213,-10.8213],[-37.5662,-10.8673],[-37.6044,-10.9288],[-37.6384,-10.924],[-37.6725,-10.9306],[-37.7234,-10.9756],[-37.7561,-11.0267],[-37.8019,-11.1617],[-37.8175,-11.2529],[-37.8517,-11.3564],[-37.8733,-11.4706],[-37.9064,-11.5147],[-37.9146,-11.5366],[-37.8878,-11.538],[-37.8605,-11.5631],[-37.852,-11.5795],[-37.8795,-11.6363],[-37.8847,-11.6621],[-37.8819,-11.7296],[-37.919,-11.7556],[-37.9489,-11.7544],[-37.9581,-11.7492],[-37.9924,-11.6974],[-38.0396,-11.7042],[-38.0548,-11.6993],[-38.0659,-11.6872],[-38.0734,-11.6621],[-38.1012,-11.6438],[-38.1161,-11.6446],[-38.1276,-11.6509],[-38.1466,-11.683],[-38.1972,-11.6815],[-38.2147,-11.6881],[-38.276,-11.7352],[-38.2966,-11.7391],[-38.317,-11.7354],[-38.3418,-11.7811],[-38.3476,-11.7843],[-38.351,-11.8015],[-38.3351,-11.8726],[-38.3363,-11.8984],[-38.3316,-11.9213],[-38.3345,-11.987],[-38.3423,-12.0157],[-38.3507,-12.0239],[-38.3829,-12.0076],[-38.43,-12.0039],[-38.4763,-12.0277],[-38.4856,-12.0721],[-38.5048,-12.0939],[-38.5233,-12.0656],[-38.5388,-12.0551],[-38.5503,-12.0359],[-38.5612,-12.0025],[-38.5716,-11.952],[-38.5735,-11.8671],[-38.5937,-11.8015],[-38.6082,-11.7879],[-38.619,-11.7885],[-38.6354,-11.7996],[-38.6478,-11.8498],[-38.6388,-11.9182],[-38.6426,-11.9452],[-38.6707,-11.9402],[-38.6718,-11.9445],[-38.6959,-11.9416],[-38.7429,-11.9525],[-38.7586,-11.9647],[-38.8031,-12.0271],[-38.7816,-12.0581],[-38.7756,-12.0913],[-38.7763,-12.1261],[-38.7875,-12.2027],[-38.7869,-12.2362],[-38.7788,-12.2577],[-38.7645,-12.2627],[-38.7715,-12.3058],[-38.8083,-12.366],[-38.832,-12.3928],[-38.8679,-12.4174],[-38.9232,-12.4435],[-38.9348,-12.3714],[-38.9319,-12.2406],[-38.9724,-12.186],[-38.9763,-12.1691],[-38.9764,-12.1422],[-38.9722,-12.1377],[-38.9747,-12.1194],[-38.9967,-12.1013],[-39.0051,-12.0452],[-39.0465,-11.9826],[-39.0767,-11.95],[-39.1184,-11.9223],[-39.1549,-11.91],[-39.2512,-11.9192],[-39.5084,-11.9135],[-39.4855,-11.9907],[-39.4773,-12.0045],[-39.4095,-12.0736],[-39.4052,-12.0723],[-39.3829,-12.122],[-39.3618,-12.2063],[-39.3423,-12.2622],[-39.2877,-12.3574],[-39.2716,-12.3779],[-39.2421,-12.3977],[-39.2115,-12.4103],[-39.1514,-12.4184],[-39.1246,-12.4426],[-39.1254,-12.4694],[-39.1392,-12.4844],[-39.165,-12.4524],[-39.1754,-12.451],[-39.1819,-12.4642],[-39.1712,-12.4803],[-39.1706,-12.5015],[-39.2321,-12.5144],[-39.2424,-12.5316],[-39.2655,-12.5353],[-39.3316,-12.5019],[-39.3616,-12.4992],[-39.3986,-12.504],[-39.4764,-12.5404],[-39.5313,-12.582],[-39.5535,-12.616],[-39.5506,-12.64],[-39.5139,-12.6552],[-39.5111,-12.6778],[-39.5459,-12.748],[-39.5612,-12.7929],[-39.5735,-12.8121],[-39.5907,-12.8258],[-39.6428,-12.8542],[-39.6885,-12.8652],[-39.7154,-12.8908],[-39.7388,-12.9006],[-39.7993,-12.8991],[-39.8024,-12.9381],[-39.8132,-12.9586],[-39.8317,-12.9739],[-39.8539,-12.9779],[-40.0167,-13.0536],[-40.0593,-13.0703],[-40.0953,-13.0779],[-40.1139,-13.1327],[-40.1524,-13.199],[-40.1859,-13.2421],[-40.2319,-13.2745],[-40.2787,-13.2941],[-40.3378,-13.3086],[-40.3858,-13.3069],[-40.4342,-13.298],[-40.4803,-13.3032],[-40.5138,-13.3207],[-40.5626,-13.3575],[-40.6128,-13.3802],[-40.6231,-13.4145],[-40.5953,-13.4368],[-40.565,-13.4748],[-40.5079,-13.4761],[-40.4896,-13.508],[-40.4618,-13.5751],[-40.4114,-13.6167],[-40.3543,-13.6436],[-40.3278,-13.6622],[-40.2697,-13.6548],[-40.16,-13.6588],[-40.1346,-13.6817],[-40.1237,-13.7139],[-40.1242,-13.7312],[-40.137,-13.7643],[-40.123,-13.8252],[-40.1251,-13.8653],[-40.135,-13.8939],[-40.1466,-13.9041],[-40.1512,-13.9552],[-40.1681,-14.0218],[-40.1937,-14.0946],[-40.2328,-14.1681],[-40.274,-14.2318],[-40.2814,-14.2337],[-40.3083,-14.2609],[-40.336,-14.2996],[-40.3651,-14.3184],[-40.3978,-14.3318],[-40.4053,-14.3438],[-40.4036,-14.3706],[-40.4288,-14.4048],[-40.4846,-14.4279],[-40.5047,-14.4433],[-40.5153,-14.4668],[-40.5221,-14.5272],[-40.5498,-14.5659],[-40.6302,-14.6062],[-40.6599,-14.6121],[-40.82,-14.6053],[-40.8445,-14.598],[-40.8848,-14.5802],[-40.9094,-14.5458],[-40.9375,-14.4786],[-40.9627,-14.4342],[-40.9817,-14.4202],[-40.9972,-14.4153],[-41.0102,-14.4372],[-41.0184,-14.4858],[-41.0167,-14.5144],[-41.0075,-14.5425],[-40.9725,-14.5735],[-40.9592,-14.5943],[-40.9497,-14.6281],[-40.9539,-14.657],[-40.9713,-14.68],[-40.9862,-14.6866],[-40.9985,-14.6854],[-41.0071,-14.7109],[-41.0325,-14.7529],[-41.043,-14.7549],[-41.044,-14.7622],[-41.0641,-14.779],[-41.1343,-14.8158],[-41.2067,-14.89],[-41.2505,-14.9138],[-41.2953,-14.922],[-41.321,-14.9205],[-41.3411,-14.9374],[-41.3428,-14.959],[-41.3792,-14.9682],[-41.3791,-15.0207],[-41.3956,-15.035],[-41.4075,-15.0385],[-41.4815,-15.0382],[-41.5556,-15.0302],[-41.5624,-15.0055],[-41.5726,-14.9958],[-41.6018,-14.9916],[-41.6496,-14.9965],[-41.6958,-14.9886],[-41.715,-14.9897],[-41.7534,-15.0031],[-41.7767,-15.0168],[-41.8056,-15.0172],[-41.8773,-15.0039],[-41.9259,-15.0076],[-41.9853,-15.0426],[-42.027,-15.0504],[-42.0655,-15.0633],[-42.0712,-15.0693],[-42.1428,-15.0831],[-42.1722,-15.0975],[-42.1852,-15.1122],[-42.2048,-15.1223],[-42.24478465315725,-15.129381673655983],[-42.2656,-15.125],[-42.2776,-15.1137],[-42.479,-15.0142],[-42.5157,-14.9829],[-42.59178867625548,-14.950987079473427],[-42.6095,-14.9333],[-42.636347420320476,-14.927512555027294],[-42.641963319526624,-14.923634171597632]]],[[[-35.5495,-5.1762],[-35.5296,-5.2248],[-35.5046,-5.3181],[-35.4815,-5.3551],[-35.4484,-5.3911],[-35.4222,-5.4286],[-35.3754,-5.5191],[-35.375,-5.533],[-35.3706,-5.5342],[-35.3416,-5.6155],[-35.2857,-5.7341],[-35.2685,-5.8016],[-35.266,-5.8217],[-35.2877,-5.8254],[-35.3046,-5.8454],[-35.3213,-5.9128],[-35.3183,-5.9572],[-35.3088,-5.975],[-35.3067,-5.9958],[-35.3264,-6.0535],[-35.3291,-6.0805],[-35.3209,-6.1002],[-35.328,-6.1064],[-35.3376,-6.1372],[-35.362,-6.1689],[-35.37,-6.1886],[-35.3653,-6.2372],[-35.3683,-6.3153],[-35.3577,-6.3637],[-35.3502,-6.369],[-35.3499,-6.3773],[-35.3313,-6.4059],[-35.2781,-6.4556],[-35.2518,-6.5037],[-35.2435,-6.5922],[-35.2478,-6.5937],[-35.2467,-6.6229],[-35.2119,-6.6737],[-35.2197,-6.7017],[-35.2147,-6.7275],[-35.2243,-6.7808],[-35.2221,-6.8002],[-35.1901,-6.8337],[-35.2481,-6.8832],[-35.3363,-6.9144],[-35.3619,-6.9348],[-35.3659,-6.9447],[-35.3624,-6.9585],[-35.3307,-6.9782],[-35.3009,-6.9896],[-35.2617,-7.016],[-35.2554,-7.0255],[-35.2499,-7.0518],[-35.2514,-7.1228],[-35.2779,-7.1559],[-35.3104,-7.185],[-35.3759,-7.2321],[-35.415,-7.2796],[-35.4615,-7.2911],[-35.4915,-7.3104],[-35.5181,-7.3421],[-35.5412,-7.3835],[-35.567,-7.4061],[-35.5762,-7.4334],[-35.5631,-7.4555],[-35.5277,-7.4582],[-35.5095,-7.4729],[-35.5005,-7.5101],[-35.4949,-7.5699],[-35.4809,-7.5874],[-35.4691,-7.5897],[-35.4517,-7.5848],[-35.4334,-7.566],[-35.4142,-7.568],[-35.3872,-7.6143],[-35.3674,-7.6126],[-35.3319,-7.5844],[-35.227,-7.5492],[-35.2036,-7.5455],[-35.18,-7.5487],[-35.1725,-7.5526],[-35.172,-7.5623],[-35.221,-7.6172],[-35.2371,-7.6513],[-35.2572,-7.6605],[-35.3546,-7.6854],[-35.3674,-7.6943],[-35.4343,-7.7096],[-35.4739,-7.7767],[-35.533,-7.9633],[-35.5724,-8.046],[-35.6234,-8.0256],[-35.6458,-8.0364],[-35.6926,-8.0738],[-35.7274,-8.0934],[-35.7807,-8.1106],[-35.8129,-8.1133],[-35.8367,-8.1088],[-35.8532,-8.1011],[-35.8733,-8.0814],[-35.9744,-8.1106],[-36.0554,-8.1516],[-36.0809,-8.1736],[-36.0842,-8.1962],[-36.0597,-8.2175],[-36.0332,-8.2287],[-35.9974,-8.2295],[-35.9263,-8.2219],[-35.8957,-8.2138],[-35.855,-8.1892],[-35.8021,-8.1869],[-35.7625,-8.2145],[-35.6936,-8.2895],[-35.7168,-8.3089],[-35.7497,-8.3606],[-35.87,-8.3994],[-35.9185,-8.4337],[-35.962,-8.4468],[-35.9913,-8.4495],[-36.0188,-8.4605],[-36.0715,-8.4977],[-36.1435,-8.5331],[-36.2377,-8.5946],[-36.2634,-8.6126],[-36.3339,-8.6787],[-36.3681,-8.7026],[-36.4114,-8.7214],[-36.4991,-8.7364],[-36.5135,-8.7427],[-36.5332,-8.7632],[-36.5743,-8.7664],[-36.5994,-8.797],[-36.6057,-8.8183],[-36.6063,-8.866],[-36.6244,-8.9201],[-36.6307,-8.9709],[-36.6415,-8.991],[-36.6812,-8.9942],[-36.6968,-9.0062],[-36.6926,-9.0326],[-36.658,-9.076],[-36.6493,-9.1317],[-36.6251,-9.1432],[-36.5888,-9.1331],[-36.5764,-9.1143],[-36.5564,-9.0419],[-36.5303,-9.0042],[-36.516,-8.9952],[-36.4881,-8.9911],[-36.47,-9.0001],[-36.4455,-9.0467],[-36.4323,-9.046],[-36.4183,-9.0314],[-36.3952,-9.0205],[-36.3874,-9.0286],[-36.386,-9.086],[-36.4469,-9.1673],[-36.4781,-9.2281],[-36.4899,-9.2764],[-36.4948,-9.3221],[-36.4927,-9.3629],[-36.4753,-9.3757],[-36.4723,-9.3869],[-36.4776,-9.4162],[-36.5101,-9.4444],[-36.5112,-9.4795],[-36.5251,-9.4822],[-36.538,-9.4913],[-36.5506,-9.5326],[-36.5995,-9.5574],[-36.6132,-9.5777],[-36.6191,-9.6074],[-36.6049,-9.7078],[-36.6042,-9.7751],[-36.6098,-9.809],[-36.6427,-9.8723],[-36.6432,-9.8891],[-36.6498,-9.9049],[-36.6589,-9.9139],[-36.6881,-9.9054],[-36.7014,-9.906],[-36.7261,-9.9262],[-36.732,-9.9251],[-36.7573,-9.942],[-36.8164,-9.9421],[-36.8305,-9.9541],[-36.8322,-9.9766],[-36.8241,-10.0183],[-36.7317,-10.0439],[-36.6707,-10.0696],[-36.629,-10.1026],[-36.5932,-10.0811],[-36.5713,-10.0772],[-36.4848,-10.0932],[-36.4497,-10.0858],[-36.4068,-10.0318],[-36.3697,-9.9976],[-36.3373,-9.9974],[-36.2868,-10.0284],[-36.2909,-10.0741],[-36.3048,-10.0889],[-36.3863,-10.1112],[-36.3954,-10.1293],[-36.4213,-10.1433],[-36.4401,-10.1765],[-36.4557,-10.1905],[-36.5192,-10.1895],[-36.5809,-10.1739],[-36.6058,-10.1743],[-36.6122,-10.2181],[-36.6248,-10.242],[-36.6551,-10.2215],[-36.7253,-10.2053],[-36.7787,-10.1806],[-36.8473,-10.1611],[-36.9548,-10.0729],[-36.9749,-10.0086],[-36.9889,-9.9895],[-37.0573,-9.9621],[-37.0406,-9.9397],[-37.0039,-9.9069],[-36.9945,-9.8615],[-37.0036,-9.8563],[-37.0155,-9.8555],[-37.0488,-9.8683],[-37.0876,-9.8698],[-37.0929,-9.8837],[-37.1288,-9.9211],[-37.1524,-9.9038],[-37.2312,-9.8746],[-37.355,-9.8073],[-37.4342,-9.7585],[-37.477,-9.7447],[-37.598,-9.7289],[-37.7202,-9.6483],[-37.7953,-9.6317],[-37.8985,-9.5603],[-37.9992,-9.5326],[-38.0747,-9.4834],[-38.1773,-9.441],[-38.2204,-9.3994],[-38.2655,-9.3317],[-38.2954,-9.259],[-38.3137,-9.1601],[-38.3367,-9.0856],[-38.3289,-9.0253],[-38.2818,-8.9922],[-38.2721,-8.9531],[-38.2926,-8.942],[-38.3213,-8.9537],[-38.3366,-8.9522],[-38.3624,-8.9168],[-38.3743,-8.9169],[-38.3995,-8.9432],[-38.4419,-8.9437],[-38.4635,-8.9797],[-38.4839,-8.9783],[-38.5285,-8.9365],[-38.5321,-8.9187],[-38.5052,-8.8972],[-38.4868,-8.871],[-38.4856,-8.8238],[-38.4115,-8.7742],[-38.4185,-8.7564],[-38.4321,-8.7549],[-38.4624,-8.7715],[-38.4997,-8.7735],[-38.527,-8.7624],[-38.5676,-8.7677],[-38.6221,-8.752],[-38.6352,-8.7993],[-38.6571,-8.8109],[-38.6654,-8.824],[-38.6566,-8.8565],[-38.6615,-8.8793],[-38.6766,-8.8942],[-38.6885,-8.8878],[-38.6972,-8.8667],[-38.6994,-8.826],[-38.6677,-8.772],[-38.6714,-8.7378],[-38.6817,-8.72],[-38.6803,-8.6939],[-38.6586,-8.653],[-38.6334,-8.6267],[-38.6335,-8.6153],[-38.6539,-8.6155],[-38.6691,-8.6238],[-38.7059,-8.6714],[-38.7056,-8.7121],[-38.7171,-8.7415],[-38.7135,-8.7659],[-38.7267,-8.8035],[-38.7898,-8.7715],[-38.8601,-8.6923],[-38.8888,-8.7056],[-38.9125,-8.7075],[-38.963,-8.7519],[-38.9766,-8.7504],[-39.0005,-8.7295],[-39.0144,-8.6872],[-39.04,-8.6646],[-39.1774,-8.6625],[-39.1978,-8.6561],[-39.2764,-8.5751],[-39.3074,-8.5035],[-39.3279,-8.4824],[-39.3466,-8.4744],[-39.4144,-8.4716],[-39.4466,-8.4816],[-39.4753,-8.4998],[-39.4971,-8.5342],[-39.5901,-8.5577],[-39.6627,-8.6073],[-39.7253,-8.6355],[-39.7354,-8.6454],[-39.7402,-8.6847],[-39.7553,-8.7093],[-39.8127,-8.7457],[-39.9109,-8.784],[-39.9259,-8.8119],[-39.9271,-8.8938],[-39.9437,-8.9397],[-39.9706,-8.9809],[-40.023,-9.0042],[-40.0892,-9.0096],[-40.1671,-9.0364],[-40.2436,-9.0123],[-40.2775,-9.024],[-40.2926,-9.0389],[-40.3178,-9.0882],[-40.3358,-9.1802],[-40.3658,-9.2624],[-40.3893,-9.297],[-40.4725,-9.3075],[-40.5365,-9.3851],[-40.5787,-9.4133],[-40.6466,-9.4286],[-40.7978,-9.4329],[-40.7845,-9.3901],[-40.8134,-9.3838],[-40.8188,-9.3411],[-40.8325,-9.3182],[-40.8495,-9.3183],[-40.8512,-9.3101],[-40.8276,-9.2837],[-40.826,-9.2721],[-40.8431,-9.2608],[-40.8684,-9.2806],[-40.8753,-9.2626],[-40.8654,-9.2215],[-40.8875,-9.2134],[-40.8977,-9.2151],[-40.9162,-9.2431],[-40.9329,-9.2843],[-40.9448,-9.2959],[-40.9567,-9.2927],[-40.9602,-9.273],[-40.9519,-9.2401],[-40.9605,-9.222],[-40.9419,-9.2006],[-40.9353,-9.1726],[-40.937,-9.166],[-40.954,-9.1677],[-40.9557,-9.153],[-40.9677,-9.1382],[-40.9712,-9.107],[-40.9594,-9.0905],[-40.9528,-9.0691],[-41.0124,-9.0283],[-40.9952,-9.0726],[-41.0053,-9.0908],[-41.0324,-9.0909],[-41.0409,-9.0975],[-41.0358,-9.109],[-41.0102,-9.1171],[-40.9983,-9.1318],[-40.9963,-9.1861],[-41.0081,-9.1993],[-40.9995,-9.219],[-41.0264,-9.2701],[-41.0926,-9.2885],[-41.1215,-9.2871],[-41.1403,-9.2641],[-41.1589,-9.2659],[-41.1845,-9.2545],[-41.1861,-9.2627],[-41.1485,-9.3086],[-41.145,-9.3217],[-41.1432,-9.353],[-41.1567,-9.3695],[-41.1822,-9.3664],[-41.2232,-9.3172],[-41.2572,-9.3059],[-41.2879,-9.283],[-41.31,-9.2864],[-41.3319,-9.3211],[-41.3251,-9.3309],[-41.2571,-9.3322],[-41.1821,-9.3845],[-41.1581,-9.4156],[-41.1511,-9.4616],[-41.168,-9.4765],[-41.2019,-9.4899],[-41.2102,-9.5179],[-41.2288,-9.5361],[-41.2439,-9.5707],[-41.2421,-9.5905],[-41.2556,-9.6037],[-41.2675,-9.6087],[-41.2846,-9.5874],[-41.3033,-9.5843],[-41.3185,-9.5992],[-41.3202,-9.6074],[-41.3099,-9.6205],[-41.3149,-9.6337],[-41.3898,-9.6243],[-41.4103,-9.6047],[-41.4105,-9.5701],[-41.419,-9.5603],[-41.4292,-9.562],[-41.4444,-9.5884],[-41.4579,-9.5967],[-41.4835,-9.5821],[-41.5022,-9.592],[-41.5514,-9.5989],[-41.5685,-9.5875],[-41.5991,-9.5926],[-41.6178,-9.5877],[-41.6262,-9.601],[-41.6174,-9.6652],[-41.6326,-9.6718],[-41.648,-9.6653],[-41.6737,-9.6292],[-41.6671,-9.588],[-41.6893,-9.57],[-41.7317,-9.5817],[-41.7437,-9.5703],[-41.759,-9.5687],[-41.8029,-9.6167],[-41.8981,-9.637],[-41.9559,-9.6207],[-41.9987,-9.5516],[-42.0089,-9.555],[-42.0173,-9.5715],[-42.0309,-9.5716],[-42.0412,-9.56],[-42.0497,-9.5601],[-42.0563,-9.5948],[-42.0732,-9.6212],[-42.1277,-9.6149],[-42.1412,-9.6298],[-42.165,-9.6249],[-42.1699,-9.6877],[-42.2157,-9.7093],[-42.2071,-9.7456],[-42.2138,-9.7853],[-42.2205,-9.7952],[-42.229,-9.7952],[-42.2462,-9.7606],[-42.2581,-9.7656],[-42.2629,-9.835],[-42.2984,-9.8798],[-42.3238,-9.9294],[-42.3237,-9.941],[-42.2896,-9.9491],[-42.276,-9.9606],[-42.2672,-10.0084],[-42.2876,-10.025],[-42.3029,-10.0251],[-42.3643,-9.9891],[-42.3814,-9.9875],[-42.4204,-10.0158],[-42.4562,-10.011],[-42.4749,-10.016],[-42.4561,-10.0258],[-42.4441,-10.0522],[-42.4591,-10.1134],[-42.4368,-10.1546],[-42.4382,-10.2158],[-42.4703,-10.2705],[-42.4972,-10.3384],[-42.5236,-10.3704],[-42.5245,-10.3327],[-42.5763,-10.3625],[-42.6435,-10.4253],[-42.6834,-10.4698],[-42.7107,-10.4909],[-42.7376,-10.5249],[-42.7729,-10.611],[-42.8207,-10.6832],[-42.8595,-10.7134],[-42.9018,-10.7321],[-42.9297,-10.7388],[-42.969,-10.7589],[-43.0501,-10.8525],[-43.1262,-10.9185],[-43.126,-10.9242],[-43.142,-10.9334],[-43.1716,-10.9734],[-43.205,-11.0386],[-43.2203,-11.0489],[-43.2766,-11.0509],[-43.3516,-11.0778],[-43.3856,-11.1127],[-43.314,-11.0958],[-43.261,-11.0955],[-43.228,-11.0793],[-43.3041,-11.2732],[-43.3234,-11.3123],[-43.3798,-11.2429],[-43.4086,-11.1863],[-43.4345,-11.0863],[-43.448,-11.0002],[-43.4373,-10.8845],[-43.402,-10.6309],[-43.3487,-10.625],[-43.3008,-10.5974],[-43.2782,-10.565],[-43.2725,-10.5158],[-43.2807,-10.493],[-43.2813,-10.4757],[-43.3035,-10.4332],[-43.3341,-10.3489],[-43.3359,-10.3248],[-43.3414,-10.3221],[-43.4119,-10.2022],[-43.437,-10.1846],[-43.4465,-10.1439],[-43.4476,-10.0843],[-43.4235,-9.9969],[-43.4384,-9.9389],[-43.4428,-9.8958],[-43.4279,-9.8521],[-43.4308,-9.8089],[-43.4029,-9.7609],[-43.3937,-9.7331],[-43.4184,-9.7268],[-43.4547,-9.7073],[-43.5288,-9.6519],[-43.5527,-9.6425],[-43.5717,-9.6489],[-43.5954,-9.6957],[-43.6121,-9.777],[-43.6176,-9.7887],[-43.6476,-9.8213],[-43.6452,-9.8501],[-43.652,-9.8676],[-43.672,-9.8898],[-43.7115,-9.9088],[-43.712,-9.9283],[-43.7332,-9.9981],[-43.7369,-10.0346],[-43.7493,-10.0638],[-43.7751,-10.0877],[-43.7988,-10.0884],[-43.8217,-10.0646],[-43.8224,-10.0415],[-43.8054,-10.0036],[-43.7958,-9.9498],[-43.7946,-9.8921],[-43.8081,-9.8391],[-43.8469,-9.7796],[-43.8697,-9.7586],[-43.883,-9.7561],[-43.9154,-9.7614],[-43.9979,-9.7176],[-44.0215,-9.7197],[-44.0385,-9.7419],[-44.0714,-9.7298],[-44.0832,-9.7316],[-44.0949,-9.7348],[-44.1232,-9.7775],[-44.1392,-9.7838],[-44.1539,-9.7856],[-44.2164,-9.773],[-44.2485,-9.7854],[-44.2629,-9.796],[-44.2857,-9.8255],[-44.3079,-9.8753],[-44.3166,-9.8813],[-44.3374,-9.8761],[-44.3535,-9.8303],[-44.3726,-9.8088],[-44.3385,-9.7894],[-44.3159,-9.7541],[-44.2388,-9.7144],[-44.1552,-9.6412],[-44.0677,-9.6055],[-44.0401,-9.5889],[-43.9645,-9.5016],[-43.9211,-9.4715],[-43.8629,-9.4438],[-43.8363,-9.4179],[-43.887,-9.2742],[-43.8916,-9.2166],[-43.9018,-9.1693],[-43.8996,-9.1447],[-43.8901,-9.1155],[-43.8661,-9.0774],[-43.8671,-9.0428],[-43.9021,-8.9748],[-43.8832,-8.9407],[-43.845,-8.9383],[-43.7956,-8.9658],[-43.7669,-8.9895],[-43.7324,-8.9972],[-43.7141,-9.0328],[-43.7087,-9.0673],[-43.695,-9.0813],[-43.6651,-9.0949],[-43.6251,-9.101],[-43.5224,-9.0837],[-43.4369,-9.0856],[-43.3871,-9.0741],[-43.3711,-9.0664],[-43.3541,-9.0429],[-43.3494,-9.0038],[-43.3379,-8.9934],[-43.3041,-8.9881],[-43.2816,-8.9459],[-43.2968,-8.9361],[-43.3,-8.9289],[-43.2802,-8.7987],[-43.2747,-8.7878],[-43.2793,-8.7415],[-43.2945,-8.6783],[-43.2938,-8.6574],[-43.3054,-8.641],[-43.3134,-8.6181],[-43.3127,-8.5908],[-43.2995,-8.5371],[-43.3038,-8.514],[-43.3493,-8.527],[-43.3893,-8.5249],[-43.4179,-8.5332],[-43.4666,-8.5756],[-43.4897,-8.5794],[-43.5065,-8.5766],[-43.52,-8.5673],[-43.5378,-8.5267],[-43.5267,-8.4654],[-43.5129,-8.4304],[-43.4932,-8.3434],[-43.4876,-8.3332],[-43.453,-8.3078],[-43.4417,-8.2887],[-43.4286,-8.2293],[-43.4306,-8.2121],[-43.4199,-8.1714],[-43.4055,-8.05],[-43.3838,-7.9803],[-43.3776,-7.8793],[-43.4055,-7.8223],[-43.4077,-7.7936],[-43.4037,-7.7762],[-43.3732,-7.7063],[-43.3505,-7.6712],[-43.3263,-7.6418],[-43.2506,-7.5714],[-43.2046,-7.5044],[-43.2483,-7.4604],[-43.2519,-7.4455],[-43.2541,-7.4153],[-43.2398,-7.3401],[-43.2371,-7.2695],[-43.2659,-7.2313],[-43.3012,-7.2292],[-43.3187,-7.2339],[-43.5101,-7.3277],[-43.6141,-7.3992],[-43.6442,-7.4331],[-43.6668,-7.4682],[-43.6888,-7.5293],[-43.7035,-7.7113],[-43.7048,-7.8989],[-43.7165,-7.9597],[-43.7127,-8.0519],[-43.6977,-8.1208],[-43.6963,-8.1727],[-43.7025,-8.2396],[-43.7193,-8.2847],[-43.7329,-8.2967],[-43.8157,-8.444],[-43.9241,-8.5527],[-43.9572,-8.5073],[-43.9361,-8.4869],[-43.8675,-8.3245],[-43.8451,-8.2139],[-43.8947,-8.2345],[-43.9122,-8.2474],[-43.927,-8.249],[-43.9179,-8.2259],[-43.9163,-8.1711],[-43.9233,-8.1281],[-43.9065,-8.0596],[-43.8586,-7.9199],[-43.8551,-7.8823],[-43.8464,-7.8763],[-43.8074,-7.607],[-43.7545,-7.4212],[-43.7445,-7.4109],[-43.7165,-7.3525],[-43.691,-7.3116],[-43.6397,-7.2667],[-43.5965,-7.2399],[-43.571,-7.2048],[-43.531,-7.1636],[-43.4602,-7.0672],[-43.4274,-7.0305],[-43.4066,-6.9838],[-43.405,-6.9261],[-43.4114,-6.9032],[-43.4343,-6.8619],[-43.4582,-6.8423],[-43.4718,-6.8238],[-43.4739,-6.7936],[-43.4699,-6.7777],[-43.4514,-6.7499],[-43.4027,-6.7013],[-43.3902,-6.6665],[-43.3893,-6.6434],[-43.3941,-6.6233],[-43.4212,-6.5908],[-43.4871,-6.5525],[-43.4442,-6.5023],[-43.4253,-6.4991],[-43.4018,-6.5072],[-43.3371,-6.5501],[-43.3106,-6.5568],[-43.2754,-6.556],[-43.2215,-6.5419],[-43.1991,-6.5631],[-43.1869,-6.583],[-43.171,-6.6417],[-43.1602,-6.663],[-43.1396,-6.6786],[-43.1571,-6.7125],[-43.1613,-6.748],[-43.1477,-6.8283],[-43.1458,-6.9103],[-43.1499,-6.9262],[-43.146,-6.9679],[-43.0997,-7.0043],[-43.0913,-7.0501],[-43.0853,-7.0529],[-43.046,-7.0419],[-43.0323,-7.0013],[-43.0456,-6.9325],[-43.0465,-6.8966],[-43.0409,-6.8821],[-43.0224,-6.8586],[-43.0261,-6.8256],[-43.013,-6.7596],[-43.0154,-6.6968],[-42.9557,-6.6989],[-42.9119,-6.6936],[-42.8873,-6.6786],[-42.8777,-6.6497],[-42.8833,-6.598],[-42.8809,-6.5735],[-42.8541,-6.5255],[-42.8538,-6.4076],[-42.8944,-6.43],[-42.9192,-6.4319],[-42.9413,-6.4252],[-42.9578,-6.4083],[-42.9581,-6.3953],[-42.947,-6.3663],[-42.9254,-6.3515],[-42.8727,-6.3489],[-42.8465,-6.3398],[-42.8339,-6.3151],[-42.8316,-6.2938],[-42.8545,-6.2413],[-42.9238,-6.2134],[-42.9464,-6.1894],[-42.9728,-6.1856],[-42.9906,-6.1773],[-43.0115,-6.1576],[-43.0194,-6.129],[-43.0261,-6.0155],[-43.031,-6.0066],[-43.0439,-6.0029],[-43.076,-6.0107],[-43.1004,-6.0313],[-43.1103,-6.0473],[-43.125,-6.1167],[-43.124,-6.1685],[-43.1319,-6.2781],[-43.1447,-6.2956],[-43.1741,-6.2919],[-43.183,-6.2863],[-43.1893,-6.2677],[-43.2028,-6.2507],[-43.2476,-6.207],[-43.3188,-6.1609],[-43.3249,-6.1523],[-43.3122,-6.08],[-43.3236,-6.0672],[-43.3369,-6.0645],[-43.356,-6.0749],[-43.3753,-6.0732],[-43.3852,-6.0599],[-43.3901,-6.0384],[-43.388,-5.9922],[-43.3977,-5.9463],[-43.3966,-5.9305],[-43.388,-5.9202],[-43.3704,-5.9213],[-43.3232,-5.942],[-43.2998,-5.9401],[-43.2622,-5.9149],[-43.2352,-5.8756],[-43.1814,-5.8587],[-43.1671,-5.8397],[-43.1673,-5.8311],[-43.1629,-5.8296],[-43.1708,-5.8024],[-43.2036,-5.7699],[-43.2039,-5.7555],[-43.1839,-5.7306],[-43.1755,-5.7074],[-43.1786,-5.6974],[-43.189,-5.689],[-43.2066,-5.6864],[-43.2289,-5.6681],[-43.2293,-5.6465],[-43.221,-5.6233],[-43.1953,-5.5897],[-43.1478,-5.5486],[-43.1202,-5.5409],[-43.079,-5.5517],[-43.0716,-5.5587],[-43.0466,-5.5669],[-43.0085,-5.5691],[-42.9854,-5.5514],[-42.9713,-5.5267],[-42.9689,-5.4993],[-42.9766,-5.4764],[-43.0006,-5.4409],[-43.0264,-5.3895],[-43.0342,-5.3667],[-43.0347,-5.335],[-43.0191,-5.3117],[-43.0061,-5.3014],[-42.9841,-5.3039],[-42.9279,-5.3389],[-42.9033,-5.3284],[-42.905,-5.3126],[-42.9154,-5.3027],[-42.9347,-5.2887],[-42.9597,-5.2805],[-42.9805,-5.2636],[-42.9957,-5.2307],[-42.9934,-5.1947],[-42.976,-5.1844],[-42.9482,-5.1882],[-42.9246,-5.1993],[-42.8831,-5.2317],[-42.8366,-5.2984],[-42.7982,-5.3193],[-42.7734,-5.3146],[-42.765,-5.2986],[-42.7474,-5.2178],[-42.739,-5.2004],[-42.7215,-5.1972],[-42.696,-5.2341],[-42.6872,-5.3145],[-42.6677,-5.3414],[-42.6485,-5.3511],[-42.6208,-5.3506],[-42.6077,-5.3432],[-42.5935,-5.3214],[-42.58,-5.2637],[-42.5794,-5.2177],[-42.5819,-5.1603],[-42.6062,-5.0034],[-42.6045,-4.9823],[-42.5947,-4.9672],[-42.5541,-4.9341],[-42.5514,-4.916],[-42.5697,-4.8544],[-42.6033,-4.845],[-42.6242,-4.8084],[-42.6579,-4.7999],[-42.6687,-4.7896],[-42.6663,-4.7579],[-42.7223,-4.7272],[-42.7125,-4.6969],[-42.6794,-4.6719],[-42.659,-4.6644],[-42.6301,-4.6314],[-42.6026,-4.5711],[-42.5794,-4.5324],[-42.5727,-4.4978],[-42.5784,-4.4703],[-42.5735,-4.3963],[-42.5798,-4.3765],[-42.5808,-4.35],[-42.6,-4.3359],[-42.6001,-4.3244],[-42.579,-4.2767],[-42.5814,-4.2092],[-42.5758,-4.1933],[-42.5513,-4.1729],[-42.5502,-4.1499],[-42.5577,-4.1385],[-42.6146,-4.1379],[-42.642,-4.1584],[-42.6721,-4.1947],[-42.7406,-4.2029],[-42.7697,-4.2119],[-42.7768,-4.2192],[-42.8133,-4.2197],[-42.8311,-4.1998],[-42.8372,-4.1812],[-42.8322,-4.1237],[-42.8344,-4.0719],[-42.8771,-4.0466],[-42.8934,-4.0258],[-42.9097,-4.02],[-42.9282,-4.0253],[-42.8974,-3.9923],[-42.8889,-3.926],[-42.8789,-3.91],[-42.8285,-3.8634],[-42.7639,-3.8478],[-42.7296,-3.8971],[-42.7133,-3.9049],[-42.6866,-3.8888],[-42.6734,-3.7909],[-42.6647,-3.7836],[-42.6648,-3.7765],[-42.6505,-3.7576],[-42.6122,-3.7801],[-42.5793,-3.8429],[-42.5527,-3.8698],[-42.5439,-3.8726],[-42.5367,-3.8653],[-42.5265,-3.8637],[-42.5266,-3.858],[-42.5194,-3.8521],[-42.4656,-3.8399],[-42.4356,-3.7907],[-42.4496,-3.7277],[-42.433,-3.6576],[-42.4473,-3.6498],[-42.4696,-3.6504],[-42.5632,-3.7364],[-42.5879,-3.7424],[-42.5968,-3.7382],[-42.5986,-3.7095],[-42.5859,-3.6734],[-42.5787,-3.669],[-42.5774,-3.6575],[-42.5456,-3.6356],[-42.511,-3.5993],[-42.507,-3.5734],[-42.5217,-3.5635],[-42.5456,-3.5609],[-42.5648,-3.5691],[-42.5659,-3.508],[-42.56,-3.4863],[-42.5516,-3.4753],[-42.537,-3.4703],[-42.5124,-3.4748],[-42.4718,-3.4961],[-42.4328,-3.4872],[-42.4646,-3.4555],[-42.4773,-3.4348],[-42.4764,-3.409],[-42.464,-3.3978],[-42.4515,-3.3989],[-42.4204,-3.3838],[-42.4132,-3.3518],[-42.4035,-3.332],[-42.3922,-3.3294],[-42.3431,-3.3546],[-42.2956,-3.3467],[-42.2843,-3.3552],[-42.2926,-3.3908],[-42.3517,-3.4897],[-42.3385,-3.4908],[-42.2752,-3.4695],[-42.2365,-3.4281],[-42.2233,-3.4074],[-42.2157,-3.3826],[-42.2127,-3.3229],[-42.1954,-3.3012],[-42.1502,-3.3035],[-42.1106,-3.3217],[-42.1018,-3.3317],[-42.0331,-3.3466],[-42.0271,-3.3551],[-41.9979,-3.3562],[-41.9892,-3.3533],[-41.9562,-3.317],[-41.9445,-3.2517],[-41.9324,-3.2307],[-41.9076,-3.2305],[-41.8447,-3.2512],[-41.8331,-3.2511],[-41.82,-3.2409],[-41.8026,-3.2124],[-41.7881,-3.2038],[-41.8061,-3.1787],[-41.8339,-3.1568],[-41.8708,-3.1416],[-41.909,-3.1131],[-41.9342,-3.0496],[-41.9852,-2.9719],[-41.9892,-2.9406],[-41.9994,-2.9177],[-41.9915,-2.9017],[-41.994,-2.8579],[-41.982,-2.8379],[-41.9581,-2.8256],[-41.8999,-2.8675],[-41.8842,-2.9222],[-41.8476,-2.9394],[-41.8219,-2.9927],[-41.8069,-3.0012],[-41.7863,-2.9785],[-41.786,-2.9654],[-41.7546,-2.905],[-41.7433,-2.8979],[-41.7228,-2.9095],[-41.6878,-2.9149],[-41.6498,-2.9316],[-41.635,-2.9572],[-41.6027,-2.9883],[-41.5676,-3.008],[-41.5387,-2.9876],[-41.5246,-2.9503],[-41.5221,-2.905],[-41.4994,-2.9066],[-41.4497,-2.9388],[-41.4407,-2.99],[-41.4309,-3.0034],[-41.4207,-2.9986],[-41.4181,-2.9526],[-41.4061,-2.9396],[-41.3426,-2.9523],[-41.3294,-2.9674],[-41.3317,-2.997],[-41.3115,-2.9973],[-41.2817,-3.0144],[-41.2778,-2.9897],[-41.2369,-2.9576],[-41.2399,-2.9378],[-41.2733,-2.929],[-41.270900989486705,-2.916518552875696],[-41.16637433371669,-2.906869938496925],[-41.1238,-2.9268],[-41.0953,-2.929],[-41.0814,-2.9079],[-41.0445,-2.9053],[-41.0258,-2.8958],[-40.9435,-2.8957],[-40.8979,-2.8817],[-40.8627,-2.8807],[-40.8511,-2.8892],[-40.8399,-2.9189],[-40.812,-2.9523],[-40.81,-3.0229],[-40.807,-3.0411],[-40.7988,-3.0478],[-40.7849,-3.025],[-40.7842,-2.9873],[-40.7887,-2.9626],[-40.8163,-2.9128],[-40.816,-2.8997],[-40.804,-2.8851],[-40.77605835125899,-2.8662098712736803],[-40.673656352521746,-2.8553011360680904],[-40.6373,-2.8619],[-40.592,-2.8595],[-40.5548,-2.847],[-40.538118584635,-2.829855211985974],[-40.4886029428681,-2.814095237182297],[-40.4287,-2.8379],[-40.333,-2.838],[-40.2829,-2.8487],[-40.1921,-2.8455],[-40.1356,-2.8743],[-40.1235,-2.8532],[-40.1099,-2.8469],[-39.9328,-2.8927],[-39.8347,-2.9386],[-39.7221,-3.0239],[-39.7036,-3.0258],[-39.69019012880031,-3.01178058920032],[-39.64528521989815,-3.033468816915388],[-39.6186,-3.0567],[-39.5571,-3.0904],[-39.5057,-3.1304],[-39.43829087910416,-3.1474509018403807],[-39.39273028166816,-3.1751383402121722],[-39.3976,-3.1877],[-39.391,-3.196],[-39.35836031089065,-3.197250030646741],[-39.1648,-3.3262],[-39.0646,-3.4067],[-38.95548938739898,-3.455038060073055],[-38.9527,-3.5075],[-38.9667,-3.5415],[-38.9319,-3.5746],[-38.9201,-3.5748],[-38.9342,-3.5061],[-38.9256,-3.4932],[-38.92794315702656,-3.4681524593712565],[-38.85831261055036,-3.5142584228148652],[-38.8009,-3.5764],[-38.6896,-3.6641],[-38.6396,-3.6908],[-38.5839533000573,-3.698900482092033],[-38.46538122980203,-3.780203397864488],[-38.3981,-3.8633],[-38.3053,-3.9469],[-38.274,-3.9976],[-38.2375,-4.0337],[-38.2044,-4.0796],[-38.1915,-4.1235],[-38.158,-4.1352],[-38.1,-4.2024],[-37.9384,-4.3451],[-37.8716,-4.3894],[-37.8046,-4.4095],[-37.8234,-4.4417],[-37.7831,-4.4566],[-37.7167,-4.5463],[-37.6282,-4.6198],[-37.5662,-4.6462],[-37.5479268335536,-4.6375279888050995],[-37.302866175183325,-4.798845168902582],[-37.285,-4.8308],[-37.2333,-4.9022],[-37.1982,-4.9331],[-37.173,-4.9413],[-37.151132712289495,-4.937785614475099],[-37.1386,-4.9479],[-36.885849290800856,-4.969699636989957],[-36.8804,-4.9734],[-36.8721,-5.0025],[-36.8487,-5.0316],[-36.7699,-5.0771],[-36.7027,-5.1031],[-36.6438,-5.1017],[-36.5881,-5.081],[-36.440127884479885,-5.080721585417409],[-36.3913,-5.0993],[-36.3083,-5.1021],[-36.1927,-5.0983],[-36.1355,-5.0904],[-36.0326,-5.0521],[-35.9065,-5.0701],[-35.8006,-5.1072],[-35.6189,-5.1333],[-35.56817070957034,-5.146522238206334],[-35.544770619923135,-5.162075770310994],[-35.5495,-5.1762]],[[-37.7495,-8.5267],[-37.7447,-8.4991],[-37.7331,-8.4828],[-37.7044,-8.4662],[-37.6774,-8.4611],[-37.6775,-8.4481],[-37.6674,-8.4399],[-37.6778,-8.4189],[-37.6678,-8.4091],[-37.6663,-8.3864],[-37.6866,-8.3882],[-37.7015,-8.4273],[-37.7232,-8.4535],[-37.7317,-8.4536],[-37.7352,-8.4455],[-37.7338,-8.4098],[-37.7525,-8.41],[-37.7555,-8.449],[-37.7892,-8.459],[-37.7719,-8.4929],[-37.7751,-8.5108],[-37.7495,-8.5267]],[[-36.3607,-7.6009],[-36.3239,-7.5635],[-36.3053,-7.5649],[-36.2916,-7.5745],[-36.2747,-7.5727],[-36.2631,-7.5484],[-36.221,-7.5368],[-36.1977,-7.4995],[-36.2062,-7.4916],[-36.2282,-7.4934],[-36.2617,-7.5178],[-36.2989,-7.5262],[-36.3192,-7.5248],[-36.3396,-7.5137],[-36.3613,-7.5429],[-36.3578,-7.5509],[-36.3393,-7.5459],[-36.3575,-7.5799],[-36.3607,-7.6009]],[[-37.954,-7.2308],[-37.9237,-7.2096],[-37.9103,-7.1641],[-37.8512,-7.1655],[-37.8563,-7.146],[-37.9105,-7.1252],[-37.9088,-7.1154],[-37.8852,-7.1072],[-37.8802,-7.0959],[-37.9292,-7.0831],[-37.9242,-7.0604],[-37.9344,-7.0523],[-37.9345,-7.028],[-37.9818,-7.0297],[-37.9917,-7.0833],[-38.0035,-7.0834],[-38.0188,-7.0591],[-38.0306,-7.0608],[-38.0576,-7.0836],[-38.115,-7.0822],[-38.1369,-7.1066],[-38.1284,-7.1277],[-38.1064,-7.1308],[-38.0727,-7.121],[-38.0439,-7.142],[-38.0152,-7.1321],[-37.9984,-7.1093],[-37.9697,-7.1125],[-37.9425,-7.1561],[-37.954,-7.2308]],[[-39.2004,-6.3294],[-39.1599,-6.3099],[-39.1327,-6.2578],[-39.1226,-6.2562],[-39.1176,-6.2709],[-39.1041,-6.2709],[-39.0838,-6.2465],[-39.0669,-6.2498],[-39.0602,-6.2596],[-39.0654,-6.3052],[-39.0603,-6.3085],[-39.0485,-6.3085],[-39.0248,-6.2743],[-39.0164,-6.276],[-39.008,-6.2956],[-38.9962,-6.2939],[-38.9844,-6.2809],[-38.9557,-6.281],[-38.9336,-6.2044],[-38.9521,-6.1962],[-38.9621,-6.1669],[-38.974,-6.1734],[-38.9707,-6.2076],[-38.9808,-6.2206],[-38.9927,-6.2255],[-39.0685,-6.2237],[-39.0786,-6.2172],[-39.0802,-6.1748],[-39.0886,-6.165],[-39.0987,-6.1649],[-39.1123,-6.1926],[-39.1359,-6.1975],[-39.1478,-6.217],[-39.217,-6.2429],[-39.2153,-6.2544],[-39.1867,-6.2593],[-39.1851,-6.2789],[-39.234,-6.2804],[-39.2559,-6.2918],[-39.2509,-6.3065],[-39.2391,-6.3065],[-39.2358,-6.3131],[-39.2223,-6.3115],[-39.2088,-6.3294],[-39.2004,-6.3294]],[[-37.1007,-6.058],[-37.0687,-6.0305],[-37.0383,-5.9804],[-36.9996,-5.9546],[-36.9928,-5.9433],[-37.0012,-5.9142],[-36.9962,-5.8964],[-36.9456,-5.8658],[-36.9304,-5.8658],[-36.9119,-5.848],[-36.9051,-5.8238],[-36.9169,-5.8157],[-36.9405,-5.8238],[-36.9472,-5.8012],[-36.8898,-5.7576],[-36.8612,-5.7803],[-36.836,-5.8158],[-36.8208,-5.8174],[-36.809,-5.8093],[-36.8225,-5.7674],[-36.8612,-5.7512],[-36.8662,-5.7205],[-36.9016,-5.7157],[-36.8965,-5.6834],[-36.9133,-5.6624],[-36.9167,-5.6705],[-36.9352,-5.6785],[-36.9859,-5.7431],[-36.9876,-5.8093],[-37.0079,-5.8835],[-37.0265,-5.9013],[-37.04,-5.8835],[-37.0518,-5.8835],[-37.0585,-5.8932],[-37.0518,-5.9546],[-37.1024,-6.0305],[-37.1075,-6.0483],[-37.1007,-6.058]],[[-39.0912,-5.3643],[-39.0152,-5.324],[-38.9814,-5.3128],[-38.9879,-5.2835],[-39.0534,-5.2586],[-39.0685,-5.2585],[-39.0754,-5.2682],[-39.0774,-5.3188],[-39.1163,-5.3462],[-39.1198,-5.3625],[-39.0912,-5.3643]],[[-37.8965,-4.9325],[-37.8796,-4.9309],[-37.8306,-4.8972],[-37.7966,-4.852],[-37.8202,-4.8567],[-37.8776,-4.8856],[-37.8946,-4.9065],[-37.8965,-4.9325]],[[-40.4972,-4.3325],[-40.4834,-4.313],[-40.4565,-4.31],[-40.4495,-4.2888],[-40.436,-4.289],[-40.4261,-4.2989],[-40.4092,-4.2942],[-40.4141,-4.2827],[-40.4409,-4.2774],[-40.4459,-4.2708],[-40.4232,-4.2121],[-40.4801,-4.1916],[-40.4939,-4.2161],[-40.5226,-4.2255],[-40.5345,-4.2369],[-40.5315,-4.2582],[-40.5129,-4.2552],[-40.4857,-4.2326],[-40.4742,-4.2491],[-40.4794,-4.2655],[-40.5133,-4.2814],[-40.5207,-4.3305],[-40.4972,-4.3325]],[[-38.5148,-4.3153],[-38.4994,-4.2976],[-38.4419,-4.2672],[-38.408,-4.2432],[-38.4011,-4.227],[-38.4375,-4.1762],[-38.4643,-4.1629],[-38.4512,-4.1956],[-38.4346,-4.2104],[-38.4615,-4.2134],[-38.4433,-4.2363],[-38.4941,-4.2683],[-38.5112,-4.2958],[-38.5148,-4.3153]],[[-38.6409,-4.1708],[-38.5969,-4.1534],[-38.5458,-4.097],[-38.5536,-4.0481],[-38.5314,-4.0175],[-38.5345,-3.9979],[-38.5446,-3.9995],[-38.5736,-4.0333],[-38.6057,-4.0459],[-38.6025,-4.059],[-38.5724,-4.0691],[-38.576,-4.0886],[-38.5929,-4.0998],[-38.5999,-4.1208],[-38.6319,-4.1286],[-38.6255,-4.1482],[-38.6424,-4.1562],[-38.6409,-4.1708]],[[-39.5142,-4.1153],[-39.4753,-4.0962],[-39.4635,-4.0963],[-39.4469,-4.1128],[-39.4301,-4.1114],[-39.4216,-4.1033],[-39.4263,-4.0772],[-39.4527,-4.0425],[-39.4999,-4.0534],[-39.502,-4.0811],[-39.5157,-4.0989],[-39.5142,-4.1153]],[[-39.1787,-3.9121],[-39.1767,-3.8909],[-39.2063,-3.84],[-39.206,-3.822],[-39.1859,-3.8239],[-39.1476,-3.8538],[-39.1342,-3.8539],[-39.1339,-3.8295],[-39.1554,-3.8096],[-39.1838,-3.7962],[-39.2641,-3.7756],[-39.2071,-3.9003],[-39.1955,-3.9119],[-39.1787,-3.9121]]]]}}]}