{"type": "FeatureCollection", "features": [{"type": "Feature", "geometry": {"type": "MultiPolygon", "coordinates": [[[[-48.0254, -4.7783], [-48.0584, -4.8042], [-48.1946, -4.911], [-48.2124, -4.9249], [-48.4519, -5.1122], [-48.7552, -5.3492], [-48.4872, -5.1939], [-48.225, -5.2355], [-48.1849, -5.257], [-48.0691, -5.2715], [-48.0147, -5.238], [-47.9373, -5.2396], [-47.8667, -5.3053], [-47.8275, -5.3866], [-47.6804, -5.4154], [-47.4797, -5.6217], [-47.4769, -5.6373], [-47.4423, -5.8308], [-47.4379, -5.8571], [-47.4394, -6.0118], [-47.4302, -6.0684], [-47.3807, -6.25], [-47.4303, -6.4226], [-47.4252, -6.4974], [-47.4651, -6.5815], [-47.4962, -6.6972], [-47.5205, -6.8405], [-47.5471, -7.0167], [-47.684, -7.2454], [-47.5916, -7.4401], [-47.4298, -7.5472], [-47.0148, -8.0588], [-46.8066, -7.951], [-46.6086, -7.893], [-46.4657, -8.0727], [-46.544, -8.3174], [-46.7267, -8.3831], [-46.8461, -8.534], [-47.0383, -9.0006], [-46.6328, -9.4116], [-46.6444, -9.7403], [-46.4751, -9.9045], [-46.4452, -10.0774], [-46.1949, -10.183], [-46.0124, -10.2507], [-45.7235, -10.1554], [-45.8202, -10.4561], [-46.1276, -10.6206], [-46.553, -11.2654], [-46.5599, -11.3716], [-46.4393, -11.521], [-46.1128, -11.606], [-46.0809, -11.624], [-46.1445, -11.6243], [-46.3617, -11.631], [-46.3376, -11.8131], [-46.3889, -12.0488], [-46.3712, -12.0997], [-46.3716, -12.3498], [-46.1982, -12.504], [-46.1983, -12.5041], [-46.2824, -12.7639], [-46.328, -12.9547], [-46.113, -12.918], [-46.2987, -13.0638], [-46.2925, -13.3169], [-46.0683, -13.2954], [-46.209, -13.4656], [-46.2357, -13.7081], [-46.2121, -14.0101], [-46.227, -14.049], [-46.0601, -14.2319], [-45.9072, -14.3552], [-46.021, -14.6699], [-46.0251, -14.6781], [-46.0394, -14.8753], [-46.0376, -14.8747], [-45.9717, -15.1539], [-45.7398, -15.1204], [-45.6169, -15.0141], [-45.3057, -14.8337], [-44.7414, -14.4671], [-44.4118, -14.2816], [-44.296, -14.2532], [-44.0457, -14.2838], [-43.7832, -14.3392], [-43.8184, -14.3877], [-43.8812, -14.5624], [-43.7122, -14.7153], [-43.531, -14.8154], [-43.5308, -14.8155], [-43.487, -14.7903], [-43.175, -14.6511], [-42.8721, -14.7647], [-42.6187, -14.9397], [-42.5157, -14.9829], [-42.479, -15.0142], [-42.2776, -15.1137], [-42.2656, -15.125], [-42.0485, -15.1707], [-41.8103, -15.1014], [-41.8023, -15.1003], [-41.7599, -15.138], [-41.4561, -15.4103], [-41.3643, -15.493], [-41.3619, -15.495], [-41.3422, -15.6386], [-41.3302, -15.7433], [-41.1425, -15.772], [-40.8168, -15.6476], [-40.7006, -15.6673], [-40.6449, -15.7289], [-40.5198, -15.7976], [-40.45, -15.7616], [-40.2357, -15.8035], [-40.1275, -15.9071], [-39.9148, -16], [-39.9178, -16.2843], [-40.0172, -16.3478], [-40.1102, -16.4493], [-40.3132, -16.6786], [-40.307, -16.6968], [-40.4013, -16.8902], [-40.4077, -16.8987], [-40.4336, -16.8874], [-40.5787, -17.1496], [-40.5478, -17.2837], [-40.6047, -17.3562], [-40.5195, -17.4474], [-40.483, -17.4885], [-40.3441, -17.6156], [-40.2402, -17.7349], [-40.2237, -17.7343], [-40.2119, -17.8949], [-40.2224, -17.9804], [-40.2204, -17.9816], [-39.9118, -18.179], [-39.6678, -18.3372], [-39.4912, -17.9979], [-39.2575, -17.828], [-39.1373, -17.685], [-39.1917, -17.446], [-39.1175, -16.8925], [-39.0088, -16.3457], [-38.9484, -16.0924], [-38.8936, -15.7667], [-38.9732, -15.3855], [-38.9963, -15.0852], [-39.0343, -14.5153], [-39.0177, -14.4185], [-38.9889, -14.2174], [-38.9517, -13.8724], [-38.9678, -13.8488], [-38.9722, -13.8424], [-38.9884, -13.7168], [-38.9685, -13.6721], [-38.9508, -13.3899], [-38.9188, -13.2136], [-38.7975, -13.1375], [-38.5856, -13.0127], [-38.3043, -12.9109], [-38.2802, -12.8807], [-38.0302, -12.5972], [-37.8933, -12.4082], [-37.7699, -12.2387], [-37.6857, -12.099], [-37.5128, -11.7407], [-37.3411, -11.4423], [-37.2602, -11.2896], [-37.1545, -11.1616], [-37.0346, -10.9573], [-36.8527, -10.7442], [-36.6729, -10.6308], [-36.4862, -10.5364], [-36.3959, -10.4969], [-36.3014, -10.3446], [-36.2596, -10.2641], [-36.0315, -10.0508], [-35.9627, -9.9407], [-35.9047, -9.8559], [-35.8553, -9.7883], [-35.7898, -9.7112], [-35.5585, -9.4875], [-35.5246, -9.4426], [-35.4725, -9.358], [-35.3868, -9.2863], [-35.3391, -9.2307], [-35.2951, -9.1555], [-35.2413, -9.0647], [-35.1527, -8.9139], [-35.1302, -8.8623], [-35.1028, -8.7849], [-35.0878, -8.6908], [-35.0482, -8.6094], [-34.9609, -8.3667], [-34.9286, -8.2253], [-34.9088, -8.1551], [-34.8605, -8.0445], [-34.828, -7.9591], [-34.8411, -7.8451], [-34.8451, -7.8164], [-34.8482, -7.6878], [-34.8339, -7.5486], [-34.8027, -7.3879], [-34.8058, -7.2445], [-34.8424, -7.056], [-34.859, -7.0297], [-34.8691, -6.9781], [-34.8987, -6.8659], [-34.9248, -6.7676], [-34.9315, -6.7211], [-34.965, -6.6029], [-34.9685, -6.4872], [-35.0319, -6.3108], [-35.0334, -6.2864], [-35.0939, -6.1834], [-35.0978, -6.1398], [-35.121, -5.9817], [-35.1541, -5.8978], [-35.2036, -5.7432], [-35.2271, -5.6121], [-35.2558, -5.5169], [-35.326, -5.3813], [-35.3824, -5.27], [-35.6171, -5.114], [-35.7909, -5.0774], [-35.9083, -5.0595], [-36.0375, -5.0515], [-36.0995, -5.0772], [-36.3083, -5.1021], [-36.4068, -5.0807], [-36.7156, -5.0809], [-36.8557, -4.9723], [-37.1386, -4.9479], [-37.221, -4.8814], [-37.2527, -4.8314], [-37.5404, -4.6447], [-37.7695, -4.4264], [-37.8451, -4.3817], [-38.1477, -4.1021], [-38.2233, -4.0072], [-38.4018, -3.8238], [-38.5876, -3.6964], [-38.8066, -3.5485], [-38.9321, -3.4654], [-39.0646, -3.4067], [-39.1648, -3.3262], [-39.3793, -3.1833], [-39.5506, -3.0792], [-39.721, -2.9969], [-39.9424, -2.8664], [-40.3719, -2.8124], [-40.455, -2.8034], [-40.5901, -2.8464], [-41.1017, -2.9009], [-41.3227, -2.9213], [-41.4362, -2.906], [-41.6496, -2.8644], [-41.7818, -2.7583], [-41.826, -2.7573], [-42.2226, -2.6922], [-42.4876, -2.7033], [-42.6415, -2.6253], [-43.0148, -2.4567], [-43.3781, -2.3422], [-43.4617, -2.4864], [-43.6968, -2.5149], [-43.7412, -2.4351], [-43.7619, -2.4187], [-44.0788, -2.7438], [-44.1484, -2.7681], [-44.2658, -2.7604], [-44.1757, -2.7021], [-44.0928, -2.5747], [-44.0362, -2.5567], [-44.0523, -2.4661], [-44.1738, -2.458], [-44.1837, -2.461], [-44.2208, -2.4739], [-44.41, -2.7992], [-44.4955, -3.026], [-44.5481, -3.0451], [-44.5916, -3.0409], [-44.6625, -3.0129], [-44.652, -2.893], [-44.6501, -2.805], [-44.5553, -2.5965], [-44.358, -2.3405], [-44.4626, -2.145], [-44.6444, -2.2963], [-44.6777, -2.2805], [-44.5777, -2.0292], [-44.5517, -1.8885], [-44.6153, -1.7633], [-44.8537, -1.6175], [-44.8899, -1.6036], [-44.9531, -1.56], [-45.196, -1.4881], [-45.3238, -1.597], [-45.3086, -1.3329], [-45.4755, -1.4798], [-45.6108, -1.2746], [-45.7813, -1.1926], [-45.7891, -1.1873], [-45.7965, -1.1826], [-45.8467, -1.213], [-45.9946, -1.053], [-46.1041, -1.202], [-46.1613, -1.6228], [-46.3152, -1.7416], [-46.2234, -1.9149], [-46.2632, -2.0493], [-46.4394, -2.4132], [-46.4358, -2.4709], [-46.6696, -2.7346], [-46.6765, -3.0941], [-47.0383, -3.5643], [-47.0306, -3.6046], [-47.0887, -3.8616], [-47.3472, -4.1087], [-47.68, -4.6086], [-47.8162, -4.6147], [-48.0254, -4.7783]]], [[[-44.4815, -2.7266], [-44.5862, -2.8147], [-44.6381, -2.981], [-44.479, -2.9579], [-44.4815, -2.7266]]]]}, "properties": {"codarea": "2"}}]}