{"type":"FeatureCollection","features":[{"type":"Feature","properties":{"id":"25003040003","state":"PB","municipality":"2500304","origin":"","accuracy":"","notes":"Sem associacao de dados do Censo Demografico 2010"},"geometry":{"type":"Polygon","coordinates":[[[-35.6224312034328,-7.07154332826605],[-35.6203458252782,-7.07402217399702],[-35.6195588901255,-7.07825850823567],[-35.6199261265301,-7.07911102131776],[-35.6219983890988,-7.07909790573188],[-35.6225754748775,-7.07856016671087],[-35.6231787918278,-7.07677644703143],[-35.6235460282324,-7.07213352963057],[-35.6224312034328,-7.07154332826605]]]}},{"type":"Feature","properties":{"id":"25005020004","state":"PB","municipality":"2500502","origin":"","accuracy":"","notes":"Sem associacao de dados do Censo Demografico 2010"},"geometry":{"type":"Polygon","coordinates":[[[-35.562676306158,-6.94385514350034],[-35.5625251024206,-6.94423315284385],[-35.5631353175037,-6.94482716752656],[-35.5642747456678,-6.94478396645873],[-35.5646257543439,-6.94409274937341],[-35.5641343421973,-6.94356353629247],[-35.562676306158,-6.94385514350034]]]}},{"type":"Feature","properties":{"id":"25005020003","state":"PB","municipality":"2500502","origin":"","accuracy":"","notes":"Sem associacao de dados do Censo Demografico 2010"},"geometry":{"type":"Polygon","coordinates":[[[-35.5403239279994,-6.95680531992597],[-35.538846114813,-6.95797837008177],[-35.5394498906285,-6.95830038385004],[-35.5407206949639,-6.9577771114766],[-35.5407724471767,-6.95688582336805],[-35.5403239279994,-6.95680531992597]]]}},{"type":"Feature","properties":{"id":"25018070001","state":"PB","municipality":"2501807","origin":"","accuracy":"","notes":"Sem associacao de dados do Censo Demografico 2010"},"geometry":{"type":"Polygon","coordinates":[[[-34.9334541941385,-7.12310072353369],[-34.9328430293975,-7.1239737618612],[-34.933224515709,-7.12424080227914],[-34.9339631474749,-7.1238058548363],[-34.9334541941385,-7.12310072353369]]]}},{"type":"Feature","properties":{"id":"25030010002","state":"PB","municipality":"2503001","origin":"","accuracy":"","notes":"Sem associacao de dados do Censo Demografico 2010"},"geometry":{"type":"Polygon","coordinates":[[[-34.9187593698671,-7.46652261735635],[-34.9170318044664,-7.46688573619856],[-34.915298737265,-7.46835471696922],[-34.9166961946274,-7.46936704828682],[-34.9179396015718,-7.46837122237114],[-34.9192160193201,-7.46815665214621],[-34.9198927407987,-7.46729837124648],[-34.9187593698671,-7.46652261735635]]]}},{"type":"Feature","properties":{"id":"25030010001","state":"PB","municipality":"2503001","origin":"","accuracy":"","notes":"Sem associacao de dados do Censo Demografico 2010"},"geometry":{"type":"Polygon","coordinates":[[[-34.9211223932416,-7.46144445536631],[-34.9196121489661,-7.46143070086477],[-34.9189244238862,-7.46228898176441],[-34.9169052630516,-7.4624072704782],[-34.9167429599328,-7.46275938571917],[-34.9173206489999,-7.46319677886994],[-34.9192985463297,-7.46312800636195],[-34.9202008416345,-7.46360391211721],[-34.9207313923698,-7.46288015811063],[-34.9212076711515,-7.46287492353258],[-34.9215432809905,-7.46197537912803],[-34.9211223932416,-7.46144445536631]]]}},{"type":"Feature","properties":{"id":"25040090009","state":"PB","municipality":"2504009","origin":"","accuracy":"","notes":"Sem associacao de dados do Censo Demografico 2010"},"geometry":{"type":"Polygon","coordinates":[[[-35.8831334366187,-7.19559827796938],[-35.8829564313555,-7.19725478005503],[-35.8832770446624,-7.19850383606315],[-35.8838581562811,-7.19875431520917],[-35.8843257173537,-7.19814982553679],[-35.883737926291,-7.1963396962416],[-35.8831334366187,-7.19559827796938]]]}},{"type":"Feature","properties":{"id":"25048010002","state":"PB","municipality":"2504801","origin":"","accuracy":"","notes":"Sem associacao de dados do Censo Demografico 2010"},"geometry":{"type":"Polygon","coordinates":[[[-37.9841661643226,-7.0113942597022],[-37.9812651637976,-7.01073494140106],[-37.9808475955402,-7.0166028742812],[-37.9784300951027,-7.01752591990279],[-37.9785180042095,-7.01937201114598],[-37.9858584146288,-7.02482237576873],[-37.9870012330175,-7.02389933014713],[-37.9880561422993,-7.02222905711759],[-37.9920999612129,-7.01906432927211],[-37.9914845974652,-7.01770173811643],[-37.989418733455,-7.01651496517438],[-37.989638506222,-7.01603146508689],[-37.9922318248732,-7.01581169231984],[-37.9924955521936,-7.01462491937779],[-37.9916164611255,-7.01317441911528],[-37.9898582789891,-7.01269091902778],[-37.9897264153288,-7.01159205519255],[-37.9889242447291,-7.01076790731613],[-37.9841661643226,-7.0113942597022]]]}},{"type":"Feature","properties":{"id":"25075070012","state":"PB","municipality":"2507507","origin":"","accuracy":"","notes":"Sem associacao de dados do Censo Demografico 2010"},"geometry":{"type":"Polygon","coordinates":[[[-34.8466378103368,-7.12927467335364],[-34.8467584264087,-7.13081165037261],[-34.8473389671232,-7.13010648047304],[-34.8471904178918,-7.12939106299582],[-34.8466378103368,-7.12927467335364]]]}},{"type":"Feature","properties":{"id":"25075070014","state":"PB","municipality":"2507507","origin":"","accuracy":"","notes":"Sem associacao de dados do Censo Demografico 2010"},"geometry":{"type":"Polygon","coordinates":[[[-34.8382870765604,-7.12504378007406],[-34.8382173963829,-7.12547492617258],[-34.8398113304439,-7.12576235690488],[-34.8397721353441,-7.12531379076201],[-34.8382870765604,-7.12504378007406]]]}},{"type":"Feature","properties":{"id":"25075070016","state":"PB","municipality":"2507507","origin":"","accuracy":"","notes":"Sem associacao de dados do Censo Demografico 2010"},"geometry":{"type":"Polygon","coordinates":[[[-34.8824055164671,-7.16856340595501],[-34.8824074333018,-7.16878748657968],[-34.8847572224588,-7.16789491175185],[-34.8824055164671,-7.16856340595501]]]}},{"type":"Feature","properties":{"id":"25075070010","state":"PB","municipality":"2507507","origin":"","accuracy":"","notes":"Sem associacao de dados do Censo Demografico 2010"},"geometry":{"type":"Polygon","coordinates":[[[-34.8832727485475,-7.10558140347309],[-34.8813353054989,-7.10406627947101],[-34.8779567531265,-7.10038731458094],[-34.8769118400216,-7.10053534393752],[-34.8764329215152,-7.10198951467506],[-34.877895799862,-7.10379634358559],[-34.8782092737935,-7.10532017519682],[-34.8793630320134,-7.10678740734825],[-34.8812438756022,-7.10814144057997],[-34.8827807686273,-7.10828076232731],[-34.8832771023521,-7.10763204544139],[-34.8832727485475,-7.10558140347309]]]}},{"type":"Feature","properties":{"id":"25075070015","state":"PB","municipality":"2507507","origin":"","accuracy":"","notes":"Sem associacao de dados do Censo Demografico 2010"},"geometry":{"type":"Polygon","coordinates":[[[-34.8984428448276,-7.15651309025277],[-34.898782535693,-7.156617610519],[-34.8990016569597,-7.15633071857981],[-34.89870218853,-7.15614029571964],[-34.8984428448276,-7.15651309025277]]]}},{"type":"Feature","properties":{"id":"25162010003","state":"PB","municipality":"2516201","origin":"","accuracy":"","notes":"Sem associacao de dados do Censo Demografico 2010"},"geometry":{"type":"Polygon","coordinates":[[[-38.3134322642765,-6.84005657762415],[-38.3138802520321,-6.83781663884639],[-38.3135510639923,-6.83740175878995],[-38.3114412075852,-6.83667178124887],[-38.3092510452247,-6.83678792622254],[-38.308620543939,-6.83715295328256],[-38.3082223326007,-6.83911082569574],[-38.3045388777218,-6.83687088691801],[-38.3039249685753,-6.8379161916809],[-38.307027698586,-6.84100232955256],[-38.3058496567102,-6.84176556795091],[-38.3055509982066,-6.84360729539038],[-38.3083384775745,-6.84473556084884],[-38.3100474679011,-6.8462786297846],[-38.3124029134934,-6.84535962948968],[-38.3115739446978,-6.84322567619121],[-38.3131999743292,-6.84284405699202],[-38.3141623183966,-6.84410505956318],[-38.3147762275431,-6.84359070325134],[-38.314743043265,-6.84244584565379],[-38.3134322642765,-6.84005657762415]]]}},{"type":"Feature","properties":{"id":"25003040002","state":"PB","municipality":"2500304","origin":"face","accuracy":"boa","notes":""},"geometry":{"type":"Polygon","coordinates":[[[-35.6371960742351,-7.04130862392037],[-35.6356222039297,-7.04173815935787],[-35.6354943269674,-7.04097089758401],[-35.6341204693467,-7.04106270668517],[-35.6338909465938,-7.04150863660502],[-35.6345565625772,-7.04210539576247],[-35.6362287997766,-7.04211195355541],[-35.6374387125739,-7.04158077232736],[-35.6380420295242,-7.04190538307784],[-35.6371960742351,-7.04130862392037]]]}},{"type":"Feature","properties":{"id":"25003040001","state":"PB","municipality":"2500304","origin":"face","accuracy":"boa","notes":""},"geometry":{"type":"Polygon","coordinates":[[[-35.6389661174648,-7.03158760189905],[-35.637220989534,-7.03209990790073],[-35.638070266863,-7.03082873151154],[-35.6370483944639,-7.03174101973913],[-35.6362730864507,-7.03047258295423],[-35.6353388813888,-7.0320889494836],[-35.632840362279,-7.03250536933523],[-35.6312870066482,-7.032321815848],[-35.630884284818,-7.03301219612833],[-35.6295391391131,-7.03302589414977],[-35.62889807171,-7.03402311011024],[-35.6276268953207,-7.03442857154474],[-35.6262050406958,-7.03420940320177],[-35.6269091189975,-7.03519566074511],[-35.6265392724188,-7.03550249642525],[-35.6243119741334,-7.03613534501556],[-35.6215203173649,-7.03567509149533],[-35.62019434889,-7.03621479353987],[-35.6186053784035,-7.0381599125837],[-35.619183434908,-7.03957080879151],[-35.6215668906378,-7.04010777123179],[-35.6221065926823,-7.04085842280643],[-35.621673735205,-7.04229397545285],[-35.6220024877194,-7.04278162501592],[-35.622046321388,-7.04160907438107],[-35.6231586007285,-7.03991051972311],[-35.6268954209761,-7.03808046405935],[-35.6283967241254,-7.03788321255069],[-35.6295035242574,-7.03966395533728],[-35.6303089679178,-7.03988860288883],[-35.6303582807949,-7.0387489275054],[-35.6312020789153,-7.03793800463643],[-35.6300295282805,-7.0363380757328],[-35.6318047918585,-7.03464500028341],[-35.6338320990309,-7.03427789330894],[-35.6337115564423,-7.03638738860997],[-35.6339526416195,-7.03609699055555],[-35.634138934711,-7.03650245199003],[-35.6344841248512,-7.0361463034327],[-35.6356840715289,-7.0362120539356],[-35.637316875684,-7.03532990135516],[-35.6381716322216,-7.03650245199003],[-35.6401277096825,-7.037017497596],[-35.6410043830544,-7.03513812905507],[-35.6405002958656,-7.03417378834603],[-35.6389880342991,-7.03308890504836],[-35.6407085057914,-7.03248071289663],[-35.6406482344971,-7.03216291879933],[-35.6389661174648,-7.03158760189905]]]}},{"type":"Feature","properties":{"id":"25005020002","state":"PB","municipality":"2500502","origin":"face","accuracy":"boa","notes":""},"geometry":{"type":"Polygon","coordinates":[[[-35.5479243154673,-6.95217780956873],[-35.5471782210667,-6.95230862766208],[-35.5469482112322,-6.95183998262434],[-35.5469884629533,-6.95256738872584],[-35.545128258417,-6.95358805736633],[-35.5459764196816,-6.95461735137557],[-35.5475979890146,-6.95366281056252],[-35.5481744511622,-6.95279308587592],[-35.5479243154673,-6.95217780956873]]]}},{"type":"Feature","properties":{"id":"25018070006","state":"PB","municipality":"2501807","origin":"face","accuracy":"boa","notes":"Aglomerado Subnormal"},"geometry":{"type":"Polygon","coordinates":[[[-34.8996479980117,-7.12059760800532],[-34.901433353949,-7.12137393264908],[-34.9017690619029,-7.12219603565007],[-34.9025577848517,-7.12192804151635],[-34.9025844888936,-7.12141398871177],[-34.9006360475581,-7.12030004868245],[-34.9003461179615,-7.11972018948917],[-34.8941221687912,-7.12083603694994],[-34.8946200084275,-7.12202055194683],[-34.8955126863962,-7.12217696133451],[-34.8979718037571,-7.12094668031568],[-34.8996479980117,-7.12059760800532]]]}},{"type":"Feature","properties":{"id":"25018070002","state":"PB","municipality":"2501807","origin":"face","accuracy":"boa","notes":"Aglomerado Subnormal"},"geometry":{"type":"Polygon","coordinates":[[[-34.9240688442355,-7.12164669536168],[-34.9247135561018,-7.12169628858215],[-34.9255871597548,-7.12158184268878],[-34.9261860932636,-7.12044501348084],[-34.9273076630192,-7.12021230683083],[-34.9293905782794,-7.12093331595942],[-34.9294516160892,-7.12206251544114],[-34.929508839036,-7.12118509692487],[-34.9311772570729,-7.11944470421111],[-34.9292546399999,-7.11979095499988],[-34.9262102669999,-7.11868120899987],[-34.9245821319999,-7.11868519799987],[-34.923171972,-7.11947356399999],[-34.9228029025208,-7.1204632218924],[-34.9240688442355,-7.12164669536168]]]}},{"type":"Feature","properties":{"id":"25030010003","state":"PB","municipality":"2503001","origin":"face","accuracy":"boa","notes":""},"geometry":{"type":"Polygon","coordinates":[[[-34.9312498327683,-7.51311186516918],[-34.9311645548584,-7.51244202094136],[-34.9307409162091,-7.51352312476696],[-34.9315152946491,-7.51320264487973],[-34.9312498327683,-7.51311186516918]]]}},{"type":"Feature","properties":{"id":"25030010004","state":"PB","municipality":"2503001","origin":"face","accuracy":"boa","notes":""},"geometry":{"type":"Polygon","coordinates":[[[-34.9101064129115,-7.52007301842803],[-34.9097680521722,-7.52075799260762],[-34.9100926584099,-7.52078275071051],[-34.9103787520432,-7.52240028009847],[-34.9098863408859,-7.5219711396486],[-34.9104832862553,-7.52339060421352],[-34.9110252136183,-7.52291744935854],[-34.9107528744866,-7.52095330653031],[-34.9101064129115,-7.52007301842803]]]}},{"type":"Feature","properties":{"id":"25040090003","state":"PB","municipality":"2504009","origin":"face","accuracy":"boa","notes":""},"geometry":{"type":"Polygon","coordinates":[[[-35.9205783990869,-7.24017354679414],[-35.920070761351,-7.24068452425202],[-35.9183775223239,-7.23994644570176],[-35.9177262765443,-7.2413457891975],[-35.9161666263951,-7.24113872643678],[-35.9154686245082,-7.24210390607943],[-35.914283023217,-7.24183338860174],[-35.9151914275866,-7.24271841491765],[-35.9148040198408,-7.24420125146206],[-35.9153717725717,-7.24668266486859],[-35.9151446714794,-7.24771129922821],[-35.9158092761468,-7.24973851044995],[-35.9156589886592,-7.25043651233686],[-35.9162501194437,-7.25111113617012],[-35.9167844749552,-7.2498487212742],[-35.9160697744586,-7.24705337400469],[-35.9161799852829,-7.24415783507675],[-35.9165941108043,-7.24364685761887],[-35.9158827500296,-7.24427806506683],[-35.916420445263,-7.24233768661573],[-35.917368926296,-7.24242451938633],[-35.9193594005763,-7.24140590419255],[-35.9205683799211,-7.24126563587077],[-35.9209758259986,-7.24030713567203],[-35.9205783990869,-7.24017354679414]]]}},{"type":"Feature","properties":{"id":"25040090006","state":"PB","municipality":"2504009","origin":"face","accuracy":"boa","notes":"Aglomerado Subnormal"},"geometry":{"type":"Polygon","coordinates":[[[-35.9301300038549,-7.27068190677871],[-35.9296791413921,-7.27157027281658],[-35.9284735017693,-7.27202447500135],[-35.927484944073,-7.27476972644168],[-35.9283900087206,-7.27478642505141],[-35.9298027111041,-7.27317333935108],[-35.9301567216305,-7.27218478165481],[-35.9295923086214,-7.27314996129746],[-35.9290746517197,-7.27355406765302],[-35.9299696972015,-7.27158697142632],[-35.9301300038549,-7.27068190677871]]]}},{"type":"Feature","properties":{"id":"25040090008","state":"PB","municipality":"2504009","origin":"face","accuracy":"boa","notes":""},"geometry":{"type":"Polygon","coordinates":[[[-35.8875619079202,-7.20002674927092],[-35.8867737335407,-7.20007350537818],[-35.8858853675029,-7.20128916416683],[-35.8874283190423,-7.2043082728068],[-35.8869206813064,-7.20676630815969],[-35.8864330819022,-7.20687317926199],[-35.8863662874632,-7.20763463586588],[-35.8869206813064,-7.2078083014071],[-35.8874884340374,-7.20745429088075],[-35.8884435945142,-7.20426819614343],[-35.88720121795,-7.20221092742419],[-35.8877288940176,-7.20039411868507],[-35.8875619079202,-7.20002674927092]]]}},{"type":"Feature","properties":{"id":"25040090007","state":"PB","municipality":"2504009","origin":"face","accuracy":"boa","notes":""},"geometry":{"type":"Polygon","coordinates":[[[-35.9518949717826,-7.22760283338616],[-35.9515409612562,-7.22767296754705],[-35.9517981198461,-7.22737239257182],[-35.9512704437785,-7.22744586645466],[-35.9501649958141,-7.22614003517343],[-35.9471191693986,-7.22527838691114],[-35.9467417808186,-7.22551884689131],[-35.9468219341453,-7.22600978601752],[-35.9481210859826,-7.22675788373362],[-35.9496373197465,-7.22678460150917],[-35.9515609995879,-7.22885522911624],[-35.9519617662215,-7.22813384917571],[-35.9518949717826,-7.22760283338616]]]}},{"type":"Feature","properties":{"id":"25075070006","state":"PB","municipality":"2507507","origin":"face","accuracy":"boa","notes":"Aglomerado Subnormal"},"geometry":{"type":"Polygon","coordinates":[[[-34.8548709892008,-7.13007080340765],[-34.8551784422876,-7.12980946828385],[-34.8542622320888,-7.1297756484443],[-34.8544897473731,-7.12947741895007],[-34.8541085055454,-7.12950201519702],[-34.8541054310145,-7.12913307149283],[-34.8527864572721,-7.12861655030698],[-34.8510524218624,-7.12933906506102],[-34.8535427918657,-7.13170952836042],[-34.8555535350535,-7.13549427585921],[-34.8576534396365,-7.13595238095859],[-34.8582929420571,-7.1371022555033],[-34.8590738728977,-7.13755728607179],[-34.8601868530719,-7.13763722387437],[-34.8612444916906,-7.13608766031678],[-34.8596703318861,-7.13516530105632],[-34.8599562632568,-7.13438744474665],[-34.8548709892008,-7.13007080340765]]]}},{"type":"Feature","properties":{"id":"25075070007","state":"PB","municipality":"2507507","origin":"face","accuracy":"boa","notes":""},"geometry":{"type":"Polygon","coordinates":[[[-34.8298181744209,-7.12634600926079],[-34.8309987942743,-7.12682256154537],[-34.8319119299422,-7.12778181517626],[-34.8366497820101,-7.127391349756],[-34.8369203407266,-7.12920532296824],[-34.8368803718253,-7.1274097969412],[-34.8372523900603,-7.12791094547272],[-34.8411385970778,-7.12805544842353],[-34.8428111418701,-7.12771110096627],[-34.8443730035511,-7.12809541732481],[-34.8454460148242,-7.12743131865727],[-34.845275378361,-7.12602625805049],[-34.8448019006073,-7.12531296688905],[-34.8441039821002,-7.12515309128391],[-34.8392954158223,-7.12583256260579],[-34.8342808559762,-7.12545746983985],[-34.8310679712188,-7.12455048323373],[-34.830994182478,-7.12233989553947],[-34.8319841814176,-7.11954514698022],[-34.83006586735195,-7.119524153119041],[-34.82899165390003,-7.125056645897355],[-34.8292109545744,-7.12498399208615],[-34.8298181744209,-7.12634600926079]]]}},{"type":"Feature","properties":{"id":"25075070003","state":"PB","municipality":"2507507","origin":"face","accuracy":"boa","notes":"Aglomerado Subnormal"},"geometry":{"type":"Polygon","coordinates":[[[-34.8848848329968,-7.12861635462542],[-34.8834943803222,-7.1295362428226],[-34.8843913938573,-7.12785822296731],[-34.8818261638935,-7.13115870992707],[-34.881434026829,-7.13224035466339],[-34.8816921837298,-7.13328278569325],[-34.8820124289992,-7.13232204988516],[-34.8831332874419,-7.13296907604162],[-34.8821856228693,-7.13219133753033],[-34.8825842955516,-7.13128288666418],[-34.885361933092,-7.12966205346415],[-34.8855089844912,-7.12891699304154],[-34.8861756175009,-7.12845296418186],[-34.8848848329968,-7.12861635462542]]]}},{"type":"Feature","properties":{"id":"25075070009","state":"PB","municipality":"2507507","origin":"face","accuracy":"boa","notes":"Aglomerado Subnormal"},"geometry":{"type":"Polygon","coordinates":[[[-34.916132031863,-7.13252927706721],[-34.9140313211417,-7.13169116968103],[-34.9138266923254,-7.1321548498713],[-34.9144427556768,-7.13276438251581],[-34.9141749966936,-7.13281227436646],[-34.9160928476216,-7.1334609912524],[-34.9163823756277,-7.13300166486672],[-34.916132031863,-7.13252927706721]]]}},{"type":"Feature","properties":{"id":"25075070017","state":"PB","municipality":"2507507","origin":"face","accuracy":"boa","notes":""},"geometry":{"type":"Polygon","coordinates":[[[-34.8478811660046,-7.20256297758043],[-34.846535467576,-7.20023304664413],[-34.8460172212556,-7.20018078651098],[-34.8457733406342,-7.19910509877031],[-34.8460215762667,-7.2015482599951],[-34.8469099985302,-7.20189230587167],[-34.8473280795954,-7.20282427824617],[-34.8483689272473,-7.20260652769138],[-34.8478811660046,-7.20256297758043]]]}},{"type":"Feature","properties":{"id":"25075070004","state":"PB","municipality":"2507507","origin":"face","accuracy":"boa","notes":""},"geometry":{"type":"Polygon","coordinates":[[[-34.886427050696,-7.14906584949923],[-34.8867237266402,-7.14855423486079],[-34.8855975689745,-7.1490870406381],[-34.8867873000568,-7.15062793916458],[-34.8870204025844,-7.15002247805396],[-34.886427050696,-7.14906584949923]]]}},{"type":"Feature","properties":{"id":"25075070005","state":"PB","municipality":"2507507","origin":"face","accuracy":"boa","notes":"Aglomerado Subnormal"},"geometry":{"type":"Polygon","coordinates":[[[-34.886372559196,-7.15042208238697],[-34.885715633891,-7.15102754349755],[-34.8864240233904,-7.15342516949553],[-34.8859002995298,-7.15507807832746],[-34.8866026344181,-7.15596810616002],[-34.8868327096401,-7.1576694518808],[-34.8866419893902,-7.16118415362783],[-34.8873473515841,-7.1622860928491],[-34.8857913165299,-7.16503791359675],[-34.8864573237515,-7.16689365190074],[-34.8856096781967,-7.16728417431709],[-34.8901657730539,-7.16528009804099],[-34.8876894371116,-7.16625489042905],[-34.8887278029163,-7.16284614437639],[-34.8882918709166,-7.16098737876687],[-34.8885976287775,-7.16078454929482],[-34.8889366869994,-7.16114177135007],[-34.8894967385267,-7.16010037823983],[-34.8890608065271,-7.15897724787968],[-34.8883251712777,-7.15863213504664],[-34.8877197101671,-7.15519917054954],[-34.887199013612,-7.15435455230026],[-34.887483580334,-7.1542940061892],[-34.8872958873897,-7.15367643585638],[-34.889088052277,-7.15337975991219],[-34.8875410991395,-7.15347057907879],[-34.8876924644171,-7.15199628127447],[-34.8873655154174,-7.15145742088609],[-34.886372559196,-7.15042208238697]]]}},{"type":"Feature","properties":{"id":"25093050001","state":"PB","municipality":"2509305","origin":"face","accuracy":"boa","notes":""},"geometry":{"type":"Polygon","coordinates":[[[-35.059497967099,-6.58434449941139],[-35.0583838818398,-6.58550719930006],[-35.0590523329953,-6.58659697724449],[-35.0586674671785,-6.58943283063152],[-35.0590199232423,-6.58895478677483],[-35.059238689075,-6.58965159646423],[-35.0600408304616,-6.58884742946804],[-35.0600003182704,-6.58733429912512],[-35.0593379439436,-6.58636403214485],[-35.0600408304616,-6.58456731646323],[-35.059497967099,-6.58434449941139]]]}},{"type":"Feature","properties":{"id":"25093050003","state":"PB","municipality":"2509305","origin":"face","accuracy":"boa","notes":""},"geometry":{"type":"Polygon","coordinates":[[[-35.0542394846756,-6.59984851500012],[-35.054154409074,-6.60073573198833],[-35.0529390433367,-6.60255878059427],[-35.0539964115282,-6.60296795372582],[-35.0547985529148,-6.60102336854617],[-35.0542394846756,-6.59984851500012]]]}},{"type":"Feature","properties":{"id":"25093050005","state":"PB","municipality":"2509305","origin":"face","accuracy":"boa","notes":""},"geometry":{"type":"Polygon","coordinates":[[[-34.9704967341571,-6.5934637936602],[-34.9667331515906,-6.5955623251666],[-34.9662226979809,-6.59645359337395],[-34.9691355245313,-6.5951815105689],[-34.9700875610255,-6.59385676191526],[-34.9704967341571,-6.5934637936602]]]}},{"type":"Feature","properties":{"id":"25139010002","state":"PB","municipality":"2513901","origin":"face","accuracy":"boa","notes":""},"geometry":{"type":"Polygon","coordinates":[[[-37.4346272018106,-6.48237323060905],[-37.4305628934297,-6.48088892330249],[-37.4328258307505,-6.48205055510762],[-37.4375733694323,-6.483240245652],[-37.4382748379136,-6.48375652645426],[-37.438145767713,-6.48431489536541],[-37.4385105313234,-6.48378177931959],[-37.4386171545325,-6.48440187745709],[-37.4390240062517,-6.48376213820211],[-37.4390660943606,-6.4842026604084],[-37.4393550993749,-6.48370040897575],[-37.4400369267388,-6.48374810883248],[-37.4408001244465,-6.48276324708468],[-37.445295134475,-6.48421107803018],[-37.445407369432,-6.48372285596715],[-37.4421469439307,-6.48251633017923],[-37.4437406803203,-6.47913244622519],[-37.4357271043893,-6.4762311725863],[-37.4353960112661,-6.47639952502184],[-37.4347169897762,-6.47994334378964],[-37.4346272018106,-6.48237323060905]]]}},{"type":"Feature","properties":{"id":"25005020001","state":"PB","municipality":"2500502","origin":"face","accuracy":"otima","notes":""},"geometry":{"type":"Polygon","coordinates":[[[-35.5484173990499,-6.94999990394858],[-35.5485065278607,-6.95058355390353],[-35.5500705947351,-6.95022128841426],[-35.5503293557989,-6.950896942303],[-35.5499153380969,-6.95121608094833],[-35.5507289978863,-6.95143171516816],[-35.5511286399737,-6.95236325499776],[-35.5523419418505,-6.9520958685652],[-35.55070312178,-6.94963763845928],[-35.5515369074299,-6.94909999047122],[-35.5484173990499,-6.94999990394858]]]}},{"type":"Feature","properties":{"id":"25018070003","state":"PB","municipality":"2501807","origin":"face","accuracy":"otima","notes":"Aglomerado Subnormal"},"geometry":{"type":"Polygon","coordinates":[[[-34.9221494669999,-7.12184717999991],[-34.9206757748365,-7.12231316409737],[-34.9206049485281,-7.12303530553511],[-34.9213564765615,-7.12296663799912],[-34.9217265182836,-7.12227233291242],[-34.923954398342,-7.12211592352471],[-34.9234203175062,-7.12137584008064],[-34.9224529875009,-7.12138619167047],[-34.9221494669999,-7.12184717999991]]]}},{"type":"Feature","properties":{"id":"25018070004","state":"PB","municipality":"2501807","origin":"face","accuracy":"otima","notes":""},"geometry":{"type":"Polygon","coordinates":[[[-34.9139327529418,-7.11984989483501],[-34.9127654048289,-7.12097146459048],[-34.9178086538654,-7.12081124033972],[-34.9201504217613,-7.12192098773619],[-34.919250652,-7.12039531299996],[-34.9195010599999,-7.11686802499997],[-34.919204378,-7.11626518199989],[-34.917593053,-7.11607253899995],[-34.9154422594376,-7.11719651905362],[-34.9139327529418,-7.11984989483501]]]}},{"type":"Feature","properties":{"id":"25040090004","state":"PB","municipality":"2504009","origin":"face","accuracy":"otima","notes":""},"geometry":{"type":"Polygon","coordinates":[[[-35.89612161527,-7.25351573597186],[-35.8944049981894,-7.25436736506831],[-35.8952599670077,-7.2548382658628],[-35.8973673315562,-7.25366936318143],[-35.89612161527,-7.25351573597186]]]}},{"type":"Feature","properties":{"id":"25040090001","state":"PB","municipality":"2504009","origin":"face","accuracy":"otima","notes":"Aglomerado Subnormal"},"geometry":{"type":"Polygon","coordinates":[[[-35.9287647512132,-7.20477939196779],[-35.9284662186064,-7.20423126652582],[-35.9285787800811,-7.20497025707706],[-35.9273357098823,-7.20618885739004],[-35.9269441917095,-7.2072508504339],[-35.9269490856866,-7.20582180910302],[-35.9261856252496,-7.20834220734072],[-35.9208511901445,-7.20997190173517],[-35.9202394429995,-7.21131285147719],[-35.9163389432025,-7.21238463247535],[-35.9175379676068,-7.21404369073279],[-35.917758196579,-7.21567827910443],[-35.9132704195228,-7.21683815169149],[-35.9185363389476,-7.21560976342418],[-35.9235967113316,-7.21147924670065],[-35.9271595267045,-7.21026554036482],[-35.9276782882835,-7.20888054482837],[-35.9292247850663,-7.20818560007158],[-35.9300861250465,-7.20499472696286],[-35.9287647512132,-7.20477939196779]]]}},{"type":"Feature","properties":{"id":"25040090002","state":"PB","municipality":"2504009","origin":"face","accuracy":"otima","notes":"Aglomerado Subnormal"},"geometry":{"type":"Polygon","coordinates":[[[-35.9155587970008,-7.22265336546095],[-35.913661834935,-7.2236619614889],[-35.9131408383113,-7.22508468303826],[-35.9144834065339,-7.22667439068496],[-35.9150177620454,-7.23040819982153],[-35.9178164490368,-7.23191107469762],[-35.9173088113009,-7.2334206290176],[-35.9184175989873,-7.2338481134268],[-35.9193393622446,-7.23355421789549],[-35.9197668466538,-7.2352307583128],[-35.9202410871703,-7.23564488383422],[-35.9205550210333,-7.23525079664448],[-35.9195998605565,-7.23233187966294],[-35.9158660514199,-7.22990056208562],[-35.9153183370206,-7.2264272512609],[-35.9139356921346,-7.22481750528249],[-35.9145435215289,-7.22388238313739],[-35.9158660514199,-7.22331463040642],[-35.9166275080238,-7.22213236883723],[-35.9172086196425,-7.22012185622523],[-35.9170950690963,-7.21830504748613],[-35.9155587970008,-7.22265336546095]]]}},{"type":"Feature","properties":{"id":"25040090005","state":"PB","municipality":"2504009","origin":"face","accuracy":"otima","notes":""},"geometry":{"type":"Polygon","coordinates":[[[-35.8720455597551,-7.24412109813534],[-35.8715846781264,-7.24443336213735],[-35.8718101093579,-7.24557554704318],[-35.8727385520591,-7.24445340046904],[-35.8720455597551,-7.24412109813534]]]}},{"type":"Feature","properties":{"id":"25048010001","state":"PB","municipality":"2504801","origin":"face","accuracy":"otima","notes":""},"geometry":{"type":"Polygon","coordinates":[[[-37.9449327299003,-7.01491994394425],[-37.9447724169421,-7.01529650322791],[-37.9434146014199,-7.01541497626569],[-37.9433969846113,-7.01592586371487],[-37.9440470448484,-7.01597166741718],[-37.944189740998,-7.01693706852803],[-37.9433582276324,-7.01734577848737],[-37.9469802434789,-7.01601042439609],[-37.9473096777996,-7.01860009525912],[-37.9470084303727,-7.01879916519621],[-37.947517556141,-7.02037586956517],[-37.9471757900543,-7.02049390218275],[-37.9475686448859,-7.02046219192729],[-37.948030205271,-7.02157909759201],[-37.9476708223757,-7.02160199944318],[-37.948542854401,-7.02187153661464],[-37.9491594427017,-7.02272947519307],[-37.9514161558824,-7.022905643279],[-37.9508665114543,-7.0213729809315],[-37.9510743947924,-7.01916319820875],[-37.9501769022616,-7.01743814763014],[-37.9502934597332,-7.01577720366087],[-37.949401795076,-7.01552660509709],[-37.9483856243843,-7.01392635593967],[-37.9449327299003,-7.01491994394425]]]}},{"type":"Feature","properties":{"id":"25075070002","state":"PB","municipality":"2507507","origin":"face","accuracy":"otima","notes":""},"geometry":{"type":"Polygon","coordinates":[[[-34.8788197797321,-7.13995156664683],[-34.8791204181483,-7.13951368025811],[-34.878342679637,-7.13969014193715],[-34.8761597833111,-7.13883397601293],[-34.8760780880894,-7.13844510675728],[-34.8759048942192,-7.13891567123471],[-34.8734965190812,-7.13957250081778],[-34.8726566922014,-7.14036494446901],[-34.8708463260868,-7.14016887593676],[-34.8699738211183,-7.14079302743112],[-34.8704215109336,-7.14143025016097],[-34.872084825649,-7.14173742419483],[-34.8757684631989,-7.14181258379886],[-34.878455419043,-7.14396688679711],[-34.8793246562027,-7.14375611312491],[-34.8800484758677,-7.14185343140976],[-34.8788197797321,-7.13995156664683]]]}},{"type":"Feature","properties":{"id":"25075070011","state":"PB","municipality":"2507507","origin":"face","accuracy":"otima","notes":"Aglomerado Subnormal"},"geometry":{"type":"Polygon","coordinates":[[[-34.8290609855539,-7.1456495150741],[-34.8297621423403,-7.14420800640139],[-34.8286516145109,-7.14399025584658],[-34.8262171633083,-7.14742200459012],[-34.82701848535,-7.14787492574407],[-34.8272710759935,-7.14894625847365],[-34.8296750421184,-7.14949934488283],[-34.8299668278618,-7.1468994032586],[-34.8290609855539,-7.1456495150741]]]}},{"type":"Feature","properties":{"id":"25075070008","state":"PB","municipality":"2507507","origin":"face","accuracy":"otima","notes":"Aglomerado Subnormal"},"geometry":{"type":"Polygon","coordinates":[[[-34.83296649403,-7.11476117694918],[-34.8333723321046,-7.11473043164057],[-34.8328127674866,-7.1142446557633],[-34.833360033981,-7.11342683055234],[-34.8346636350692,-7.11371583645406],[-34.8374184147272,-7.11216627289638],[-34.8439640909457,-7.10504719667096],[-34.8466819762332,-7.10093654890012],[-34.8465190260971,-7.10054915801078],[-34.8473245531846,-7.10012487275089],[-34.8459963558495,-7.10073670439375],[-34.8434998367845,-7.1042570422378],[-34.8452615429721,-7.1011763623079],[-34.8454138826947,-7.09991703930685],[-34.8469302815066,-7.09986947385989],[-34.8482336503064,-7.10043563478503],[-34.8490270498971,-7.10024788264748],[-34.8487191794946,-7.09982979808626],[-34.8447038839999,-7.09986475599987],[-34.8449326271336,-7.09921976072775],[-34.8441639354521,-7.0996729167133],[-34.8440440287482,-7.09931934566344],[-34.8423099933386,-7.10303030442135],[-34.8420455836838,-7.10288580147057],[-34.8414399011028,-7.10430623473171],[-34.841132448016,-7.10418325349701],[-34.841273876436,-7.10449070658383],[-34.8376951225052,-7.10922855865182],[-34.8370986635168,-7.10988650825765],[-34.8367789123066,-7.10963439672644],[-34.8351401873537,-7.11152215867954],[-34.83385195892,-7.1106766626907],[-34.8323485133254,-7.11233998389044],[-34.83073950282194,-7.116054746395186],[-34.83031117696453,-7.118260741589778],[-34.83010126839518,-7.119341828073978],[-34.8324807181528,-7.11868427833713],[-34.83296649403,-7.11476117694918]]]}},{"type":"Feature","properties":{"id":"25075070001","state":"PB","municipality":"2507507","origin":"face","accuracy":"otima","notes":"Aglomerado Subnormal"},"geometry":{"type":"Polygon","coordinates":[[[-34.8893501236654,-7.1253393688649],[-34.8875406908055,-7.12555032437861],[-34.8863989212726,-7.12702701297457],[-34.8861379453793,-7.12835146563279],[-34.8862118885491,-7.12914309250899],[-34.8862967057144,-7.12836233962836],[-34.8867512387285,-7.12834059163725],[-34.8867990843089,-7.1291256941161],[-34.8870100398226,-7.12783821304275],[-34.8883823380613,-7.12604617857577],[-34.8890847981739,-7.12601790618733],[-34.8902461408989,-7.12678778507243],[-34.8908616090471,-7.12639197163433],[-34.8893501236654,-7.1253393688649]]]}},{"type":"Feature","properties":{"id":"25093050002","state":"PB","municipality":"2509305","origin":"face","accuracy":"otima","notes":""},"geometry":{"type":"Polygon","coordinates":[[[-35.0645660422235,-6.58790552102165],[-35.0635046228129,-6.58696968940393],[-35.0626457643586,-6.58726542840002],[-35.062528279004,-6.58782449663917],[-35.0633709325818,-6.5878650088304],[-35.0640717934903,-6.58886565995411],[-35.065331722638,-6.58858612583453],[-35.0652061348451,-6.58797034052765],[-35.0645660422235,-6.58790552102165]]]}},{"type":"Feature","properties":{"id":"25093050004","state":"PB","municipality":"2509305","origin":"face","accuracy":"otima","notes":""},"geometry":{"type":"Polygon","coordinates":[[[-35.0492043389999,-6.60245102399996],[-35.0525115018709,-6.60487970923322],[-35.0561192503493,-6.60335281954264],[-35.0560422771859,-6.60303682445085],[-35.0552846992097,-6.60341358782937],[-35.0542597407713,-6.60323533418803],[-35.0510835849778,-6.60181740749454],[-35.0505852850255,-6.60107198317564],[-35.0511362508263,-6.59904232239434],[-35.0509174849937,-6.5966561543301],[-35.0501639582365,-6.59620646900738],[-35.0506338996549,-6.59694784210701],[-35.0494874046428,-6.60104767586091],[-35.0468743683076,-6.60017666374916],[-35.0462747878773,-6.5990868858047],[-35.0452984440682,-6.59853997122294],[-35.0445489685302,-6.59866150779671],[-35.044476046586,-6.59913955165336],[-35.0478426096784,-6.60075193686477],[-35.0452960444367,-6.60138639332247],[-35.0492043389999,-6.60245102399996]]]}},{"type":"Feature","properties":{"id":"25098000001","state":"PB","municipality":"2509800","origin":"face","accuracy":"otima","notes":""},"geometry":{"type":"Polygon","coordinates":[[[-35.465231527992,-7.02792176319958],[-35.4646886436131,-7.0281223943831],[-35.4634219133954,-7.0304316199662],[-35.4650387646981,-7.03112792819144],[-35.4644014656445,-7.03287066572689],[-35.4653770839487,-7.03216255566735],[-35.4662032123516,-7.03228844190015],[-35.4672299719379,-7.03326406020444],[-35.4678790728259,-7.03311850424774],[-35.4681859205183,-7.03220189511509],[-35.4678633370467,-7.03182817036144],[-35.4679026764945,-7.02972744385144],[-35.4695903388031,-7.02986513191856],[-35.4696296782508,-7.02917275763811],[-35.465231527992,-7.02792176319958]]]}},{"type":"Feature","properties":{"id":"25098000002","state":"PB","municipality":"2509800","origin":"face","accuracy":"otima","notes":""},"geometry":{"type":"Polygon","coordinates":[[[-35.4616575391637,-7.02908227690828],[-35.4620214290554,-7.02895835764785],[-35.4626783978329,-7.0299241410902],[-35.46237941803,-7.02879509893968],[-35.462851491403,-7.02989266953198],[-35.4635123941253,-7.03017197961103],[-35.4645116160982,-7.02789422558613],[-35.4642716454669,-7.02626950639393],[-35.4646886436131,-7.02439301473611],[-35.4623676161956,-7.02164318733816],[-35.4606602841632,-7.02143862220985],[-35.4601567392319,-7.02193036530677],[-35.4601528052871,-7.02276042765435],[-35.4617106474182,-7.02564794311944],[-35.4609317263527,-7.02781161274585],[-35.4603140970229,-7.02810272465923],[-35.4602904933543,-7.02884230627698],[-35.46097893369,-7.02996741448271],[-35.4617932602584,-7.02956418514326],[-35.4616575391637,-7.02908227690828]]]}},{"type":"Feature","properties":{"id":"25108080004","state":"PB","municipality":"2510808","origin":"face","accuracy":"otima","notes":""},"geometry":{"type":"Polygon","coordinates":[[[-37.278073853566,-7.0378104219984],[-37.2757890824121,-7.03449567391695],[-37.2747852470309,-7.03217430459806],[-37.2752557948658,-7.03151553762919],[-37.2743251558146,-7.03000978455748],[-37.2745499731135,-7.02916279845465],[-37.2716534897742,-7.0274845111768],[-37.2695778509913,-7.02693031039347],[-37.2682760019814,-7.02735903175416],[-37.2683230567649,-7.02812759321787],[-37.27284031598,-7.03254028624744],[-37.2733579185984,-7.03510215779304],[-37.2748166168866,-7.03602756853503],[-37.2761446074429,-7.03863126655486],[-37.2782307028443,-7.03934754492577],[-37.2784189219783,-7.03694775096774],[-37.278073853566,-7.0378104219984]]]}},{"type":"Feature","properties":{"id":"25108080002","state":"PB","municipality":"2510808","origin":"face","accuracy":"otima","notes":""},"geometry":{"type":"Polygon","coordinates":[[[-37.2808344008641,-7.02301169259059],[-37.280690622359,-7.02236076808562],[-37.2785836137205,-7.0206354260243],[-37.2792580656172,-7.01988777779771],[-37.2795796066377,-7.01714291542742],[-37.2782620727,-7.01698606614914],[-37.2777601550094,-7.01872709313829],[-37.2766360685149,-7.01967864542664],[-37.2768870273602,-7.02086024332319],[-37.2774830546177,-7.02073476390055],[-37.27949072538,-7.02232416992069],[-37.2809023688847,-7.02413316493045],[-37.2804893324519,-7.02478670359004],[-37.2816500171113,-7.02443117855921],[-37.2816604737298,-7.02315547109568],[-37.2808344008641,-7.02301169259059]]]}},{"type":"Feature","properties":{"id":"25108080001","state":"PB","municipality":"2510808","origin":"face","accuracy":"otima","notes":""},"geometry":{"type":"Polygon","coordinates":[[[-37.2905224579539,-7.02848311824869],[-37.2898087937376,-7.02850664564044],[-37.2887134629442,-7.02762828968193],[-37.2877436115733,-7.02763090383656],[-37.2912596495619,-7.02982156542353],[-37.2912596495619,-7.0303705378976],[-37.2914818527062,-7.02982679373281],[-37.2921850603039,-7.02999932793894],[-37.2925758764223,-7.02960720474317],[-37.2905224579539,-7.02848311824869]]]}},{"type":"Feature","properties":{"id":"25139010001","state":"PB","municipality":"2513901","origin":"face","accuracy":"otima","notes":""},"geometry":{"type":"Polygon","coordinates":[[[-37.46688212552,-6.48279832050871],[-37.4631222544599,-6.48076686778675],[-37.4581726928556,-6.4790160024573],[-37.4530660023114,-6.47797221735706],[-37.4501927874118,-6.47658050389005],[-37.4460527204348,-6.47843939536563],[-37.4465128837586,-6.48262014751448],[-37.4477418565379,-6.48290073490702],[-37.4486902419247,-6.48382106155455],[-37.450901270578,-6.48383228505025],[-37.4513221516667,-6.4848872936462],[-37.4520348436438,-6.48487607015051],[-37.4537744854776,-6.48640807731378],[-37.4552728221537,-6.48652031227079],[-37.4551549754489,-6.48621727788684],[-37.4558788909216,-6.48597036098142],[-37.4675401029556,-6.48714321628223],[-37.469059483686,-6.48558174744272],[-37.46688212552,-6.48279832050871]]]}},{"type":"Feature","properties":{"id":"25162010004","state":"PB","municipality":"2516201","origin":"face","accuracy":"otima","notes":""},"geometry":{"type":"Polygon","coordinates":[[[-38.2215242577971,-6.75199379937997],[-38.21780761864,-6.74784576460633],[-38.2134024057104,-6.74681705198247],[-38.2108140320116,-6.74770473142403],[-38.2093124434235,-6.74742266505942],[-38.2092211866585,-6.75102315924294],[-38.2108555123593,-6.7512803373989],[-38.2135849192404,-6.75305569628202],[-38.2222709040564,-6.75528733899024],[-38.2222543119173,-6.75451580452233],[-38.222992662107,-6.75438306740958],[-38.2235816830448,-6.75237541857914],[-38.2215242577971,-6.75199379937997]]]}},{"type":"Feature","properties":{"id":"25162010001","state":"PB","municipality":"2516201","origin":"face","accuracy":"otima","notes":""},"geometry":{"type":"Polygon","coordinates":[[[-38.2413643081194,-6.7509567906866],[-38.2417625194577,-6.75016866407959],[-38.2411859426241,-6.75088212606066],[-38.2388879313595,-6.75072450073926],[-38.237560560232,-6.74690830874753],[-38.2376974453795,-6.7483601209183],[-38.2351837363067,-6.74881225670862],[-38.2333295647629,-6.75084064571294],[-38.2330806826765,-6.74772132356316],[-38.2326409909904,-6.74711571048621],[-38.2321017464699,-6.7474641454072],[-38.2309402967333,-6.74933905712488],[-38.2305669736036,-6.75089871819976],[-38.2310066652896,-6.75313865697751],[-38.2303927561431,-6.75357834866353],[-38.2297954391357,-6.75348709189851],[-38.2286008051209,-6.75225927360552],[-38.2257801414748,-6.75134670595533],[-38.2243283293041,-6.75167025266765],[-38.2238139729922,-6.75269896529153],[-38.2235484987666,-6.7541341853232],[-38.2271904732979,-6.75514630580796],[-38.2288911675551,-6.75473565036537],[-38.2294096719018,-6.7551711940166],[-38.2300318771178,-6.75507578921682],[-38.230230982787,-6.75646952890076],[-38.2313758403845,-6.75622064681433],[-38.2315459098102,-6.75702121752565],[-38.233362749041,-6.75668937474375],[-38.2329562416332,-6.75721202712523],[-38.2322012993044,-6.75730743192502],[-38.232960389668,-6.75744431707256],[-38.2331304590937,-6.75788400875855],[-38.2322012993044,-6.75808726246246],[-38.2331138669546,-6.75816192708838],[-38.2331594953371,-6.75874679999146],[-38.2325953626079,-6.75902057028653],[-38.2331760874762,-6.75926530433818],[-38.2326741752686,-6.75966766371123],[-38.2333751931454,-6.76002439470174],[-38.2321224866437,-6.76080007720442],[-38.2334830420495,-6.76055949118755],[-38.2334664499104,-6.76089133396944],[-38.2325414381559,-6.76099918287356],[-38.2348684856639,-6.76151768722026],[-38.2361004519916,-6.76328060199904],[-38.2418537762227,-6.76400650808444],[-38.2451970922502,-6.76373688582415],[-38.2419533290572,-6.76367466530255],[-38.2468521581249,-6.75909938294724],[-38.2413643081194,-6.7509567906866]]]}},{"type":"Feature","properties":{"id":"25162010002","state":"PB","municipality":"2516201","origin":"face","accuracy":"otima","notes":""},"geometry":{"type":"Polygon","coordinates":[[[-38.2481256048004,-6.80229286904504],[-38.2441434914178,-6.80225968476685],[-38.2420031054745,-6.80267448824422],[-38.239281994663,-6.80390230653721],[-38.2393317710803,-6.80554492830756],[-38.2413726041889,-6.80871402687463],[-38.2417044469709,-6.81078804426145],[-38.2470968921766,-6.81085441281781],[-38.2474453270976,-6.80741984002524],[-38.2485404082778,-6.80503057199563],[-38.2481256048004,-6.80229286904504]]]}},{"type":"Feature","properties":{"id":"25018070005","state":"PB","municipality":"2501807","origin":"setor","accuracy":"regular","notes":"Aglomerado Subnormal"},"geometry":{"type":"Polygon","coordinates":[[[-34.9069447812592,-7.11889754534399],[-34.9064237168037,-7.12072681417721],[-34.9078871318702,-7.12103723555487],[-34.9081864667702,-7.11950730162175],[-34.9097402183795,-7.12020086224151],[-34.9069172196753,-7.11716041633976],[-34.906173321368,-7.11737404867406],[-34.9061715142379,-7.11843498182544],[-34.9069447812592,-7.11889754534399]]]}},{"type":"Feature","properties":{"id":"25018070007","state":"PB","municipality":"2501807","origin":"setor","accuracy":"regular","notes":""},"geometry":{"type":"Polygon","coordinates":[[[-34.909353267,-7.12821597799992],[-34.911284447034,-7.12747758530998],[-34.9116232748811,-7.12593745873233],[-34.9092618551146,-7.12526118358797],[-34.9086299258813,-7.12624788011011],[-34.9074999400159,-7.12681774231261],[-34.907988232701,-7.12803415951697],[-34.909353267,-7.12821597799992]]]}},{"type":"Feature","properties":{"id":"25018070010","state":"PB","municipality":"2501807","origin":"face","accuracy":"regular","notes":""},"geometry":{"type":"Polygon","coordinates":[[[-34.9424154746661,-7.13198688183201],[-34.9417650405052,-7.13253240725731],[-34.942997241291,-7.13274413216013],[-34.9433882647602,-7.13173319343494],[-34.9424154746661,-7.13198688183201]]]}},{"type":"Feature","properties":{"id":"25018070009","state":"PB","municipality":"2501807","origin":"face","accuracy":"regular","notes":""},"geometry":{"type":"Polygon","coordinates":[[[-34.9211609648269,-7.1373238753284],[-34.9209244433138,-7.13674401613508],[-34.9207184407057,-7.13735439423332],[-34.9197723546534,-7.13707209436288],[-34.9195053142355,-7.13748409957918],[-34.9231122673097,-7.13929425212673],[-34.9269748162125,-7.13586850505043],[-34.925284831853,-7.1371865402563],[-34.9237340899972,-7.13767293530333],[-34.9235013833473,-7.13815742291879],[-34.9211609648269,-7.1373238753284]]]}},{"type":"Feature","properties":{"id":"25018070008","state":"PB","municipality":"2501807","origin":"face","accuracy":"regular","notes":""},"geometry":{"type":"Polygon","coordinates":[[[-34.9210579635228,-7.13159013606818],[-34.921061778386,-7.13196017779022],[-34.9203636584361,-7.13196399265333],[-34.9202797314476,-7.13229588574425],[-34.9212830404465,-7.13257055588846],[-34.9214890430547,-7.13194491833777],[-34.9210579635228,-7.13159013606818]]]}},{"type":"Feature","properties":{"id":"25075070013","state":"PB","municipality":"2507507","origin":"face","accuracy":"regular","notes":""},"geometry":{"type":"Polygon","coordinates":[[[-34.8500826241136,-7.12928773838701],[-34.8489720962841,-7.12883046222194],[-34.8497951933812,-7.12951419896399],[-34.8487412806961,-7.12979727468522],[-34.8500434290137,-7.12986695486277],[-34.8515459078418,-7.13144782389056],[-34.8522035145173,-7.13146959894602],[-34.8532704922357,-7.13230576107645],[-34.8522165795505,-7.13112119805836],[-34.8500826241136,-7.12928773838701]]]}},{"type":"Feature","properties":{"id":"25108080003","state":"PB","municipality":"2510808","origin":"setor","accuracy":"regular","notes":""},"geometry":{"type":"Polygon","coordinates":[[[-37.2871671545523,-7.03727831431167],[-37.2867085388672,-7.03747895867394],[-37.2859632883788,-7.03474159630321],[-37.2834265703703,-7.03522887546866],[-37.2844297921816,-7.03947107055631],[-37.2833649025541,-7.03906521622475],[-37.2823349256265,-7.03933185999798],[-37.2824865465955,-7.04113039838916],[-37.283422413956,-7.04040889170887],[-37.2851791258731,-7.04203489589394],[-37.2853830299349,-7.04282437059476],[-37.2860492788198,-7.04306833733676],[-37.2883788511505,-7.04262046653299],[-37.2884415908618,-7.0421446903888],[-37.2871671545523,-7.03727831431167]]]}},{"type":"Feature","properties":{"id":"25153020001","state":"PB","municipality":"2515302","origin":"face","accuracy":"regular","notes":""},"geometry":{"type":"Polygon","coordinates":[[[-35.2353865553154,-7.08796022910238],[-35.2343103931791,-7.08809278352003],[-35.2344519343369,-7.08850617356821],[-35.2352045738268,-7.08847696666264],[-35.2352899478585,-7.0890206644434],[-35.236071794254,-7.08825454484323],[-35.2353865553154,-7.08796022910238]]]}},{"type":"Feature","properties":{"id":"25153020002","state":"PB","municipality":"2515302","origin":"face","accuracy":"regular","notes":""},"geometry":{"type":"Polygon","coordinates":[[[-35.2243390605624,-7.10148463755716],[-35.2222590984014,-7.10272010380313],[-35.2223477183431,-7.10300160244143],[-35.2234945646474,-7.1024177534138],[-35.2254494163024,-7.10221444884169],[-35.2262261440267,-7.10064535457994],[-35.227227028074,-7.10014491255624],[-35.2243390605624,-7.10148463755716]]]}}]}