{"type":"FeatureCollection","features":[{"type":"Feature","properties":{"id":"22012000001","state":"PI","municipality":"2201200","origin":"","accuracy":"","notes":"Sem associacao de dados do Censo Demografico 2010"},"geometry":{"type":"Polygon","coordinates":[[[-42.3109550376876,-4.2451736676462],[-42.3096826179896,-4.24478179250146],[-42.3090276960863,-4.24315830763993],[-42.3092148166301,-4.24187071377112],[-42.3066886892885,-4.23776532768826],[-42.3055472539712,-4.23800791929022],[-42.3052478611011,-4.23839979787105],[-42.30588407095,-4.23869837189454],[-42.3068758098323,-4.24162812338164],[-42.3072874750287,-4.24789812743751],[-42.3076804281707,-4.24842062547609],[-42.3099632988054,-4.24702107636285],[-42.3109363256332,-4.24556554259201],[-42.3109550376876,-4.2451736676462]]]}},{"type":"Feature","properties":{"id":"22019450001","state":"PI","municipality":"2201945","origin":"","accuracy":"","notes":"Sem associacao de dados do Censo Demografico 2010"},"geometry":{"type":"Polygon","coordinates":[[[-42.1247250968477,-4.49848337862211],[-42.1253922084216,-4.5018086534126],[-42.1284726942188,-4.50515347331408],[-42.1306898591556,-4.50575984252636],[-42.1344178355981,-4.50579896310334],[-42.1366742423922,-4.5052121542277],[-42.1371843865369,-4.50200425733899],[-42.1335545147377,-4.49369104412963],[-42.1303759242973,-4.49085474969048],[-42.1265498432116,-4.48942681797142],[-42.1247250968477,-4.49848337862211]]]}},{"type":"Feature","properties":{"id":"22020000003","state":"PI","municipality":"2202000","origin":"","accuracy":"","notes":"Sem associacao de dados do Censo Demografico 2010"},"geometry":{"type":"Polygon","coordinates":[[[-41.940366862273,-3.18867681028525],[-41.9389734004858,-3.1886886758487],[-41.9380939872515,-3.18951333217842],[-41.9377018164848,-3.19088973551448],[-41.9418790293475,-3.1982938045701],[-41.9443449515922,-3.20057196891378],[-41.9460087063597,-3.1988633461307],[-41.9469772493136,-3.19423581179718],[-41.94614537193,-3.1919576333845],[-41.9431386293351,-3.18972372652127],[-41.940366862273,-3.18867681028525]]]}},{"type":"Feature","properties":{"id":"22020000005","state":"PI","municipality":"2202000","origin":"","accuracy":"","notes":"Sem associacao de dados do Censo Demografico 2010"},"geometry":{"type":"Polygon","coordinates":[[[-41.894684076,-3.09483917099994],[-41.8896392356345,-3.09013079413268],[-41.8888765560401,-3.09101863285246],[-41.8914018980979,-3.09508889390345],[-41.894158977427,-3.09655442138767],[-41.8959178038954,-3.09666122088221],[-41.8966100338353,-3.09594856830496],[-41.894684076,-3.09483917099994]]]}},{"type":"Feature","properties":{"id":"22026530001","state":"PI","municipality":"2202653","origin":"","accuracy":"","notes":"Sem associacao de dados do Censo Demografico 2010"},"geometry":{"type":"Polygon","coordinates":[[[-41.8967494214981,-3.40463573463496],[-41.8924021488478,-3.4017607454587],[-41.8916957170421,-3.40167937771567],[-41.8884352625544,-3.40365932417867],[-41.8894677398089,-3.40721236858538],[-41.8943855919945,-3.40767344972262],[-41.8970482964928,-3.40875834564458],[-41.8987056941908,-3.40789042900489],[-41.8967494214981,-3.40463573463496]]]}},{"type":"Feature","properties":{"id":"22085020003","state":"PI","municipality":"2208502","origin":"","accuracy":"","notes":"Sem associacao de dados do Censo Demografico 2010"},"geometry":{"type":"Polygon","coordinates":[[[-42.6970413842524,-3.89699442635163],[-42.7033588985943,-3.89544359674456],[-42.7039221988504,-3.89499542050221],[-42.6958933933654,-3.89678812367293],[-42.6945457520848,-3.89742837352061],[-42.6940680169254,-3.8968806036569],[-42.693533238668,-3.89701576816312],[-42.6935546299422,-3.89806862336821],[-42.6922782923093,-3.89870887231655],[-42.6924208996048,-3.89911436313731],[-42.6970413842524,-3.89699442635163]]]}},{"type":"Feature","properties":{"id":"22100520001","state":"PI","municipality":"2210052","origin":"","accuracy":"","notes":"Sem associacao de dados do Censo Demografico 2010"},"geometry":{"type":"Polygon","coordinates":[[[-41.9759223686223,-3.72508924387348],[-41.9745081775103,-3.72365432158955],[-41.9734326782755,-3.72399822863533],[-41.972678047254,-3.72535606822794],[-41.9723393535782,-3.72789978804474],[-41.972897900018,-3.73017074888095],[-41.9740565865421,-3.73103643987975],[-41.97664729054,-3.73087041693617],[-41.9781261552904,-3.7295002463701],[-41.9759223686223,-3.72508924387348]]]}},{"type":"Feature","properties":{"id":"22110010027","state":"PI","municipality":"2211001","origin":"","accuracy":"","notes":"Sem associacao de dados do Censo Demografico 2010"},"geometry":{"type":"Polygon","coordinates":[[[-42.8018800999866,-5.07163340735583],[-42.8028070492059,-5.07002351387399],[-42.801618653578,-5.07002351387399],[-42.7983743313103,-5.07239692188039],[-42.7973879620847,-5.07360433727031],[-42.797096805673,-5.07483542551443],[-42.7952250808728,-5.07630917782627],[-42.7947200126184,-5.07804926616064],[-42.7949576917441,-5.07896665738532],[-42.792860172359,-5.08031610810184],[-42.7927472750666,-5.08135778833123],[-42.7946189989676,-5.08191413862654],[-42.7961698564537,-5.07996099010757],[-42.8018800999866,-5.07163340735583]]]}},{"type":"Feature","properties":{"id":"22110010007","state":"PI","municipality":"2211001","origin":"","accuracy":"","notes":"Sem associacao de dados do Censo Demografico 2010"},"geometry":{"type":"Polygon","coordinates":[[[-42.6878576631006,-5.16033899514844],[-42.6859146346527,-5.16059346461663],[-42.6860394164858,-5.16162317756754],[-42.6884340350027,-5.16164093108404],[-42.6878576631006,-5.16033899514844]]]}},{"type":"Feature","properties":{"id":"22112090002","state":"PI","municipality":"2211209","origin":"","accuracy":"","notes":"Sem associacao de dados do Censo Demografico 2010"},"geometry":{"type":"Polygon","coordinates":[[[-44.5461174045587,-7.23316893460925],[-44.5452910423187,-7.23516931827545],[-44.5456779676022,-7.23701940639563],[-44.5444833804336,-7.23869877303828],[-44.5431353157393,-7.23932795220465],[-44.5442538224411,-7.24009529982567],[-44.5454698733321,-7.23958807004233],[-44.5483961990055,-7.23710394469288],[-44.5489879670861,-7.23568630247763],[-44.5489261890996,-7.23281525184485],[-44.5461174045587,-7.23316893460925]]]}},{"type":"Feature","properties":{"id":"22012000004","state":"PI","municipality":"2201200","origin":"face","accuracy":"boa","notes":""},"geometry":{"type":"Polygon","coordinates":[[[-42.2874620534108,-4.25343565560526],[-42.284266970125,-4.25058992158262],[-42.2835372000041,-4.25163957879772],[-42.284903179974,-4.25352895818214],[-42.2866012989092,-4.25399080577112],[-42.2867416393171,-4.25462992773613],[-42.2883801135789,-4.25372431041595],[-42.2874620534108,-4.25343565560526]]]}},{"type":"Feature","properties":{"id":"22020000001","state":"PI","municipality":"2202000","origin":"setor","accuracy":"boa","notes":""},"geometry":{"type":"Polygon","coordinates":[[[-41.9572568769843,-3.19981554772059],[-41.953560964608,-3.19879511981463],[-41.9520517013546,-3.19913921771039],[-41.9509227249052,-3.19862900354777],[-41.9513267796345,-3.20190386212801],[-41.9547137089826,-3.20360061444887],[-41.9591345430791,-3.20675680359109],[-41.9607151101082,-3.20737380183434],[-41.9623550969504,-3.20693478389177],[-41.9630562507453,-3.2050481911288],[-41.9572568769843,-3.19981554772059]]]}},{"type":"Feature","properties":{"id":"22020830001","state":"PI","municipality":"2202083","origin":"face","accuracy":"boa","notes":""},"geometry":{"type":"Polygon","coordinates":[[[-41.3433818736071,-2.93818824569232],[-41.3397511081517,-2.93701224750401],[-41.3386716913947,-2.93225924221427],[-41.3379193706247,-2.93204690817313],[-41.3368726634664,-2.93420291348677],[-41.3363329550879,-2.93454591394879],[-41.3369380826638,-2.942304229592],[-41.34155013608,-2.94586487007129],[-41.3471761870558,-2.94584853688406],[-41.3492859561718,-2.94382321981212],[-41.3457369647132,-2.93959290857134],[-41.3433818736071,-2.93818824569232]]]}},{"type":"Feature","properties":{"id":"22022080002","state":"PI","municipality":"2202208","origin":"face","accuracy":"boa","notes":""},"geometry":{"type":"Polygon","coordinates":[[[-42.1732018722685,-4.8189005381293],[-42.1682284342947,-4.81998407640395],[-42.165085125678,-4.82112090130853],[-42.1641403509964,-4.82199128137252],[-42.1659110612464,-4.823589936926],[-42.1701774036642,-4.82190246792454],[-42.1718768102666,-4.82148800097042],[-42.1720788375683,-4.82200312364518],[-42.1737425923467,-4.82126892522071],[-42.1732018722685,-4.8189005381293]]]}},{"type":"Feature","properties":{"id":"22022080001","state":"PI","municipality":"2202208","origin":"face","accuracy":"boa","notes":""},"geometry":{"type":"Polygon","coordinates":[[[-42.1665296410301,-4.81233488104988],[-42.165335302682,-4.81287369456532],[-42.1650263199087,-4.81650327650493],[-42.1666544228633,-4.8189131187454],[-42.1681102076199,-4.8188124621254],[-42.168656462126,-4.82064428400646],[-42.1683478876449,-4.81873548915145],[-42.169464979625,-4.81828549447993],[-42.1676467339096,-4.81330592942505],[-42.1665296410301,-4.81233488104988]]]}},{"type":"Feature","properties":{"id":"22022080004","state":"PI","municipality":"2202208","origin":"face","accuracy":"boa","notes":""},"geometry":{"type":"Polygon","coordinates":[[[-42.1619239915989,-4.83592461632793],[-42.162928187186,-4.83520227456528],[-42.1630707944815,-4.83333720834543],[-42.1622626852746,-4.83199317424556],[-42.160830667801,-4.83274512348862],[-42.1609613905557,-4.83175633958337],[-42.1620665997937,-4.83107543947991],[-42.1618348624889,-4.83085636732745],[-42.1605513941315,-4.83147213762902],[-42.1608247250809,-4.82890247596845],[-42.1592798103149,-4.82543282586419],[-42.1597195167422,-4.82423087745299],[-42.1592263321295,-4.82176776566979],[-42.1594343021513,-4.82060725801848],[-42.157669533722,-4.817297431831],[-42.1538607231938,-4.82492362612443],[-42.1543836178097,-4.83578251625011],[-42.1575447518888,-4.83436151547153],[-42.1592619839533,-4.8347759743317],[-42.1590064793655,-4.83627986562324],[-42.1593154621388,-4.83915738050866],[-42.160081977701,-4.84002773808959],[-42.1611337087536,-4.83981458977145],[-42.1616150088255,-4.84022312389801],[-42.1618705143127,-4.83789624951227],[-42.1619239915989,-4.83592461632793]]]}},{"type":"Feature","properties":{"id":"22022080003","state":"PI","municipality":"2202208","origin":"face","accuracy":"boa","notes":""},"geometry":{"type":"Polygon","coordinates":[[[-42.1656317884762,-4.82024459920884],[-42.1594758957959,-4.81549004722787],[-42.1580201101399,-4.8161591203471],[-42.1577764891936,-4.81726634676445],[-42.1599274858647,-4.8215116846165],[-42.1607177696093,-4.82082485348417],[-42.1619121079574,-4.82067682957201],[-42.1631777499531,-4.82197351886277],[-42.1634926745472,-4.82170115468449],[-42.1652752693381,-4.82240574832658],[-42.1644849855936,-4.8216715508014],[-42.1656317884762,-4.82024459920884]]]}},{"type":"Feature","properties":{"id":"22026530003","state":"PI","municipality":"2202653","origin":"face","accuracy":"boa","notes":""},"geometry":{"type":"Polygon","coordinates":[[[-41.8884420551679,-3.42312971069828],[-41.8897971815644,-3.42210246528064],[-41.8904424798484,-3.42167190334305],[-41.8912643860839,-3.42256692953362],[-41.891851947153,-3.42094638908753],[-41.8959750635573,-3.41891562430512],[-41.8943516289269,-3.41950552971021],[-41.8919130806747,-3.41842064592665],[-41.8912474045501,-3.41875967224084],[-41.8908466403526,-3.42055650970504],[-41.8866759756537,-3.42307207649607],[-41.8868797540592,-3.42408915014289],[-41.8884080921003,-3.424319686686],[-41.8884420551679,-3.42312971069828]]]}},{"type":"Feature","properties":{"id":"22026530002","state":"PI","municipality":"2202653","origin":"face","accuracy":"boa","notes":""},"geometry":{"type":"Polygon","coordinates":[[[-41.8932390456718,-3.42123002055417],[-41.8930737039849,-3.42171898958031],[-41.8938048235389,-3.42294324709042],[-41.8945961630135,-3.42312293020407],[-41.8951157979475,-3.42279068592973],[-41.8952142908435,-3.42115319460865],[-41.8932390456718,-3.42123002055417]]]}},{"type":"Feature","properties":{"id":"22037010001","state":"PI","municipality":"2203701","origin":"face","accuracy":"boa","notes":""},"geometry":{"type":"Polygon","coordinates":[[[-42.2401311393406,-3.89630419578197],[-42.2376949271791,-3.89692073410453],[-42.2369105852553,-3.88696122627954],[-42.2362629097055,-3.8864158216328],[-42.2359420423913,-3.88726357025753],[-42.2352943668415,-3.88731099690496],[-42.2359182751083,-3.88747106094064],[-42.2359420423913,-3.88803425058019],[-42.2353478441277,-3.88819431461588],[-42.235947984212,-3.8882773112489],[-42.2359539269322,-3.88883457165811],[-42.2353834959515,-3.88897685070107],[-42.2359658105736,-3.8890539181038],[-42.2360074042183,-3.88962303517491],[-42.2354132059547,-3.88982459662777],[-42.2360192887591,-3.88986016661336],[-42.23612030241,-3.89051820684972],[-42.235436974137,-3.89056563349714],[-42.2361678378754,-3.89079683660471],[-42.23620943152,-3.89130666856785],[-42.2354963941432,-3.89143116261801],[-42.236185664237,-3.89156158499914],[-42.2362866778878,-3.89210698694786],[-42.2355379877878,-3.89226705008422],[-42.236274793347,-3.89253975060894],[-42.2362688515262,-3.89294287351476],[-42.2356271177972,-3.89300808425565],[-42.2363104451709,-3.89326892811851],[-42.2363282715324,-3.89446643747608],[-42.2356924796242,-3.89451979155508],[-42.2363639233564,-3.89472135300797],[-42.2363817488186,-3.89569951502056],[-42.2357103050865,-3.89575286909956],[-42.2363639233564,-3.89596035798411],[-42.2362926197086,-3.89648204391115],[-42.2357697250927,-3.89639311984655],[-42.2362450833439,-3.89681402504715],[-42.2354726259609,-3.89957658229339],[-42.2350566877159,-3.90035317925578],[-42.2340822021319,-3.90073258524059],[-42.2336365538838,-3.90204864862621],[-42.2327630828499,-3.90211385846778],[-42.2328403283184,-3.89889483592787],[-42.2319846827469,-3.89858063978465],[-42.2293939796484,-3.89802931400157],[-42.2273321120873,-3.89914382222958],[-42.2257693709596,-3.89857471145371],[-42.2247948853756,-3.89734163840588],[-42.2240640216372,-3.8972586435715],[-42.2240818479988,-3.89684959503274],[-42.2233331578989,-3.89734163840588],[-42.2222754859249,-3.89651168466646],[-42.2223824413965,-3.89708079634165],[-42.2210276693914,-3.8991912479777],[-42.2267913911098,-3.90256440172572],[-42.2320886677578,-3.90419469812679],[-42.2320237690817,-3.90489026257552],[-42.2322996082403,-3.90442625556722],[-42.2337976476433,-3.9050502663567],[-42.2391744801181,-3.91116044649738],[-42.2401727329852,-3.90775156358376],[-42.2391150610112,-3.90647107917692],[-42.238699121867,-3.90727138226845],[-42.2380930399618,-3.9065422173494],[-42.2400063575074,-3.90472226562002],[-42.2404817166579,-3.90316907888985],[-42.2414027231571,-3.90291416605589],[-42.2417176486505,-3.90230356146016],[-42.2435715461898,-3.89576472576141],[-42.2433695188881,-3.89360683938407],[-42.2401311393406,-3.89630419578197]]]}},{"type":"Feature","properties":{"id":"22046590002","state":"PI","municipality":"2204659","origin":"face","accuracy":"boa","notes":""},"geometry":{"type":"Polygon","coordinates":[[[-41.8208380335207,-2.83734431982445],[-41.8201587133894,-2.83696760593342],[-41.8203933876165,-2.83756046713896],[-41.819899336612,-2.83739990056246],[-41.8199919711753,-2.83800511304311],[-41.8192632459435,-2.83770868244033],[-41.8198067020486,-2.83827066545809],[-41.8177316878292,-2.84037655786522],[-41.8176452289034,-2.8410620536341],[-41.8169350305843,-2.84080885249425],[-41.8174043790386,-2.84125967403596],[-41.8169103280341,-2.84128437658619],[-41.817175880449,-2.84164256356453],[-41.8167559370951,-2.84164256356453],[-41.8169226793092,-2.84200075054286],[-41.8165583166933,-2.84197604799264],[-41.8167806396454,-2.84217984403204],[-41.8161074951516,-2.84303825765255],[-41.8164903846802,-2.8436249432205],[-41.8121180332894,-2.84291474490139],[-41.812025398726,-2.84322970241683],[-41.8136681183163,-2.84372375342143],[-41.8119389398002,-2.84454511321658],[-41.8114078349703,-2.84510092059677],[-41.811648684835,-2.84566290361452],[-41.8128467585212,-2.84615695461912],[-41.8157987132737,-2.84609519824356],[-41.8168115178331,-2.84375463160922],[-41.8186765603755,-2.84130290349885],[-41.8193929343322,-2.84163021228942],[-41.8196029060092,-2.84125967403596],[-41.8188865320525,-2.84093854088296],[-41.8194979201707,-2.8400739516249],[-41.8205045490926,-2.83918465981661],[-41.821140639761,-2.83977134538458],[-41.821350611438,-2.83954284679494],[-41.8207392233198,-2.83893763431429],[-41.8216470420407,-2.83713434814749],[-41.8208380335207,-2.83734431982445]]]}},{"type":"Feature","properties":{"id":"22062090001","state":"PI","municipality":"2206209","origin":"face","accuracy":"boa","notes":""},"geometry":{"type":"Polygon","coordinates":[[[-42.9065781500615,-4.1568636237572],[-42.9048729859995,-4.15681711801551],[-42.9013036145701,-4.15720082096106],[-42.8940882899426,-4.15882392548372],[-42.8898991938926,-4.15854538745965],[-42.8871955917032,-4.15750235195196],[-42.8841770658189,-4.15948767461647],[-42.8839988058002,-4.16386722099544],[-42.8851396668621,-4.16495173233655],[-42.8860666151821,-4.16712075142152],[-42.8856625605787,-4.16857861271273],[-42.8840522839857,-4.1699712830482],[-42.8843731512998,-4.17060539232495],[-42.8841354712749,-4.17151210679823],[-42.8831669284109,-4.17205732078868],[-42.8835650411936,-4.17314182133795],[-42.8843553249383,-4.17271513259727],[-42.8848603931925,-4.17295810783037],[-42.8848960450164,-4.17353887831655],[-42.8837017066684,-4.17381148441245],[-42.8849614068434,-4.17377592701736],[-42.8853416941638,-4.17435669660423],[-42.8871064625931,-4.17426780401587],[-42.8886989137238,-4.17218769820369],[-42.8882116709318,-4.17209287818371],[-42.8883126845827,-4.17152988549579],[-42.8894416611037,-4.17000091481031],[-42.8899704975404,-4.17151803333053],[-42.8895605002169,-4.16981720040344],[-42.8899110775342,-4.16940236292869],[-42.8909449822251,-4.17049871924047],[-42.8902378866691,-4.1690941976391],[-42.8909687504075,-4.16859046577731],[-42.8923948260603,-4.16929569074348],[-42.8911470095268,-4.16847786616057],[-42.8918778732652,-4.16819340610078],[-42.891557005951,-4.1674644750055],[-42.892305696051,-4.16695481571214],[-42.8922997542302,-4.16642737682197],[-42.8907013612787,-4.16646886074927],[-42.8909390404044,-4.16476801703034],[-42.8921987405794,-4.16373091614883],[-42.8919452387817,-4.16232245371823],[-42.8936149030053,-4.16325833140683],[-42.8936297705974,-4.16408445403425],[-42.8929894937701,-4.16405486454035],[-42.8947281890546,-4.1652197231117],[-42.8961144337341,-4.16495367127487],[-42.8960849152866,-4.1681519500524],[-42.8957099969187,-4.16830816409044],[-42.8975595129611,-4.16826187418609],[-42.8997040569966,-4.16712242236184],[-42.9022982350754,-4.16827415532795],[-42.9028009363141,-4.17012968693548],[-42.9027067017528,-4.17127801776628],[-42.9020807178508,-4.17210604156055],[-42.9034327298366,-4.17293869236672],[-42.9042749925968,-4.17284858749231],[-42.9048396400373,-4.17058876116239],[-42.9072709419004,-4.16772841703279],[-42.907871358976,-4.16608012699625],[-42.9073598992399,-4.15862380474476],[-42.9068584822331,-4.1572480272746],[-42.9065781500615,-4.1568636237572]]]}},{"type":"Feature","properties":{"id":"22075040001","state":"PI","municipality":"2207504","origin":"face","accuracy":"boa","notes":""},"geometry":{"type":"Polygon","coordinates":[[[-43.0599505775899,-5.96334519625082],[-43.059322833192,-5.96397294064869],[-43.0594381331835,-5.96588820161765],[-43.059002555438,-5.96606115160482],[-43.0596174887257,-5.96658000156632],[-43.0596623276113,-5.96726539595992],[-43.0583427832647,-5.96706041819735],[-43.0596367053909,-5.96780346258664],[-43.0595662442851,-5.9685657236412],[-43.0589384998872,-5.96923190136952],[-43.0596110831706,-5.96878351251392],[-43.0608217330808,-5.96939844580162],[-43.0617569441225,-5.96841199031927],[-43.0631021106894,-5.96834152921338],[-43.0620195718808,-5.9679828181289],[-43.0622117385332,-5.96715009596846],[-43.0629804051428,-5.96677216821873],[-43.0622053329781,-5.96672732933317],[-43.0619619218851,-5.96531170166044],[-43.0628394829311,-5.96494017946579],[-43.0619747329952,-5.96495299057594],[-43.0613405830423,-5.96377436844119],[-43.0599505775899,-5.96334519625082]]]}},{"type":"Feature","properties":{"id":"22077020004","state":"PI","municipality":"2207702","origin":"face","accuracy":"boa","notes":""},"geometry":{"type":"Polygon","coordinates":[[[-41.7848597689382,-2.90274249868882],[-41.7819921822713,-2.9005238271082],[-41.7810837011505,-2.90099969817144],[-41.7813988884781,-2.9017351352692],[-41.7823011894552,-2.90190199914852],[-41.7881846862373,-2.90640732389024],[-41.7886049360074,-2.90776077535585],[-41.788073443651,-2.90832316843061],[-41.7869980986509,-2.90873105791342],[-41.7867508929038,-2.90839115001109],[-41.7867632531912,-2.90877431891917],[-41.785823871352,-2.90902770480999],[-41.7858547720704,-2.90844059116052],[-41.7851996768405,-2.90911422682148],[-41.7848659490818,-2.90848385216626],[-41.7849462909497,-2.90925637012609],[-41.7838709459496,-2.90927491055713],[-41.7829315641104,-2.9107828656147],[-41.7824989540529,-2.91057274072963],[-41.7822455681621,-2.91152448285615],[-41.7817820573862,-2.9115368431435],[-41.7822641085931,-2.9117407878849],[-41.7824433327598,-2.91478759871846],[-41.7817635169552,-2.91587530400589],[-41.7834445160358,-2.91918168087398],[-41.785477783306,-2.91853276578771],[-41.78632446299,-2.91748832150604],[-41.786305922559,-2.91623375233928],[-41.7855890258922,-2.91515222719552],[-41.7853974414382,-2.91369989343104],[-41.7856446471854,-2.91122165581589],[-41.788901582904,-2.91014013067215],[-41.7892785716684,-2.90735906601675],[-41.7890869872144,-2.9059005521086],[-41.7881352450879,-2.90423191331537],[-41.7848597689382,-2.90274249868882]]]}},{"type":"Feature","properties":{"id":"22083040002","state":"PI","municipality":"2208304","origin":"face","accuracy":"boa","notes":""},"geometry":{"type":"Polygon","coordinates":[[[-41.7165915863326,-3.93685552706085],[-41.715866664415,-3.93784549627261],[-41.7158072453081,-3.93898366206629],[-41.7150526133873,-3.93926227563344],[-41.7129372676408,-3.93866948121156],[-41.7120400284246,-3.93623901931522],[-41.7114993083463,-3.93578256571277],[-41.7092770071282,-3.93541503167831],[-41.7085877379337,-3.93449026781155],[-41.7076845568968,-3.93417015682724],[-41.7062763067062,-3.93414644530219],[-41.7057118184456,-3.93565215052627],[-41.705408777493,-3.93550987957724],[-41.7051710983674,-3.93617973960324],[-41.7034716917651,-3.93705707772193],[-41.7022654697756,-3.93902515768486],[-41.7034182135796,-3.94015146681671],[-41.704256033689,-3.94025816957885],[-41.7061634094138,-3.93923263577745],[-41.7095741062599,-3.93870504849911],[-41.7147971079002,-3.94218474672862],[-41.7150882652112,-3.94332883455803],[-41.7153497125192,-3.94221438568532],[-41.7161281117229,-3.94194170134843],[-41.7173343337125,-3.94334661865152],[-41.7182909929349,-3.94155045848682],[-41.7200914131881,-3.94131926976843],[-41.7184157747682,-3.94119478291289],[-41.718094907454,-3.93936305096401],[-41.7185464984221,-3.93798776722161],[-41.7165915863326,-3.93685552706085]]]}},{"type":"Feature","properties":{"id":"22085020005","state":"PI","municipality":"2208502","origin":"face","accuracy":"boa","notes":""},"geometry":{"type":"Polygon","coordinates":[[[-42.7168733734074,-3.8877399267562],[-42.716267290603,-3.88874773851729],[-42.7144728130698,-3.88891373088393],[-42.7141044093909,-3.88856988948875],[-42.7137716584352,-3.88909157991242],[-42.7115374735755,-3.88859360281249],[-42.7121079045561,-3.8891271489987],[-42.7123336991408,-3.89111905470055],[-42.7137003547875,-3.89136804280087],[-42.7142351330449,-3.89107162895249],[-42.7149719395033,-3.89197272715961],[-42.7194403092229,-3.89277897297121],[-42.7194521928644,-3.89373935268897],[-42.7186203154751,-3.89381049176075],[-42.718501476362,-3.89493686114719],[-42.7211991358314,-3.89462859153623],[-42.7216269586172,-3.89183044901597],[-42.7207000093979,-3.88661354747718],[-42.7201533465996,-3.88604442860742],[-42.7168733734074,-3.8877399267562]]]}},{"type":"Feature","properties":{"id":"22110010015","state":"PI","municipality":"2211001","origin":"face","accuracy":"boa","notes":""},"geometry":{"type":"Polygon","coordinates":[[[-42.8043789193516,-5.07370746163002],[-42.8043313829869,-5.07292619268958],[-42.8051573185554,-5.07153529491786],[-42.8049255812505,-5.0709256669859],[-42.8037490692641,-5.07034563124586],[-42.8022160381396,-5.07249412690239],[-42.8026260345638,-5.07344703864988],[-42.8036599392548,-5.07396196527241],[-42.8043789193516,-5.07370746163002]]]}},{"type":"Feature","properties":{"id":"22110010011","state":"PI","municipality":"2211001","origin":"face","accuracy":"boa","notes":""},"geometry":{"type":"Polygon","coordinates":[[[-42.7900088727113,-5.10877536019468],[-42.7899688978463,-5.10933335265208],[-42.7895988753878,-5.10921332013856],[-42.7890759816711,-5.10797637910656],[-42.7884580152252,-5.10805923634463],[-42.7887372879954,-5.1098761771438],[-42.790080176359,-5.11089413505625],[-42.7906862582641,-5.11059821763361],[-42.7900088727113,-5.10877536019468]]]}},{"type":"Feature","properties":{"id":"22110010023","state":"PI","municipality":"2211001","origin":"face","accuracy":"boa","notes":""},"geometry":{"type":"Polygon","coordinates":[[[-42.8291453932453,-5.05616742258843],[-42.8288780041166,-5.055137540565],[-42.8278797512495,-5.0552499989882],[-42.827053815681,-5.05433849292707],[-42.8259961428077,-5.05434441136543],[-42.825663391852,-5.05619701747833],[-42.8296326360373,-5.05632131367764],[-42.8291453932453,-5.05616742258843]]]}},{"type":"Feature","properties":{"id":"22110010017","state":"PI","municipality":"2211001","origin":"face","accuracy":"boa","notes":""},"geometry":{"type":"Polygon","coordinates":[[[-42.8271156818432,-5.0344822076877],[-42.8252023642976,-5.03377192043774],[-42.8235386095192,-5.03650060292045],[-42.8238535341133,-5.03638814089995],[-42.8247745415118,-5.03735886282123],[-42.8243823705499,-5.03862553454075],[-42.8227483257746,-5.04046634694431],[-42.8243110669022,-5.0452133698011],[-42.8248814969834,-5.04591180668451],[-42.8262006171647,-5.04640308023789],[-42.8267472790636,-5.04720805620678],[-42.8270503200162,-5.04950460185587],[-42.8286546556878,-5.05040427733547],[-42.8302352222776,-5.05300859347177],[-42.8313486845941,-5.05370056602824],[-42.831453328808,-5.05471914986884],[-42.8327665062692,-5.05490263494859],[-42.8335983836584,-5.05406215464466],[-42.8348877938366,-5.05499733715734],[-42.8402355764107,-5.05505652513847],[-42.8406336891933,-5.04404733401721],[-42.8393442799145,-5.0348906222044],[-42.8330220117564,-5.03576072257926],[-42.833746933674,-5.03749500039392],[-42.8322139016502,-5.03828223094018],[-42.8325585371467,-5.03868472432055],[-42.8320237588893,-5.03911681259081],[-42.8330576635803,-5.03959033352704],[-42.8345253328778,-5.04481088091739],[-42.8338004109602,-5.04921457409332],[-42.8341569300982,-5.05219770535979],[-42.8333666463536,-5.05263570307516],[-42.8316910079336,-5.05041019577386],[-42.8309957960191,-5.04747440841716],[-42.8316791233928,-5.04699497443846],[-42.83109680967,-5.04391119734384],[-42.8301758022714,-5.04420714624273],[-42.8299737749697,-5.04366260044862],[-42.8281674128958,-5.0427155639721],[-42.828250600185,-5.03922927371196],[-42.8296053721901,-5.03995139334212],[-42.8301104404444,-5.03931213994326],[-42.8291537821213,-5.0378560611083],[-42.8284942220306,-5.03771992353559],[-42.828226832902,-5.03632895022082],[-42.8275256791667,-5.03602707928623],[-42.8275969828144,-5.03531679383492],[-42.8271156818432,-5.0344822076877]]]}},{"type":"Feature","properties":{"id":"22110010014","state":"PI","municipality":"2211001","origin":"face","accuracy":"boa","notes":""},"geometry":{"type":"Polygon","coordinates":[[[-42.807011216994,-5.06623802006851],[-42.8063575987241,-5.06601310681937],[-42.8036658810755,-5.07032195659299],[-42.8060902095955,-5.07100261028218],[-42.8055554313381,-5.06963538356604],[-42.8080688898673,-5.06958211492264],[-42.8083541044583,-5.06892513498697],[-42.8071181724657,-5.06779465390014],[-42.8071181724657,-5.06671743965809],[-42.807011216994,-5.06623802006851]]]}},{"type":"Feature","properties":{"id":"22110010018","state":"PI","municipality":"2211001","origin":"face","accuracy":"boa","notes":""},"geometry":{"type":"Polygon","coordinates":[[[-42.7905092105316,-5.08057491500029],[-42.7878828547099,-5.08224396858425],[-42.7865161990633,-5.08243928334623],[-42.7831055013178,-5.08578329366402],[-42.7822557984663,-5.08573594525764],[-42.7806811727979,-5.0869729294571],[-42.778773797073,-5.08713864932919],[-42.7768248277036,-5.08915688088531],[-42.7765158440309,-5.09016303429655],[-42.7733725363135,-5.08998547844704],[-42.7660341889267,-5.09047671782624],[-42.7654697006661,-5.09303352367811],[-42.7657667997979,-5.09310454583805],[-42.7662183907661,-5.09212798911534],[-42.7671156299823,-5.09342414600748],[-42.7695043066783,-5.094448049338],[-42.7700687949389,-5.09622951727835],[-42.7723802252671,-5.09702851365494],[-42.7756067211732,-5.09907630592677],[-42.7769614931783,-5.09938998495978],[-42.7781082951616,-5.0977624054106],[-42.7791897362173,-5.09723566079708],[-42.7809069682819,-5.09109816464854],[-42.7817091356681,-5.08971322488537],[-42.7839552050686,-5.08857094289465],[-42.7884770529736,-5.08861237286267],[-42.7905151523524,-5.0877956112784],[-42.7918639816374,-5.08663557037522],[-42.7946032356507,-5.08237417782602],[-42.7921194871246,-5.08139760491548],[-42.7905092105316,-5.08057491500029]]]}},{"type":"Feature","properties":{"id":"22110010019","state":"PI","municipality":"2211001","origin":"face","accuracy":"boa","notes":""},"geometry":{"type":"Polygon","coordinates":[[[-42.8188377776413,-5.02117555720617],[-42.8149517225439,-5.0200449933817],[-42.8153438926065,-5.01734583744043],[-42.8110894347296,-5.01731624165121],[-42.806062517671,-5.01923406390087],[-42.8000908268302,-5.02399308011651],[-42.7975298328355,-5.02475665039908],[-42.7973991091815,-5.02554981557148],[-42.801867478901,-5.02563268360142],[-42.8036263055096,-5.02377407181593],[-42.8084571361878,-5.02174379833759],[-42.8084452525463,-5.02131761771387],[-42.8115291411569,-5.02175563701298],[-42.8127115949641,-5.02250145198038],[-42.8133057932277,-5.0235432248399],[-42.8177147438403,-5.02111044629004],[-42.8185882148742,-5.02143008243229],[-42.8138346296643,-5.02420025064101],[-42.8138346296644,-5.02565636005295],[-42.8143634661011,-5.02661525948657],[-42.8164075073006,-5.02769254027845],[-42.8189982112984,-5.02715390033216],[-42.8200737096339,-5.02740250352269],[-42.8209352970263,-5.02873430414479],[-42.8227476018203,-5.02835548181998],[-42.822593109984,-5.02662709816203],[-42.8236686083196,-5.02211670582125],[-42.8233774519078,-5.02138272863],[-42.8229318027604,-5.02060139673706],[-42.8201153041778,-5.01925774125169],[-42.8191289349523,-5.02049485135626],[-42.8188377776413,-5.02117555720617]]]}},{"type":"Feature","properties":{"id":"22110010013","state":"PI","municipality":"2211001","origin":"face","accuracy":"boa","notes":""},"geometry":{"type":"Polygon","coordinates":[[[-42.7793575623016,-5.10939025005996],[-42.7795774159649,-5.11246779575214],[-42.7792743750123,-5.1140361540452],[-42.7832970964837,-5.11629103320458],[-42.7833743419523,-5.11700714806136],[-42.7841230311529,-5.11680592565291],[-42.7868088069808,-5.11873528890244],[-42.7876941625555,-5.1186405965862],[-42.7888469063596,-5.11919691540529],[-42.7906354429713,-5.12103749758239],[-42.7911405112256,-5.12009057531976],[-42.7915148558259,-5.1204219979768],[-42.7920615186241,-5.1188418180954],[-42.7902076201855,-5.11769367072628],[-42.7885141554039,-5.11726163461669],[-42.7875040188953,-5.11620817686583],[-42.7858343222961,-5.11576430387949],[-42.7859591041293,-5.11527308338606],[-42.7870464861064,-5.11567552910236],[-42.7872782234112,-5.11523757365507],[-42.7879972035081,-5.11517247173215],[-42.7880922753382,-5.11458064048412],[-42.7845211439356,-5.11405390936039],[-42.784479550291,-5.11443860066083],[-42.7830059391727,-5.11427288708404],[-42.7820908735949,-5.11341472970595],[-42.7812471125641,-5.1110118814931],[-42.7807420443099,-5.11086984077048],[-42.7793575623016,-5.10939025005996]]]}},{"type":"Feature","properties":{"id":"22110010021","state":"PI","municipality":"2211001","origin":"face","accuracy":"boa","notes":""},"geometry":{"type":"Polygon","coordinates":[[[-42.810904710384,-5.0613862981391],[-42.8085576282319,-5.06127975905362],[-42.8063769206583,-5.06602662992497],[-42.8077198081226,-5.06654748128121],[-42.8087061773481,-5.06500860096611],[-42.8105006557806,-5.0635999298928],[-42.8109344203871,-5.06207288015924],[-42.810904710384,-5.0613862981391]]]}},{"type":"Feature","properties":{"id":"22110010016","state":"PI","municipality":"2211001","origin":"face","accuracy":"boa","notes":""},"geometry":{"type":"Polygon","coordinates":[[[-42.809521594446,-5.05395281147304],[-42.8087016006983,-5.05031860881674],[-42.8090105834716,-5.04945444666532],[-42.8079113169536,-5.04870866227492],[-42.8071982795769,-5.04752487567242],[-42.8064079958323,-5.04766101144646],[-42.8057840884649,-5.04838312118403],[-42.8080182733246,-5.05248492723757],[-42.8084104433872,-5.05458021180727],[-42.809260147138,-5.05458021180726],[-42.809521594446,-5.05395281147304]]]}},{"type":"Feature","properties":{"id":"22110010025","state":"PI","municipality":"2211001","origin":"face","accuracy":"boa","notes":""},"geometry":{"type":"Polygon","coordinates":[[[-42.8330355267681,-5.06622842430227],[-42.8317639429516,-5.06640006890802],[-42.831811478417,-5.06707480775613],[-42.8314074238135,-5.06715767039015],[-42.831906550247,-5.06742401450663],[-42.8315322056468,-5.06896880786418],[-42.8325066903314,-5.06905167049815],[-42.8330474104096,-5.06680846363964],[-42.8330355267681,-5.06622842430227]]]}},{"type":"Feature","properties":{"id":"22110010012","state":"PI","municipality":"2211001","origin":"face","accuracy":"boa","notes":""},"geometry":{"type":"Polygon","coordinates":[[[-42.7877001043762,-5.10636003658635],[-42.7882705344576,-5.10566166535352],[-42.7901719683616,-5.10498104853652],[-42.7903383438394,-5.10355471028163],[-42.7890013981959,-5.10353695496644],[-42.7878130016687,-5.10409328637605],[-42.7875396707192,-5.10482125159945],[-42.7863631587327,-5.10498696697489],[-42.7844023048225,-5.10424716487472],[-42.7837546283734,-5.10640146565511],[-42.7849549085422,-5.1067565692602],[-42.7877001043762,-5.10636003658635]]]}},{"type":"Feature","properties":{"id":"22110010028","state":"PI","municipality":"2211001","origin":"face","accuracy":"boa","notes":""},"geometry":{"type":"Polygon","coordinates":[[[-42.8034273790702,-5.06202736187323],[-42.8017841153446,-5.06228995851473],[-42.800430838912,-5.0655811651386],[-42.800430838912,-5.06727052811233],[-42.8010986889533,-5.06937128415741],[-42.8032692036108,-5.06975642242095],[-42.8065117946836,-5.0637079807387],[-42.8034273790702,-5.06202736187323]]]}},{"type":"Feature","properties":{"id":"22110010006","state":"PI","municipality":"2211001","origin":"face","accuracy":"boa","notes":""},"geometry":{"type":"Polygon","coordinates":[[[-42.7227267674263,-5.10594095071428],[-42.7204688143842,-5.10374521996591],[-42.7197736024697,-5.10593503227585],[-42.7225663337692,-5.10652687251712],[-42.7227267674263,-5.10594095071428]]]}},{"type":"Feature","properties":{"id":"22110010001","state":"PI","municipality":"2211001","origin":"face","accuracy":"boa","notes":""},"geometry":{"type":"Polygon","coordinates":[[[-42.7412690487276,-5.03958314614522],[-42.7415661478594,-5.03800276841298],[-42.7404015195145,-5.03765354547473],[-42.7400005199081,-5.03927728132141],[-42.7394401118716,-5.03938690598091],[-42.7409719495957,-5.0412463865115],[-42.741607741504,-5.03977847349774],[-42.7412690487276,-5.03958314614522]]]}},{"type":"Feature","properties":{"id":"22111000003","state":"PI","municipality":"2211100","origin":"face","accuracy":"boa","notes":""},"geometry":{"type":"Polygon","coordinates":[[[-42.8533266081364,-4.59135939801776],[-42.852726468052,-4.58833870566667],[-42.8543902228305,-4.58731995994816],[-42.8537742079133,-4.58703749098737],[-42.8536534172713,-4.58618275283176],[-42.8529225535329,-4.58662697475502],[-42.8520134306752,-4.58604060239186],[-42.8507061950348,-4.58733772875314],[-42.850670543211,-4.58975428623127],[-42.8511340169213,-4.59103956042731],[-42.8523996589171,-4.59216491357983],[-42.8533266081364,-4.59135939801776]]]}},{"type":"Feature","properties":{"id":"22111000004","state":"PI","municipality":"2211100","origin":"face","accuracy":"boa","notes":""},"geometry":{"type":"Polygon","coordinates":[[[-42.8562301727842,-4.59735180204399],[-42.8542871452355,-4.59575262668233],[-42.8525342604477,-4.5954091000499],[-42.8508839073664,-4.5958215741063],[-42.8522190417753,-4.59576234115907],[-42.852623390457,-4.59712081027716],[-42.8543346807009,-4.59770717364711],[-42.8556300326998,-4.59941295554341],[-42.8564381419067,-4.59943072344907],[-42.8565629237399,-4.59840607098334],[-42.8562301727842,-4.59735180204399]]]}},{"type":"Feature","properties":{"id":"22111000005","state":"PI","municipality":"2211100","origin":"face","accuracy":"boa","notes":""},"geometry":{"type":"Polygon","coordinates":[[[-42.8632360291194,-4.59700675285935],[-42.8636103737197,-4.59766419054989],[-42.864887899357,-4.59773526487055],[-42.8638480528453,-4.60002740833819],[-42.8649592039041,-4.59998002575754],[-42.8663852786576,-4.59883691639055],[-42.8675142551787,-4.59998594869252],[-42.8693503281551,-4.60327311736046],[-42.8702297410097,-4.60272821903205],[-42.8687204780676,-4.59963650092373],[-42.8720776967283,-4.59749242723372],[-42.8756725954139,-4.59655661429629],[-42.8765401255263,-4.59594655918631],[-42.8751081080527,-4.59196045271267],[-42.8717390039518,-4.59368401690382],[-42.8720955230899,-4.5930561902909],[-42.8751972371627,-4.5915754637366],[-42.8735691342082,-4.58706219086736],[-42.8701881473651,-4.5812458309303],[-42.8693146754319,-4.58230604708637],[-42.8695345290952,-4.58395855854059],[-42.8691126481302,-4.58442647400251],[-42.8697959764032,-4.58492400324013],[-42.8692968499696,-4.58520830501921],[-42.8697662664,-4.58674235147828],[-42.8695167036329,-4.58860215576482],[-42.8664031050192,-4.58830008608004],[-42.866189194076,-4.58864361630981],[-42.8663793368369,-4.59048564729472],[-42.8677043988389,-4.59323387654213],[-42.8667120877926,-4.59396831598498],[-42.865309780322,-4.59411638846052],[-42.8656722412809,-4.59577479587013],[-42.8637054455498,-4.59450137563794],[-42.8608354687818,-4.59447768389795],[-42.8599501132071,-4.59510551051084],[-42.8597599695469,-4.59638485187935],[-42.8605443114707,-4.59726735840185],[-42.8632360291194,-4.59700675285935]]]}},{"type":"Feature","properties":{"id":"22111000001","state":"PI","municipality":"2211100","origin":"face","accuracy":"boa","notes":""},"geometry":{"type":"Polygon","coordinates":[[[-42.8672926532333,-4.57374336536396],[-42.8660210694168,-4.57069890662922],[-42.8655694784486,-4.57057452139703],[-42.8604890850032,-4.57388551850182],[-42.8608753132451,-4.57578089457258],[-42.8581657701341,-4.57802572470741],[-42.8599127122019,-4.58053708242041],[-42.8619626961215,-4.57864171894012],[-42.862176607964,-4.5779664944581],[-42.8651416565622,-4.57579866427687],[-42.865593246631,-4.57700696370034],[-42.865331799323,-4.57730903788173],[-42.8662944003663,-4.57726757733678],[-42.8665974413189,-4.57794872475381],[-42.8670074386424,-4.57795464768879],[-42.8669004822714,-4.57840479794305],[-42.8678511996731,-4.57813233843662],[-42.8676788823745,-4.57620143105118],[-42.8672926532333,-4.57374336536396]]]}},{"type":"Feature","properties":{"id":"22012000005","state":"PI","municipality":"2201200","origin":"face","accuracy":"otima","notes":""},"geometry":{"type":"Polygon","coordinates":[[[-42.2928522945763,-4.26015107969983],[-42.2930300590929,-4.26222237617323],[-42.2962017523107,-4.26349127576095],[-42.2975677322806,-4.26321137162022],[-42.2983442825375,-4.26253027111859],[-42.2989711363593,-4.26103744599072],[-42.2991676129303,-4.25658694388414],[-42.2987840158155,-4.2533166948033],[-42.297609834403,-4.24888014354787],[-42.2972543053698,-4.24939797576763],[-42.2970671848259,-4.24902476339198],[-42.2958649353318,-4.24896878152005],[-42.2953316417819,-4.25035433165569],[-42.2951866233605,-4.2524583104329],[-42.2956115380871,-4.25243610564528],[-42.2952755056188,-4.2529154935319],[-42.2935539966156,-4.2531674106337],[-42.2926792080733,-4.25223438391839],[-42.2902700310715,-4.25278953495012],[-42.2889976113736,-4.25352662561788],[-42.291224345845,-4.25720273816281],[-42.2928522945763,-4.26015107969983]]]}},{"type":"Feature","properties":{"id":"22012000003","state":"PI","municipality":"2201200","origin":"face","accuracy":"otima","notes":""},"geometry":{"type":"Polygon","coordinates":[[[-42.2929166172632,-4.2514343126103],[-42.2936089632754,-4.25111708294041],[-42.2931692299974,-4.25058525643623],[-42.2927762768554,-4.24728232572341],[-42.2922897634414,-4.24713304038534],[-42.2926359364475,-4.24697442468203],[-42.2920371507073,-4.24610670290434],[-42.2921494230336,-4.24519232836242],[-42.2912606004504,-4.2445485333923],[-42.290652458683,-4.24153481936539],[-42.287101846364,-4.24025655321225],[-42.2876257838867,-4.23981335824892],[-42.2866480790452,-4.23912757185131],[-42.2867977754803,-4.23757871871187],[-42.2865545187733,-4.23650571622387],[-42.2859744450875,-4.23596454918696],[-42.2808660542411,-4.23588990541576],[-42.2797620430326,-4.24018190986373],[-42.279144545238,-4.2406764218873],[-42.2781434503285,-4.24400737198756],[-42.2795187863256,-4.24442723862765],[-42.2816332484708,-4.24781881966857],[-42.2848797899061,-4.25004876441557],[-42.286928759861,-4.25226004216816],[-42.2880421270967,-4.25249329894516],[-42.288790609272,-4.25347764176626],[-42.2930429236303,-4.25191948714697],[-42.2929166172632,-4.2514343126103]]]}},{"type":"Feature","properties":{"id":"22012000002","state":"PI","municipality":"2201200","origin":"face","accuracy":"otima","notes":""},"geometry":{"type":"Polygon","coordinates":[[[-42.3026655975963,-4.23670632115],[-42.3053507774002,-4.23808722806666],[-42.305781154651,-4.2376953493274],[-42.3050794526116,-4.23650105099241],[-42.3053694894546,-4.23592256207346],[-42.3058372908141,-4.23509214980455],[-42.3073716792735,-4.23425240615438],[-42.3042561222188,-4.23259157714101],[-42.3014586700887,-4.23446234215233],[-42.3010657169467,-4.23414510551118],[-42.3004575751793,-4.2345089945886],[-42.2987267101489,-4.23365991980848],[-42.298782846312,-4.23459296896679],[-42.2996529568408,-4.23550735605042],[-42.2991196632909,-4.23569863076487],[-42.2996810249224,-4.23615582378364],[-42.2992085455493,-4.23685560849961],[-42.2997839412215,-4.2378399712662],[-42.2976133429132,-4.23884765886305],[-42.2971034394313,-4.23849776747323],[-42.2970800493633,-4.23962208454949],[-42.2961163785626,-4.23990199725623],[-42.2955456609039,-4.24175874898544],[-42.2960134622635,-4.24228125117976],[-42.2971923216896,-4.24180540098145],[-42.2976788351035,-4.24208531289831],[-42.297117473472,-4.24549089976051],[-42.2990635271278,-4.24388607713792],[-42.2998213653303,-4.24232790314422],[-42.2998868575206,-4.24073240436059],[-42.3026655975963,-4.23670632115]]]}},{"type":"Feature","properties":{"id":"22022080005","state":"PI","municipality":"2202208","origin":"face","accuracy":"otima","notes":""},"geometry":{"type":"Polygon","coordinates":[[[-42.1768828135909,-4.82200283046622],[-42.1770907827134,-4.82094890057125],[-42.1765975989999,-4.82034496264987],[-42.173816751342,-4.82125679066833],[-42.1738761713482,-4.82410476462316],[-42.1744763114326,-4.82566788886192],[-42.1758073152553,-4.82665076062403],[-42.1774532436722,-4.82640800302688],[-42.1817968324578,-4.82227519374516],[-42.1816601669831,-4.82118573883076],[-42.1804777122766,-4.82124494839559],[-42.1768828135909,-4.82200283046622]]]}},{"type":"Feature","properties":{"id":"22022080006","state":"PI","municipality":"2202208","origin":"face","accuracy":"otima","notes":""},"geometry":{"type":"Polygon","coordinates":[[[-42.1718974910763,-4.82196138341108],[-42.172717484824,-4.82506395543716],[-42.1726402393555,-4.82554947063152],[-42.1720638665541,-4.82575078207289],[-42.1724916893399,-4.82682246728297],[-42.1739950104613,-4.8277046815258],[-42.1750586251554,-4.82942766205691],[-42.1767164381131,-4.82950463323221],[-42.1770967254335,-4.82865794670682],[-42.1776790391563,-4.82841519000898],[-42.1779999064705,-4.82931516496285],[-42.1792655484662,-4.82983028224169],[-42.1801509031416,-4.82960528805354],[-42.1804064086288,-4.82866978808024],[-42.1809887232509,-4.82884149383983],[-42.1812026341942,-4.82945726594006],[-42.1825276961962,-4.82919674763174],[-42.1827297234979,-4.82964081397235],[-42.1831634881045,-4.82873491788213],[-42.1845242019303,-4.82938029476476],[-42.1856115848068,-4.82911385442082],[-42.1856175266275,-4.82488632764188],[-42.1822781325298,-4.82247650608581],[-42.1808461150561,-4.82275479050111],[-42.1773878818452,-4.82655602603974],[-42.176009342557,-4.82661523560461],[-42.1740960250115,-4.82480935556726],[-42.1737395058735,-4.82148770779144],[-42.1718974910763,-4.82196138341108]]]}},{"type":"Feature","properties":{"id":"22039090001","state":"PI","municipality":"2203909","origin":"face","accuracy":"otima","notes":""},"geometry":{"type":"Polygon","coordinates":[[[-43.0403163224828,-6.76736027445921],[-43.0400187323449,-6.76266342129568],[-43.0283019121277,-6.76365372546097],[-43.0232175389145,-6.76347990215727],[-43.0270165760001,-6.7649143954455],[-43.0302140870564,-6.76463459615695],[-43.0304198674709,-6.76501499739728],[-43.0311923354885,-6.76503386026089],[-43.0336965248405,-6.76460630183786],[-43.03492170977,-6.76592355782504],[-43.0347285927656,-6.76858635310755],[-43.0386985718395,-6.76890387553195],[-43.0399079275063,-6.7685800655327],[-43.040484112667,-6.76870267322786],[-43.0405031077821,-6.76973069036986],[-43.0420986974578,-6.77001991803963],[-43.0419593999464,-6.76858635310755],[-43.0403163224828,-6.76736027445921]]]}},{"type":"Feature","properties":{"id":"22039090002","state":"PI","municipality":"2203909","origin":"face","accuracy":"otima","notes":""},"geometry":{"type":"Polygon","coordinates":[[[-43.0174335403888,-6.76234903859649],[-43.0125138055556,-6.7610223413532],[-43.01104932528,-6.76105026599864],[-43.0124115597554,-6.76167769432203],[-43.011836313114,-6.76383921077735],[-43.0126974250024,-6.76449312454488],[-43.0178261061026,-6.76497098404596],[-43.0184909351341,-6.76630395805014],[-43.0207956757767,-6.76648629854769],[-43.0211882414905,-6.76287720141425],[-43.0174335403888,-6.76234903859649]]]}},{"type":"Feature","properties":{"id":"22039090003","state":"PI","municipality":"2203909","origin":"face","accuracy":"otima","notes":""},"geometry":{"type":"Polygon","coordinates":[[[-43.0070622074972,-6.75895683626375],[-43.0057388811392,-6.76009490865295],[-43.005963656669,-6.76350753783097],[-43.0047796278224,-6.76381877595785],[-43.0072403540681,-6.76549891590878],[-43.0085596557444,-6.76373074903322],[-43.0103436136456,-6.76314757025231],[-43.0111888962714,-6.76101133792482],[-43.0070622074972,-6.75895683626375]]]}},{"type":"Feature","properties":{"id":"22046590003","state":"PI","municipality":"2204659","origin":"face","accuracy":"otima","notes":""},"geometry":{"type":"Polygon","coordinates":[[[-41.815669024885,-2.84835548158963],[-41.8117845488613,-2.84755882434469],[-41.8149773534785,-2.85085043916289],[-41.8151687982428,-2.85162856949515],[-41.815249081531,-2.8509801275516],[-41.8168423960209,-2.85146800291866],[-41.8173487983006,-2.84920154393501],[-41.815669024885,-2.84835548158963]]]}},{"type":"Feature","properties":{"id":"22046590001","state":"PI","municipality":"2204659","origin":"face","accuracy":"otima","notes":""},"geometry":{"type":"Polygon","coordinates":[[[-41.8245063622299,-2.82849463120443],[-41.8230427361287,-2.82963712415257],[-41.8221163904951,-2.83105752079083],[-41.8220299315693,-2.83415769084473],[-41.8229501015654,-2.83544222345671],[-41.8224189967354,-2.83632533962745],[-41.8268098750389,-2.83308930554727],[-41.829934747643,-2.83335485796224],[-41.831274860993,-2.83069315817492],[-41.8245063622299,-2.82849463120443]]]}},{"type":"Feature","properties":{"id":"22046590004","state":"PI","municipality":"2204659","origin":"face","accuracy":"otima","notes":""},"geometry":{"type":"Polygon","coordinates":[[[-41.8096230757161,-2.84863338527972],[-41.8084805827679,-2.84897922098293],[-41.8071651719682,-2.84749089233157],[-41.8061585430463,-2.84718828609125],[-41.8067452286143,-2.84954737963825],[-41.8077580331737,-2.85047372527187],[-41.8063932172735,-2.85077015587465],[-41.8062758801599,-2.85136301708017],[-41.8105432457122,-2.85361712478869],[-41.8139645489191,-2.85415440525621],[-41.8146685716007,-2.85275871116817],[-41.8145327075744,-2.85223995761336],[-41.8109755403412,-2.85096777627649],[-41.8090302145106,-2.85091837117602],[-41.8088696479341,-2.85039961762117],[-41.8099380332315,-2.84998584990482],[-41.8098206961179,-2.84912126064677],[-41.8096230757161,-2.84863338527972]]]}},{"type":"Feature","properties":{"id":"22058050001","state":"PI","municipality":"2205805","origin":"face","accuracy":"otima","notes":""},"geometry":{"type":"Polygon","coordinates":[[[-42.3710017749119,-3.45357635846204],[-42.3670622416291,-3.45362973952082],[-42.3642932785119,-3.45307220751625],[-42.3634079229373,-3.45376615678264],[-42.3624156118909,-3.45580648378212],[-42.3621066291176,-3.45817302006878],[-42.362160107303,-3.46090135091652],[-42.3627364792051,-3.46316111429383],[-42.3637169057105,-3.46428209674135],[-42.3655054423223,-3.46347546422124],[-42.3656302241555,-3.46375422707583],[-42.3668067361419,-3.46248496440957],[-42.3675791935249,-3.46239599807677],[-42.3672405007484,-3.46205792313457],[-42.3680129590308,-3.45871868731752],[-42.3696767138092,-3.45647670623492],[-42.3696707710891,-3.45543875099755],[-42.3717385804711,-3.45615049155186],[-42.3722733596278,-3.45703423644068],[-42.3725882842218,-3.45679105886017],[-42.3730517588315,-3.45727741402142],[-42.3724040823824,-3.45768073387865],[-42.3731171206585,-3.45750872954415],[-42.3732597279541,-3.45790018644436],[-42.3726536460489,-3.45815522698212],[-42.3726358196873,-3.45829757437344],[-42.3733013215986,-3.45799508560463],[-42.3734023352495,-3.45863565111434],[-42.372867556992,-3.45902117608637],[-42.3733785679665,-3.45898558901353],[-42.3731230624792,-3.46013623290071],[-42.3736400152744,-3.46218840846826],[-42.3705145330192,-3.46710530696424],[-42.3684170136342,-3.46758572659996],[-42.36800107449,-3.4692879516776],[-42.3681258563232,-3.47002340645491],[-42.3682149863325,-3.46935912492364],[-42.3714771340624,-3.47053348033581],[-42.3738836362208,-3.46939471109692],[-42.3760286910712,-3.46641729861938],[-42.3771398421299,-3.46172577922126],[-42.3769853502936,-3.45711134161509],[-42.3753928991629,-3.45384919388511],[-42.3722210825929,-3.4531689426566],[-42.3710017749119,-3.45357635846204]]]}},{"type":"Feature","properties":{"id":"22075040002","state":"PI","municipality":"2207504","origin":"face","accuracy":"otima","notes":""},"geometry":{"type":"Polygon","coordinates":[[[-43.0629419718123,-5.97399763434921],[-43.0615263441396,-5.97499690094173],[-43.0613597997075,-5.97445242875991],[-43.0612252830509,-5.97507376760269],[-43.0606231608733,-5.97476630095883],[-43.0603861553353,-5.97515703981872],[-43.058605411023,-5.97546450646259],[-43.0579712610701,-5.97575916199626],[-43.0583235665995,-5.97583602865725],[-43.0581634277225,-5.97637409528397],[-43.059316427637,-5.97637409528397],[-43.0595662442851,-5.97769363963049],[-43.0614046385931,-5.97739257854172],[-43.0610373867685,-5.97581894717702],[-43.0617761607878,-5.97593211198344],[-43.0632174106808,-5.97429869543798],[-43.0629419718123,-5.97399763434921]]]}},{"type":"Feature","properties":{"id":"22075040003","state":"PI","municipality":"2207504","origin":"face","accuracy":"otima","notes":""},"geometry":{"type":"Polygon","coordinates":[[[-43.0679297640348,-5.9785946877118],[-43.0673404529674,-5.97697194709146],[-43.0664009715557,-5.97587873235767],[-43.0665547048776,-5.97658761378659],[-43.0630359199535,-5.97737336187647],[-43.0626601273888,-5.97710859893319],[-43.0627711570102,-5.97747585075769],[-43.0623099570444,-5.97760396185931],[-43.0618402163385,-5.97721962855457],[-43.0619768681803,-5.97774915444121],[-43.0563570611898,-5.97914983581864],[-43.0554261205182,-5.97957687282408],[-43.0544866391064,-5.98116545048395],[-43.0551955205353,-5.98207076893527],[-43.0558019130829,-5.98176330229149],[-43.0567840981952,-5.98322376884977],[-43.0672118995102,-5.9790890563151],[-43.0679297640348,-5.9785946877118]]]}},{"type":"Feature","properties":{"id":"22077020003","state":"PI","municipality":"2207702","origin":"face","accuracy":"otima","notes":""},"geometry":{"type":"Polygon","coordinates":[[[-41.7473710173836,-2.91344032739653],[-41.7464192752571,-2.91362573170687],[-41.7462771319525,-2.91112895366073],[-41.7445837725846,-2.91424374607476],[-41.7440337397972,-2.91429936736785],[-41.744132622096,-2.91581968271279],[-41.7450102024984,-2.91595564587373],[-41.7460361063491,-2.91695682914966],[-41.747228874079,-2.9166601822531],[-41.7484710829584,-2.9177540676842],[-41.7495526081022,-2.91806307486815],[-41.7495835088206,-2.91745742078764],[-41.7480261126136,-2.91604216788523],[-41.7482424176423,-2.91454039297131],[-41.7479457707458,-2.91391001831611],[-41.7473710173836,-2.91344032739653]]]}},{"type":"Feature","properties":{"id":"22077020001","state":"PI","municipality":"2207702","origin":"face","accuracy":"otima","notes":""},"geometry":{"type":"Polygon","coordinates":[[[-41.7734759442822,-2.89931869909087],[-41.7739270947707,-2.89907767348738],[-41.773920914627,-2.89841021797011],[-41.7745636495696,-2.89823717394711],[-41.7747057928742,-2.89866360386092],[-41.7747923148857,-2.89815065193561],[-41.7750580610639,-2.89855236127471],[-41.774959178765,-2.89806412992411],[-41.7765845565525,-2.89732251268267],[-41.7768873835928,-2.89668595788376],[-41.7771036886215,-2.89718036937806],[-41.7777773242825,-2.89700114521138],[-41.7797982312654,-2.90138286707952],[-41.7817017155184,-2.90056708811395],[-41.7792111176159,-2.89565387388943],[-41.7776537214089,-2.89440548486634],[-41.7761890273571,-2.89465887075717],[-41.7742917232478,-2.89690226291252],[-41.7733894222707,-2.89737813397578],[-41.7681053994254,-2.89687136219411],[-41.7688964578163,-2.89760679929187],[-41.7723511581327,-2.89850910026896],[-41.7723944191384,-2.89927543808512],[-41.7717764047705,-2.89969568785525],[-41.7723202574143,-2.89969568785525],[-41.7725674631614,-2.90112330104502],[-41.7701077659773,-2.90165479340139],[-41.7699347219543,-2.90213066446463],[-41.7690818621267,-2.902316068775],[-41.7733338009776,-2.90216774532671],[-41.7734759442822,-2.89931869909087]]]}},{"type":"Feature","properties":{"id":"22077020002","state":"PI","municipality":"2207702","origin":"face","accuracy":"otima","notes":""},"geometry":{"type":"Polygon","coordinates":[[[-41.7669806132759,-2.90622809972356],[-41.7665171025,-2.90514039443614],[-41.7663564187644,-2.9063084415914],[-41.7652439929022,-2.90679049279832],[-41.766863190546,-2.9072292829995],[-41.7681424802875,-2.90680285308568],[-41.7682042817243,-2.906277540873],[-41.7669806132759,-2.90622809972356]]]}},{"type":"Feature","properties":{"id":"22077020005","state":"PI","municipality":"2207702","origin":"face","accuracy":"otima","notes":""},"geometry":{"type":"Polygon","coordinates":[[[-41.7569131592234,-2.93527786508496],[-41.7567184846975,-2.93548180982636],[-41.7574631920108,-2.93623887742698],[-41.7573797600711,-2.93687852229773],[-41.7579885042235,-2.93641192144998],[-41.7583222319821,-2.9372153401282],[-41.7590607591517,-2.93647063281493],[-41.7585910682322,-2.93624505757067],[-41.7588568144104,-2.93583098794418],[-41.7569131592234,-2.93527786508496]]]}},{"type":"Feature","properties":{"id":"22083040001","state":"PI","municipality":"2208304","origin":"face","accuracy":"otima","notes":""},"geometry":{"type":"Polygon","coordinates":[[[-41.7247202165647,-3.92893573469632],[-41.7248152883948,-3.9286571184312],[-41.7226940008275,-3.92852077401449],[-41.7225395098904,-3.92807617167797],[-41.7222424107586,-3.92846742173408],[-41.7219987898122,-3.9280880283398],[-41.7200735877258,-3.9285681979639],[-41.7189505530256,-3.92961152844924],[-41.716549992688,-3.93050665785592],[-41.7166153545149,-3.93262888071821],[-41.7161102862607,-3.93383819008033],[-41.7162410099146,-3.93466810694753],[-41.7155457980001,-3.93533796787291],[-41.7157181152987,-3.93623309098433],[-41.7179582419793,-3.93719934867096],[-41.7188198293716,-3.93682588720487],[-41.7210599560521,-3.93430650034471],[-41.7259680330982,-3.93219020941058],[-41.7270791832577,-3.93124765785308],[-41.7269365759621,-3.93000277760603],[-41.7247202165647,-3.92893573469632]]]}},{"type":"Feature","properties":{"id":"22085020004","state":"PI","municipality":"2208502","origin":"face","accuracy":"otima","notes":""},"geometry":{"type":"Polygon","coordinates":[[[-42.7104464943103,-3.89402792894574],[-42.7093840685199,-3.89420577617556],[-42.7085925958715,-3.89855948053555],[-42.7143610714063,-3.90326885507357],[-42.7142541159346,-3.90018144381855],[-42.7190457298765,-3.89892940227004],[-42.7204076317068,-3.89560010216291],[-42.7210422356106,-3.89503810412516],[-42.7210493654358,-3.89460415515761],[-42.7183540828746,-3.89467529512871],[-42.7178620871655,-3.89574238030657],[-42.7188175574843,-3.89641820103912],[-42.7158655814314,-3.89601270841973],[-42.7151881949792,-3.89676678186146],[-42.7136123822056,-3.89672409823851],[-42.7129920388515,-3.89545071038192],[-42.711323531156,-3.89530131860091],[-42.7109741418431,-3.8945401306225],[-42.7104464943103,-3.89402792894574]]]}},{"type":"Feature","properties":{"id":"22085020001","state":"PI","municipality":"2208502","origin":"face","accuracy":"otima","notes":""},"geometry":{"type":"Polygon","coordinates":[[[-42.7112688649661,-3.8837435140519],[-42.7093555465212,-3.88396879152647],[-42.7100567002565,-3.88712265908338],[-42.7125166806003,-3.88692109673117],[-42.7129326197445,-3.88586585562468],[-42.7112688649661,-3.8837435140519]]]}},{"type":"Feature","properties":{"id":"22085020002","state":"PI","municipality":"2208502","origin":"face","accuracy":"otima","notes":""},"geometry":{"type":"Polygon","coordinates":[[[-42.7071023472955,-3.88841384452325],[-42.7068551605372,-3.88789215320026],[-42.7071974191256,-3.887294579781],[-42.7047160475075,-3.88645987312458],[-42.7042692103557,-3.88678237360761],[-42.7042121672577,-3.88963744501207],[-42.7067125532417,-3.89473102071997],[-42.7076822850094,-3.89420933299425],[-42.7088136375393,-3.89108868999102],[-42.7087375800752,-3.889447740221],[-42.7082907438227,-3.88923906333208],[-42.7071023472955,-3.88841384452325]]]}},{"type":"Feature","properties":{"id":"22085020006","state":"PI","municipality":"2208502","origin":"face","accuracy":"otima","notes":""},"geometry":{"type":"Polygon","coordinates":[[[-42.7192570022088,-3.88140908715964],[-42.7157078673242,-3.88099554021198],[-42.71368719231,-3.88174509366109],[-42.7134928964799,-3.88469160723186],[-42.714593905884,-3.88701779543489],[-42.7187000214888,-3.88659132792742],[-42.72042277629,-3.88576423942807],[-42.7192570022088,-3.88140908715964]]]}},{"type":"Feature","properties":{"id":"22100520003","state":"PI","municipality":"2210052","origin":"face","accuracy":"otima","notes":""},"geometry":{"type":"Polygon","coordinates":[[[-41.8395971397961,-3.80948255637482],[-41.8366558593804,-3.81057346459369],[-41.8354496364915,-3.81197267120179],[-41.8335066089428,-3.81281456523993],[-41.8325380660788,-3.81370981785376],[-41.8317121305104,-3.81534024285787],[-41.8317893759789,-3.81655564872416],[-41.8330728443362,-3.81873744537677],[-41.8342196463196,-3.81901016928384],[-41.8349564527781,-3.81762283282746],[-41.8382542523319,-3.81559518177216],[-41.8398823552864,-3.81228097049036],[-41.8410529254521,-3.81120785086159],[-41.8405894508424,-3.80954184508004],[-41.8395971397961,-3.80948255637482]]]}},{"type":"Feature","properties":{"id":"22100520002","state":"PI","municipality":"2210052","origin":"face","accuracy":"otima","notes":""},"geometry":{"type":"Polygon","coordinates":[[[-41.8359547056451,-3.8039449907687],[-41.828622300079,-3.80555764696777],[-41.8288124437393,-3.80870587667483],[-41.8270417334892,-3.80918611374812],[-41.8288599792046,-3.80886595599902],[-41.8299711302634,-3.80915646939547],[-41.8332867552795,-3.80753196193049],[-41.8375649822381,-3.80641733409267],[-41.8411301709206,-3.80320980758649],[-41.8431385602963,-3.80212481960469],[-41.8440298576917,-3.80039357790129],[-41.843631744909,-3.79978882789203],[-41.8408508981504,-3.80009713167727],[-41.836762814852,-3.80214853472707],[-41.8359547056451,-3.8039449907687]]]}},{"type":"Feature","properties":{"id":"22110010022","state":"PI","municipality":"2211001","origin":"face","accuracy":"otima","notes":""},"geometry":{"type":"Polygon","coordinates":[[[-42.8254014409237,-5.05810268898785],[-42.8251043417919,-5.06009733492403],[-42.8264531719762,-5.05991385164288],[-42.8257876700649,-5.0580553378835],[-42.8254014409237,-5.05810268898785]]]}},{"type":"Feature","properties":{"id":"22110010024","state":"PI","municipality":"2211001","origin":"face","accuracy":"otima","notes":""},"geometry":{"type":"Polygon","coordinates":[[[-42.8281293140166,-5.05191766816582],[-42.8267804847316,-5.05222545034423],[-42.8268636720208,-5.05434441136543],[-42.8296148096757,-5.05486527261417],[-42.83011987793,-5.0536933345797],[-42.8281293140166,-5.05191766816582]]]}},{"type":"Feature","properties":{"id":"22110010004","state":"PI","municipality":"2211001","origin":"face","accuracy":"otima","notes":""},"geometry":{"type":"Polygon","coordinates":[[[-42.7542453197656,-5.04689615333478],[-42.755026432224,-5.04662674612741],[-42.7542955684856,-5.04663266456579],[-42.7542242648379,-5.04534825192025],[-42.7530655783137,-5.04530090081585],[-42.7529348546598,-5.04742580275854],[-42.7544857121459,-5.04702923411179],[-42.7542453197656,-5.04689615333478]]]}},{"type":"Feature","properties":{"id":"22110010003","state":"PI","municipality":"2211001","origin":"face","accuracy":"otima","notes":""},"geometry":{"type":"Polygon","coordinates":[[[-42.7521499155861,-5.03912219863055],[-42.7496661670599,-5.03882624793294],[-42.7495889215914,-5.03981472247143],[-42.7512229663668,-5.04013434962049],[-42.7513120963761,-5.04260257045224],[-42.7518706419165,-5.04259665111454],[-42.7520370173944,-5.04348449781129],[-42.7533680212172,-5.04308792646656],[-42.7521499155861,-5.03912219863055]]]}},{"type":"Feature","properties":{"id":"22110010026","state":"PI","municipality":"2211001","origin":"face","accuracy":"otima","notes":""},"geometry":{"type":"Polygon","coordinates":[[[-42.7849987271095,-5.09233224313847],[-42.7846897434368,-5.09342125108982],[-42.7851116244019,-5.09372309594409],[-42.7859969799767,-5.09345676261945],[-42.7860920509074,-5.09285899134933],[-42.7849987271095,-5.09233224313847]]]}},{"type":"Feature","properties":{"id":"22110010002","state":"PI","municipality":"2211001","origin":"face","accuracy":"otima","notes":""},"geometry":{"type":"Polygon","coordinates":[[[-42.744804527407,-5.03884918873905],[-42.7442756909703,-5.04104514072061],[-42.7442043873226,-5.0425544828031],[-42.7445727901022,-5.04314046216258],[-42.7450422065326,-5.04312862438646],[-42.7460285757582,-5.03906819164373],[-42.744804527407,-5.03884918873905]]]}},{"type":"Feature","properties":{"id":"22110010005","state":"PI","municipality":"2211001","origin":"face","accuracy":"otima","notes":""},"geometry":{"type":"Polygon","coordinates":[[[-42.7536564293008,-5.05006743356518],[-42.7531157083233,-5.05022132555372],[-42.7529493328454,-5.05402125707532],[-42.7544942485107,-5.05309199300104],[-42.7542149748411,-5.05268950771455],[-42.7545180166931,-5.0513399994414],[-42.7541080193695,-5.05061789240176],[-42.7536564293008,-5.05006743356518]]]}},{"type":"Feature","properties":{"id":"22110010020","state":"PI","municipality":"2211001","origin":"face","accuracy":"otima","notes":""},"geometry":{"type":"Polygon","coordinates":[[[-42.8314817293983,-5.03536510631454],[-42.829746670972,-5.03458379150874],[-42.8294852236641,-5.03534734920078],[-42.8313925993889,-5.03574984437979],[-42.8314817293983,-5.03536510631454]]]}},{"type":"Feature","properties":{"id":"22111000002","state":"PI","municipality":"2211100","origin":"face","accuracy":"otima","notes":""},"geometry":{"type":"Polygon","coordinates":[[[-42.8566006404072,-4.58977797797128],[-42.8547289156069,-4.5911106356473],[-42.855572677537,-4.59268612916152],[-42.856897739539,-4.59334949428371],[-42.8584070024811,-4.59231890899042],[-42.8566006404072,-4.58977797797128]]]}},{"type":"Feature","properties":{"id":"22112090001","state":"PI","municipality":"2211209","origin":"face","accuracy":"otima","notes":""},"geometry":{"type":"Polygon","coordinates":[[[-44.5508348037334,-7.22626353380936],[-44.5499829178151,-7.2297816275633],[-44.550431621085,-7.23089363131932],[-44.5508803243549,-7.23091314015706],[-44.5513485364627,-7.22996371004963],[-44.5520508546243,-7.22965807159047],[-44.556811011053,-7.22876716799652],[-44.556811011053,-7.22918335653685],[-44.5572792231607,-7.22883870040186],[-44.5584302445924,-7.22955402445546],[-44.5602705782936,-7.22952801267161],[-44.5618052735357,-7.2300157336173],[-44.5620263736976,-7.23083510480581],[-44.5639252339124,-7.23099117550839],[-44.5641593399663,-7.23255838548011],[-44.5660712060729,-7.23192759972386],[-44.5663963533699,-7.23315665650672],[-44.5650502435602,-7.23388498645206],[-44.5644454695877,-7.23515956385648],[-44.5652648407762,-7.23648616482848],[-44.5664028563159,-7.23638211769339],[-44.5673717952611,-7.2357188172074],[-44.5674043099908,-7.2343597015057],[-44.5673197716936,-7.23328671542555],[-44.5664028563159,-7.23184956437247],[-44.5664938975591,-7.23008726602263],[-44.563749654372,-7.22749909353803],[-44.5613789236076,-7.22680820267415],[-44.5508348037334,-7.22626353380936]]]}},{"type":"Feature","properties":{"id":"22015070001","state":"PI","municipality":"2201507","origin":"face","accuracy":"regular","notes":""},"geometry":{"type":"Polygon","coordinates":[[[-42.2432989819999,-3.92738463199988],[-42.2442026653768,-3.92740696604926],[-42.2454689541061,-3.92112234818456],[-42.2445302199999,-3.91611735199998],[-42.2433054569999,-3.91357701699998],[-42.237829339,-3.9111092489999],[-42.2360771329999,-3.90893283799995],[-42.2330207199999,-3.90664993299988],[-42.2291096038691,-3.90446309207642],[-42.2246042839605,-3.90945512775176],[-42.2273531517265,-3.90964303839543],[-42.2296693277772,-3.91046070020105],[-42.2289872018977,-3.91212649374256],[-42.2292010022243,-3.91232963980093],[-42.2295573370014,-3.91160847345226],[-42.2312702891924,-3.91302033352144],[-42.2339071661827,-3.92063824236095],[-42.2341718717345,-3.92418308658006],[-42.2366356723983,-3.92904833431312],[-42.2413595921976,-3.93371105162443],[-42.2432989819999,-3.92738463199988]]]}},{"type":"Feature","properties":{"id":"22020000004","state":"PI","municipality":"2202000","origin":"setor","accuracy":"regular","notes":""},"geometry":{"type":"Polygon","coordinates":[[[-41.9277430558051,-3.14714650283888],[-41.9266021953932,-3.14673119136931],[-41.9256217684766,-3.14704564149722],[-41.924831484962,-3.14926458875866],[-41.9221338254461,-3.15309730470805],[-41.9232212080263,-3.15340581992902],[-41.925895099617,-3.15201750071406],[-41.9275826223097,-3.1539160564398],[-41.9289017421611,-3.15382112873582],[-41.9291156534883,-3.15500179143752],[-41.9282897180859,-3.15548829527625],[-41.9297098516196,-3.15674015166789],[-41.9311299851532,-3.15564848551476],[-41.9308031761811,-3.15074783963925],[-41.9301376742741,-3.14953157407311],[-41.9277430558051,-3.14714650283888]]]}},{"type":"Feature","properties":{"id":"22020000002","state":"PI","municipality":"2202000","origin":"setor","accuracy":"regular","notes":""},"geometry":{"type":"Polygon","coordinates":[[[-41.9754943849999,-3.22149658199989],[-41.9770369729999,-3.21869494599997],[-41.97826276,-3.21736973399993],[-41.977132823,-3.21567337699994],[-41.9753038009999,-3.21444084599989],[-41.9743948662424,-3.2130625573828],[-41.9666868013272,-3.20814504911482],[-41.9650052206157,-3.20955109073617],[-41.9657182583732,-3.21061896915592],[-41.9679227334402,-3.21297423039006],[-41.9744707968466,-3.21734657751246],[-41.9754749916884,-3.21888312381259],[-41.9761048417075,-3.21906110199877],[-41.9729437076493,-3.22233589507307],[-41.9681544707114,-3.2260259572504],[-41.9692251680273,-3.22655988796772],[-41.9754943849999,-3.22149658199989]]]}},{"type":"Feature","properties":{"id":"22046590005","state":"PI","municipality":"2204659","origin":"face","accuracy":"regular","notes":""},"geometry":{"type":"Polygon","coordinates":[[[-41.817882148817,-2.85422458295571],[-41.8174408714424,-2.85598856961081],[-41.8161338819666,-2.85792322843112],[-41.8124779045324,-2.85926165751636],[-41.8097291843977,-2.86192953294126],[-41.8083907553125,-2.86455249463847],[-41.8064774305128,-2.87472994533344],[-41.8082380486383,-2.87476587631558],[-41.8118311468537,-2.86235172198155],[-41.8149751077921,-2.86021382854343],[-41.8170411392659,-2.85947724340928],[-41.8181190687305,-2.85773459077482],[-41.8180707864732,-2.85620078697415],[-41.817882148817,-2.85422458295571]]]}},{"type":"Feature","properties":{"id":"22075040004","state":"PI","municipality":"2207504","origin":"face","accuracy":"regular","notes":""},"geometry":{"type":"Polygon","coordinates":[[[-43.0555521916222,-5.96681960236197],[-43.0545182973306,-5.96705678987593],[-43.0544513982882,-5.96547553978283],[-43.0541594751941,-5.9654451311272],[-43.0536668549728,-5.96796296781391],[-43.0541959655809,-5.96855897746438],[-43.0541412300007,-5.9692340496195],[-43.0545487059863,-5.96928878519966],[-43.0547068309955,-5.9683217899504],[-43.0557468070183,-5.96719058796073],[-43.0555521916222,-5.96681960236197]]]}},{"type":"Feature","properties":{"id":"22091530001","state":"PI","municipality":"2209153","origin":"face","accuracy":"regular","notes":""},"geometry":{"type":"Polygon","coordinates":[[[-41.9522132357522,-5.80227816620432],[-41.953793802342,-5.79971255329168],[-41.9547920552091,-5.79928100821183],[-41.9557903080761,-5.80041602907643],[-41.9566340691069,-5.80013818532895],[-41.9575610183263,-5.80145646194611],[-41.9606924424022,-5.80211264328369],[-41.961476784326,-5.80302301979646],[-41.9618511289264,-5.80496495466889],[-41.964227921981,-5.80620045858427],[-41.9652618266719,-5.80547334411945],[-41.966901813268,-5.80270675251455],[-41.966517036532,-5.8019612963767],[-41.9649463629999,-5.80272417399987],[-41.9592282459998,-5.80085812799997],[-41.9568345469999,-5.79890642799997],[-41.9530433599999,-5.79869299199993],[-41.9519876489999,-5.80032770599987],[-41.9516536445935,-5.80244512479391],[-41.9522132357522,-5.80227816620432]]]}},{"type":"Feature","properties":{"id":"22110010009","state":"PI","municipality":"2211001","origin":"face","accuracy":"regular","notes":""},"geometry":{"type":"Polygon","coordinates":[[[-42.7308912482325,-5.1092326681531],[-42.7313547228421,-5.1082738919265],[-42.729869227183,-5.10734470519397],[-42.7270705540628,-5.111463890646],[-42.7284550351717,-5.11280735547501],[-42.7299048790069,-5.11345837200623],[-42.7306357427453,-5.11239307198264],[-42.7322638456999,-5.1122747050136],[-42.7312121146473,-5.11081287231617],[-42.7311942891851,-5.10998430173407],[-42.7308912482325,-5.1092326681531]]]}},{"type":"Feature","properties":{"id":"22110010008","state":"PI","municipality":"2211001","origin":"face","accuracy":"regular","notes":""},"geometry":{"type":"Polygon","coordinates":[[[-42.7268685267611,-5.10524959149542],[-42.7256979565954,-5.10532061275603],[-42.7252107138033,-5.10742756243203],[-42.7263337485036,-5.10764654285362],[-42.7265357758054,-5.10707837726524],[-42.7268685267611,-5.10524959149542]]]}},{"type":"Feature","properties":{"id":"22110010010","state":"PI","municipality":"2211001","origin":"face","accuracy":"regular","notes":""},"geometry":{"type":"Polygon","coordinates":[[[-42.7978841702182,-5.10176787158999],[-42.7960778081443,-5.1031823774647],[-42.7970701191906,-5.10325931716369],[-42.7983595284694,-5.10207563038598],[-42.7978841702182,-5.10176787158999]]]}}]}