{"type":"FeatureCollection","features":[{"type":"Feature","properties":{"id":"24002080003","state":"RN","municipality":"2400208","origin":"","accuracy":"","notes":"Sem associacao de dados do Censo Demografico 2010"},"geometry":{"type":"Polygon","coordinates":[[[-36.8948196803066,-5.61359561087544],[-36.8951924589321,-5.61809385989199],[-36.8938273958014,-5.62974554555416],[-36.9015452527323,-5.62990229309749],[-36.9037109778914,-5.62749882612189],[-36.902975943898,-5.61595159633964],[-36.9038159827476,-5.61109228640833],[-36.9065461090089,-5.609145938545],[-36.9047479008464,-5.60633743857262],[-36.8978700827651,-5.60398612587705],[-36.8950632221731,-5.61217701282807],[-36.8948196803066,-5.61359561087544]]]}},{"type":"Feature","properties":{"id":"24007030001","state":"RN","municipality":"2400703","origin":"","accuracy":"","notes":"Sem associacao de dados do Censo Demografico 2010"},"geometry":{"type":"Polygon","coordinates":[[[-36.7570605428907,-5.31788775296347],[-36.7560744556572,-5.31503891423959],[-36.7560371038681,-5.30908085645822],[-36.754991253772,-5.30248303990344],[-36.7523168656691,-5.30283264412895],[-36.7514652448766,-5.30897672010471],[-36.7524812135414,-5.31587943460719],[-36.7541246922638,-5.32171841610175],[-36.7570082503859,-5.32136882259071],[-36.7571576575424,-5.32002251380961],[-36.7570605428907,-5.31788775296347]]]}},{"type":"Feature","properties":{"id":"24010080001","state":"RN","municipality":"2401008","origin":"","accuracy":"","notes":"Sem associacao de dados do Censo Demografico 2010"},"geometry":{"type":"Polygon","coordinates":[[[-37.7439417035852,-5.64810920325543],[-37.733921489524,-5.68422774720772],[-37.7297978626639,-5.69639890918454],[-37.730196280718,-5.70075984911797],[-37.7322879755022,-5.70506128922891],[-37.7378459073571,-5.70971949443689],[-37.7451767995529,-5.71249457741524],[-37.7500972625213,-5.71116650366708],[-37.7528463470947,-5.70613168866845],[-37.7558145615979,-5.69291013339775],[-37.7615717024799,-5.68093712825459],[-37.772269227233,-5.67703197173017],[-37.7739027412549,-5.67596151811242],[-37.7742613175036,-5.67423689421412],[-37.7754764925687,-5.67213562134459],[-37.7794208313044,-5.67094621821455],[-37.7808152944939,-5.67150127331371],[-37.7817714978238,-5.6714021563709],[-37.7830464355969,-5.67019292829734],[-37.7837436671917,-5.66452339895751],[-37.7828273056672,-5.66394851350366],[-37.7804766391479,-5.66398816079471],[-37.7772693738122,-5.66275909350709],[-37.775456571666,-5.66125249133016],[-37.7718708091789,-5.65928993786792],[-37.770715396822,-5.65798156519209],[-37.770237295157,-5.65669301345158],[-37.7706357132111,-5.65387801351152],[-37.7632251374045,-5.64747482886137],[-37.7608744708852,-5.64485802714497],[-37.7439417035852,-5.64810920325543]]]}},{"type":"Feature","properties":{"id":"24022040002","state":"RN","municipality":"2402204","origin":"","accuracy":"","notes":"Sem associacao de dados do Censo Demografico 2010"},"geometry":{"type":"Polygon","coordinates":[[[-35.047769866586,-6.31942986619532],[-35.0468250919045,-6.31891014888425],[-35.0467300200743,-6.31933537262927],[-35.0478471129538,-6.32012675894271],[-35.047769866586,-6.31942986619532]]]}},{"type":"Feature","properties":{"id":"24026000001","state":"RN","municipality":"2402600","origin":"","accuracy":"","notes":"Sem associacao de dados do Censo Demografico 2010"},"geometry":{"type":"Polygon","coordinates":[[[-35.3629028829392,-5.64159584047221],[-35.362627892677,-5.64223022979823],[-35.3641778377915,-5.64739239164615],[-35.3686526793318,-5.64739239164616],[-35.3718400664625,-5.64152120638825],[-35.3714525801839,-5.64052608435096],[-35.3629028829392,-5.64159584047221]]]}},{"type":"Feature","properties":{"id":"24026000002","state":"RN","municipality":"2402600","origin":"","accuracy":"","notes":"Sem associacao de dados do Censo Demografico 2010"},"geometry":{"type":"Polygon","coordinates":[[[-35.3914518719841,-5.63275163469652],[-35.3869020330996,-5.63378408760485],[-35.3839396380016,-5.63298797950014],[-35.3822771968707,-5.63474190372217],[-35.3807772499857,-5.63537630054056],[-35.3767398929536,-5.63409506703688],[-35.3756524314619,-5.63644606615467],[-35.3754774376587,-5.64079974308139],[-35.381652219002,-5.63913291063109],[-35.3852395919687,-5.63910803249856],[-35.3926643290495,-5.63710533933047],[-35.3978891440323,-5.63757802529753],[-35.3975516559832,-5.63449312046693],[-35.3914518719841,-5.63275163469652]]]}},{"type":"Feature","properties":{"id":"24042000001","state":"RN","municipality":"2404200","origin":"","accuracy":"","notes":"Sem associacao de dados do Censo Demografico 2010"},"geometry":{"type":"Polygon","coordinates":[[[-35.2161038987759,-6.25311996671304],[-35.214677823123,-6.25300183356773],[-35.2145352158275,-6.25402958689587],[-35.2154383968645,-6.25431310446618],[-35.2161157833167,-6.25394689423372],[-35.2161038987759,-6.25311996671304]]]}},{"type":"Feature","properties":{"id":"24045070001","state":"RN","municipality":"2404507","origin":"","accuracy":"","notes":"Sem associacao de dados do Censo Demografico 2010"},"geometry":{"type":"Polygon","coordinates":[[[-36.3122519062057,-5.1330971980417],[-36.3115222930622,-5.13099053609985],[-36.3105273660483,-5.13027852683246],[-36.3102546823482,-5.13073362563104],[-36.310866378216,-5.1330971980417],[-36.3107779402592,-5.13641499298357],[-36.3120529208029,-5.13647371486244],[-36.3122076872273,-5.13615074446171],[-36.3122519062057,-5.1330971980417]]]}},{"type":"Feature","properties":{"id":"24047050001","state":"RN","municipality":"2404705","origin":"","accuracy":"","notes":"Sem associacao de dados do Censo Demografico 2010"},"geometry":{"type":"Polygon","coordinates":[[[-36.8331671434539,-5.52085762753358],[-36.8349783819858,-5.52359034202535],[-36.8354836222079,-5.5262376471699],[-36.8365322339896,-5.52875210167149],[-36.8438248522892,-5.53350581476649],[-36.8483529486191,-5.53097240355907],[-36.8464082504058,-5.52830614259554],[-36.8455788938149,-5.52631355538662],[-36.8407362139505,-5.52112330866213],[-36.8395160111501,-5.51753660338138],[-36.839716200672,-5.51449073345397],[-36.8393730186344,-5.51238423482682],[-36.8379621591464,-5.50967993509247],[-36.8360365266019,-5.50804786052303],[-36.8337581791854,-5.50754495292071],[-36.8320708675004,-5.50853179007812],[-36.8304312199873,-5.51049597069562],[-36.827228187636,-5.51304844691257],[-36.8322615241879,-5.51852342392885],[-36.8331671434539,-5.52085762753358]]]}},{"type":"Feature","properties":{"id":"24048530001","state":"RN","municipality":"2404853","origin":"","accuracy":"","notes":"Sem associacao de dados do Censo Demografico 2010"},"geometry":{"type":"Polygon","coordinates":[[[-36.8676966509579,-5.63517374836818],[-36.8646227615858,-5.63653242674269],[-36.8651045624279,-5.63803564536977],[-36.8645456734512,-5.63833436189186],[-36.8639675124407,-5.63725512800567],[-36.8619054048368,-5.63743821232566],[-36.8600649256203,-5.63837290595916],[-36.8601323777382,-5.63911487925594],[-36.8591880480878,-5.64000139280518],[-36.8597662090983,-5.64042537754626],[-36.8598432972329,-5.64123480296076],[-36.8603154620582,-5.64167805973552],[-36.8615392361969,-5.64144679533128],[-36.8647673018384,-5.63892215891912],[-36.8662994285161,-5.63851744621183],[-36.8674846585875,-5.63698531953412],[-36.8673497543517,-5.63603135386696],[-36.868660252642,-5.63570372929433],[-36.8685735284904,-5.63515447633451],[-36.8676966509579,-5.63517374836818]]]}},{"type":"Feature","properties":{"id":"24048530002","state":"RN","municipality":"2404853","origin":"","accuracy":"","notes":"Sem associacao de dados do Censo Demografico 2010"},"geometry":{"type":"Polygon","coordinates":[[[-36.8731289554518,-5.6756188641952],[-36.8738649062379,-5.67638389510371],[-36.8739543835371,-5.67606848762392],[-36.8735785788804,-5.67546004198914],[-36.8731289554518,-5.6756188641952]]]}},{"type":"Feature","properties":{"id":"24056030001","state":"RN","municipality":"2405603","origin":"","accuracy":"","notes":"Sem associacao de dados do Censo Demografico 2010"},"geometry":{"type":"Polygon","coordinates":[[[-37.3480845725856,-6.37007661117573],[-37.3479585837229,-6.37062614808042],[-37.3497154284185,-6.37303529237523],[-37.3509426532657,-6.37196636641817],[-37.3500770631169,-6.37011834817651],[-37.3494401194224,-6.36983546399384],[-37.3480845725856,-6.37007661117573]]]}},{"type":"Feature","properties":{"id":"24080030008","state":"RN","municipality":"2408003","origin":"","accuracy":"","notes":"Sem associacao de dados do Censo Demografico 2010"},"geometry":{"type":"Polygon","coordinates":[[[-37.4349138392009,-5.30932388070636],[-37.4333085699345,-5.30852386168681],[-37.430450476808,-5.30794404448204],[-37.427610210043,-5.30855936062598],[-37.4265644208113,-5.30841144822966],[-37.4243361777723,-5.3064412512627],[-37.423284447619,-5.3060685110529],[-37.4191012924906,-5.30638800330366],[-37.4139317690358,-5.30545319221104],[-37.4113291813965,-5.30445329898044],[-37.4097664402689,-5.30513369996027],[-37.4089167365181,-5.30715714938276],[-37.4105864331174,-5.30809195687818],[-37.4118461332923,-5.31054730031759],[-37.412796850694,-5.31083129093128],[-37.4163798648389,-5.31112119818459],[-37.4195291152763,-5.30996156827173],[-37.4240212531782,-5.30960657977978],[-37.4263753266169,-5.31113213735489],[-37.4349138392009,-5.30932388070636]]]}},{"type":"Feature","properties":{"id":"24080030004","state":"RN","municipality":"2408003","origin":"","accuracy":"","notes":"Sem associacao de dados do Censo Demografico 2010"},"geometry":{"type":"Polygon","coordinates":[[[-37.2818967272521,-5.14849720538167],[-37.2794486314491,-5.14987609990204],[-37.2815580344757,-5.15309548127142],[-37.2826988946383,-5.15753985707869],[-37.2835545402098,-5.15872344133368],[-37.2842200421212,-5.1587885378607],[-37.2870900188892,-5.15652789134908],[-37.2860323460159,-5.15590650837862],[-37.2856877114187,-5.15493004788334],[-37.2842319257627,-5.15359850806466],[-37.2818967272521,-5.14849720538167]]]}},{"type":"Feature","properties":{"id":"24080030005","state":"RN","municipality":"2408003","origin":"","accuracy":"","notes":"Sem associacao de dados do Censo Demografico 2010"},"geometry":{"type":"Polygon","coordinates":[[[-37.3773517836578,-5.27027138911326],[-37.3762109234953,-5.26921818766919],[-37.3747254278362,-5.26931877414207],[-37.3677673677698,-5.27220620045574],[-37.3684625796843,-5.27533028516452],[-37.3692350370673,-5.27663198277974],[-37.3688725761084,-5.27815851630243],[-37.3709106754873,-5.2819097468373],[-37.3761693289513,-5.28405160729579],[-37.3811605932867,-5.2849982831442],[-37.3825569589365,-5.28652479508315],[-37.3839176727623,-5.28712829863202],[-37.3848505638025,-5.28573787300441],[-37.3847614337931,-5.28411669123227],[-37.3835789799859,-5.28174407822662],[-37.3822242079807,-5.28077372952397],[-37.3811249414628,-5.27760233777764],[-37.3773517836578,-5.27027138911326]]]}},{"type":"Feature","properties":{"id":"24080030009","state":"RN","municipality":"2408003","origin":"","accuracy":"","notes":"Sem associacao de dados do Censo Demografico 2010"},"geometry":{"type":"Polygon","coordinates":[[[-37.4261954396245,-5.31117023319969],[-37.4242198918345,-5.30996877903585],[-37.4231622189612,-5.3098031176197],[-37.4195910884579,-5.31015219037126],[-37.4154554687948,-5.3114301485823],[-37.4126567956746,-5.31116982362835],[-37.4109870990753,-5.31015219037126],[-37.4095550816016,-5.30793942286602],[-37.4023474587681,-5.30772642833187],[-37.4014918131966,-5.30945404486824],[-37.4012125404264,-5.31226436960486],[-37.4023771687713,-5.31320508654539],[-37.4058532274443,-5.31319916990566],[-37.4070891594371,-5.31364882013685],[-37.4073803167481,-5.31417538308734],[-37.4111356490909,-5.31521075996846],[-37.4154587135487,-5.31518977968455],[-37.4185415103538,-5.31580198547943],[-37.4261954396245,-5.31117023319969]]]}},{"type":"Feature","properties":{"id":"24081020026","state":"RN","municipality":"2408102","origin":"","accuracy":"","notes":"Sem associacao de dados do Censo Demografico 2010"},"geometry":{"type":"Polygon","coordinates":[[[-35.2430210272296,-5.7903694257554],[-35.242162602824,-5.7916921515875],[-35.2406551258189,-5.79252536312007],[-35.2406132514577,-5.79349396998168],[-35.2431885246746,-5.79105682696804],[-35.2460883241913,-5.78424526895751],[-35.2462872274072,-5.78350578295121],[-35.2457637978916,-5.78350578295121],[-35.2430210272296,-5.7903694257554]]]}},{"type":"Feature","properties":{"id":"24081020019","state":"RN","municipality":"2408102","origin":"","accuracy":"","notes":"Sem associacao de dados do Censo Demografico 2010"},"geometry":{"type":"Polygon","coordinates":[[[-35.1957291704911,-5.82220641893565],[-35.1971371958882,-5.82019119259333],[-35.1953444497971,-5.82235222314518],[-35.1957187019008,-5.82357072827404],[-35.195642804621,-5.82241991794389],[-35.1957291704911,-5.82220641893565]]]}},{"type":"Feature","properties":{"id":"24081020018","state":"RN","municipality":"2408102","origin":"","accuracy":"","notes":"Sem associacao de dados do Censo Demografico 2010"},"geometry":{"type":"Polygon","coordinates":[[[-35.1937322868889,-5.82626809347357],[-35.1939940016468,-5.8265154380895],[-35.1947922316581,-5.82538546285068],[-35.1946901629026,-5.82515894680343],[-35.1937322868889,-5.82626809347357]]]}},{"type":"Feature","properties":{"id":"24081020005","state":"RN","municipality":"2408102","origin":"","accuracy":"","notes":"Sem associacao de dados do Censo Demografico 2010"},"geometry":{"type":"Polygon","coordinates":[[[-35.2797871277973,-5.83390051321607],[-35.2790271499867,-5.83320348700579],[-35.2787177075448,-5.83335979959509],[-35.2781789890968,-5.83211567777955],[-35.277739677029,-5.83207101694512],[-35.2776322540052,-5.83278080478584],[-35.2791954995017,-5.83518929166162],[-35.2796027449952,-5.83566779775602],[-35.2799282207242,-5.83531370328547],[-35.2797871277973,-5.83390051321607]]]}},{"type":"Feature","properties":{"id":"24081020001","state":"RN","municipality":"2408102","origin":"","accuracy":"","notes":"Sem associacao de dados do Censo Demografico 2010"},"geometry":{"type":"Polygon","coordinates":[[[-35.1739177294553,-5.89155449096536],[-35.1734896406886,-5.89180009933022],[-35.1742544284854,-5.89214139908551],[-35.1745237877094,-5.89203773329418],[-35.1739177294553,-5.89155449096536]]]}},{"type":"Feature","properties":{"id":"24081020045","state":"RN","municipality":"2408102","origin":"","accuracy":"","notes":"Sem associacao de dados do Censo Demografico 2010"},"geometry":{"type":"Polygon","coordinates":[[[-35.2102163909101,-5.81229294582454],[-35.2102530309761,-5.8123905842973],[-35.2107987062462,-5.81217708148155],[-35.2107712261967,-5.8120859522063],[-35.2102163909101,-5.81229294582454]]]}},{"type":"Feature","properties":{"id":"24081020003","state":"RN","municipality":"2408102","origin":"","accuracy":"","notes":"Sem associacao de dados do Censo Demografico 2010"},"geometry":{"type":"Polygon","coordinates":[[[-35.2685654301252,-5.84483430061069],[-35.2699635327641,-5.84573387624029],[-35.2705214911567,-5.84430476250718],[-35.2693478545378,-5.84371780402416],[-35.2685654301252,-5.84483430061069]]]}},{"type":"Feature","properties":{"id":"24099020001","state":"RN","municipality":"2409902","origin":"","accuracy":"","notes":"Sem associacao de dados do Censo Demografico 2010"},"geometry":{"type":"Polygon","coordinates":[[[-36.71523751647,-5.22894508765066],[-36.7132403367036,-5.23048559659571],[-36.7146949300595,-5.2329113156811],[-36.7156492664412,-5.23334817404349],[-36.7166189953451,-5.23292664404985],[-36.7175425466822,-5.23054691030612],[-36.71523751647,-5.22894508765066]]]}},{"type":"Feature","properties":{"id":"24002080001","state":"RN","municipality":"2400208","origin":"face","accuracy":"boa","notes":""},"geometry":{"type":"Polygon","coordinates":[[[-36.8603058409999,-5.4338486729999],[-36.8600955734113,-5.44052575565764],[-36.8628253441045,-5.4479915468636],[-36.8651474829999,-5.45021711399995],[-36.8685418289999,-5.45210143099996],[-36.8711483069999,-5.45536903099998],[-36.873915051,-5.45756890599985],[-36.874226053,-5.45823299299998],[-36.873794249,-5.46179454599998],[-36.8745036849999,-5.46642826299996],[-36.8738942859999,-5.46720058899995],[-36.8717020929999,-5.46841290299996],[-36.8711771969999,-5.46941269199994],[-36.870337897341,-5.4737442687021],[-36.8706695172809,-5.47629511316199],[-36.8798309167838,-5.48975718249584],[-36.882424621,-5.49164443199994],[-36.884980172,-5.49248364099999],[-36.8860655179999,-5.49327646199994],[-36.8879391333847,-5.49784237242046],[-36.8955433050596,-5.5046811983039],[-36.9032064416984,-5.49830382560084],[-36.9027863824666,-5.4972760930901],[-36.912765733561,-5.48889785772122],[-36.911748954673,-5.46629088482349],[-36.9114152627598,-5.4645870230168],[-36.9084866254993,-5.4583108296991],[-36.9016047205158,-5.4526364065888],[-36.897435534496,-5.44816561120154],[-36.8957710007178,-5.44416375214383],[-36.8945304519588,-5.43937242881976],[-36.8945186745971,-5.43778573421827],[-36.8904554848322,-5.42434946803919],[-36.8880214967604,-5.42508421052078],[-36.8865611039172,-5.42073827390334],[-36.8862156346425,-5.42064447636534],[-36.8843626630782,-5.4246464917033],[-36.8592494980641,-5.43243735119678],[-36.8603058409999,-5.4338486729999]]]}},{"type":"Feature","properties":{"id":"24061060001","state":"RN","municipality":"2406106","origin":"face","accuracy":"boa","notes":""},"geometry":{"type":"Polygon","coordinates":[[[-37.0248027945962,-6.03638348155016],[-37.0213465153254,-6.03744959754413],[-37.0216503010657,-6.03816607334658],[-37.0230545936383,-6.03836095476482],[-37.0233320998964,-6.03878400657658],[-37.0237289653194,-6.03854396583127],[-37.0257600062682,-6.0409574630727],[-37.0273190576142,-6.04114661268449],[-37.0280985832872,-6.04008049669052],[-37.0248027945962,-6.03638348155016]]]}},{"type":"Feature","properties":{"id":"24080030006","state":"RN","municipality":"2408003","origin":"face","accuracy":"boa","notes":""},"geometry":{"type":"Polygon","coordinates":[[[-37.3163000394152,-5.19624990380999],[-37.3166981521979,-5.19470541802059],[-37.3162940975945,-5.1941787534467],[-37.3153136701897,-5.19516107122644],[-37.3147491828285,-5.19817902604114],[-37.3163000394152,-5.19624990380999]]]}},{"type":"Feature","properties":{"id":"24080030001","state":"RN","municipality":"2408003","origin":"face","accuracy":"boa","notes":""},"geometry":{"type":"Polygon","coordinates":[[[-37.34408985866,-5.19437636237917],[-37.3408752472948,-5.19260108627106],[-37.3371377404143,-5.18908602400074],[-37.3343747191179,-5.18471879833385],[-37.333055599836,-5.17988404391345],[-37.330340114005,-5.1754871658],[-37.3264897107315,-5.17105475097595],[-37.325853917924,-5.17059316314392],[-37.3227819138542,-5.17252828115522],[-37.3238217603659,-5.17388936999839],[-37.3269353589796,-5.17482437714323],[-37.3283020146262,-5.17571204127763],[-37.3296864966344,-5.17832176503737],[-37.3293656293203,-5.18040480263949],[-37.3313918450576,-5.18202625330889],[-37.3316889441894,-5.1831151083755],[-37.3309402540894,-5.18533423588623],[-37.3278741918405,-5.1862337207096],[-37.3265550725585,-5.18861853122018],[-37.3248378395946,-5.1901216086253],[-37.3242139313278,-5.1920389137648],[-37.3250220405347,-5.19384969690595],[-37.3288427347044,-5.19579066230915],[-37.3345351527751,-5.19707477278252],[-37.3374110722631,-5.19683807032068],[-37.340934667301,-5.1948675208194],[-37.3428420430258,-5.19551845371364],[-37.3438997158991,-5.1970096798528],[-37.3427588548372,-5.1985955821204],[-37.342741029375,-5.19981459426805],[-37.3450524597032,-5.20213426058764],[-37.3461339007589,-5.20392134569352],[-37.3487127202158,-5.20488589556761],[-37.3524799362,-5.20801623506117],[-37.3534068854194,-5.20981513725873],[-37.3540307936862,-5.21008733955903],[-37.3551300602041,-5.21173830058206],[-37.356651207687,-5.21128857660649],[-37.3570255522874,-5.21169096116888],[-37.3557955621155,-5.20946600874925],[-37.3501506795102,-5.20383258260757],[-37.34828489743,-5.2011164492647],[-37.34408985866,-5.19437636237917]]]}},{"type":"Feature","properties":{"id":"24002080002","state":"RN","municipality":"2400208","origin":"face","accuracy":"otima","notes":""},"geometry":{"type":"Polygon","coordinates":[[[-36.8926107420118,-5.5653448690743],[-36.8918726940159,-5.57451909553509],[-36.8949505111904,-5.59058536815196],[-36.9034302115695,-5.5914605610103],[-36.9046835191371,-5.59044568884162],[-36.9058700883222,-5.57944119652786],[-36.9059289751304,-5.57827587648962],[-36.9053440328357,-5.57812935662033],[-36.9061085798953,-5.57151345810007],[-36.9074472733348,-5.57149099146399],[-36.9088693897526,-5.56765406814197],[-36.9102885618299,-5.56618493404592],[-36.9111718639527,-5.56185956317593],[-36.9115644426739,-5.55179425906226],[-36.8999535807937,-5.55056037155294],[-36.8991174079999,-5.55330178599997],[-36.8966191459971,-5.55672051353355],[-36.8926107420118,-5.5653448690743]]]}},{"type":"Feature","properties":{"id":"24020060001","state":"RN","municipality":"2402006","origin":"face","accuracy":"otima","notes":""},"geometry":{"type":"Polygon","coordinates":[[[-37.102214449703,-6.46555124274651],[-37.1019189841189,-6.46383852957649],[-37.1028961788592,-6.45952861947963],[-37.1024734472427,-6.45872697806847],[-37.1014642499328,-6.45861457068421],[-37.1004639835726,-6.45948129013272],[-37.1006604644648,-6.46016164906937],[-37.0995202798934,-6.46302210467647],[-37.0997435536345,-6.46439760238884],[-37.100940300887,-6.46829630460234],[-37.1022739893673,-6.46851519897921],[-37.1032623477947,-6.46817206721114],[-37.1029825113725,-6.46673446089168],[-37.102214449703,-6.46555124274651]]]}},{"type":"Feature","properties":{"id":"24022040001","state":"RN","municipality":"2402204","origin":"face","accuracy":"otima","notes":""},"geometry":{"type":"Polygon","coordinates":[[[-35.0410938977651,-6.31100424385073],[-35.0402620203759,-6.31114008104987],[-35.039584634823,-6.31195510424464],[-35.0416643278464,-6.31343159229407],[-35.0422109897453,-6.31315991879518],[-35.0426447543519,-6.31209684729163],[-35.0410938977651,-6.31100424385073]]]}},{"type":"Feature","properties":{"id":"24022040003","state":"RN","municipality":"2402204","origin":"face","accuracy":"otima","notes":""},"geometry":{"type":"Polygon","coordinates":[[[-35.1400191249826,-6.39305869939944],[-35.1326926621366,-6.38861219129956],[-35.1306961564025,-6.38432508443504],[-35.1307377500471,-6.38283108388738],[-35.1311833991945,-6.38246496448647],[-35.132716430319,-6.38276022180675],[-35.1332630922179,-6.38208703428916],[-35.1319320883951,-6.3804394933879],[-35.1309932555343,-6.38010880277898],[-35.1307971700533,-6.38059893329409],[-35.1295255862367,-6.38056940675266],[-35.1286342888413,-6.38180949181452],[-35.1265308276355,-6.38130164825241],[-35.1258534420827,-6.38264211923838],[-35.1262634385068,-6.38374047564243],[-35.1288422579638,-6.38550610921955],[-35.1317538292757,-6.39034828304676],[-35.1322826657124,-6.39615883066547],[-35.1364895881239,-6.39863301759965],[-35.1368877009066,-6.39866844729097],[-35.1400191249826,-6.39305869939944]]]}},{"type":"Feature","properties":{"id":"24025010001","state":"RN","municipality":"2402501","origin":"face","accuracy":"otima","notes":""},"geometry":{"type":"Polygon","coordinates":[[[-36.823616899991,-5.34150034812192],[-36.8213749582349,-5.34219533540839],[-36.8207065164975,-5.34165348098156],[-36.8197008961847,-5.34226012231867],[-36.8194997721222,-5.34300811615017],[-36.8201031443098,-5.34526387154449],[-36.8234394375828,-5.34413893973618],[-36.8251608229418,-5.34648892582288],[-36.825935742124,-5.34608253789644],[-36.823616899991,-5.34150034812192]]]}},{"type":"Feature","properties":{"id":"24042000004","state":"RN","municipality":"2404200","origin":"face","accuracy":"otima","notes":""},"geometry":{"type":"Polygon","coordinates":[[[-35.2048276602683,-6.27319435373642],[-35.2071153224142,-6.27393265306944],[-35.2075490870207,-6.27283996958886],[-35.205606059472,-6.27076091058753],[-35.2053921485288,-6.27099716788496],[-35.2048276602683,-6.27319435373642]]]}},{"type":"Feature","properties":{"id":"24042000002","state":"RN","municipality":"2404200","origin":"face","accuracy":"otima","notes":""},"geometry":{"type":"Polygon","coordinates":[[[-35.2127607500085,-6.26597173111049],[-35.2113406170758,-6.26504441316912],[-35.2106988824474,-6.26520979489607],[-35.2104730878627,-6.26625524238546],[-35.2119882926255,-6.26705261728445],[-35.2127785763702,-6.26695811292655],[-35.2127607500085,-6.26597173111049]]]}},{"type":"Feature","properties":{"id":"24080030002","state":"RN","municipality":"2408003","origin":"face","accuracy":"otima","notes":""},"geometry":{"type":"Polygon","coordinates":[[[-37.3468760365998,-5.2050601374154],[-37.3469592247883,-5.20472875882513],[-37.3426275196443,-5.20009535271828],[-37.3425859259996,-5.19860413467302],[-37.3435544688636,-5.19704782010076],[-37.342740417836,-5.19576962716651],[-37.3407201439194,-5.19512461181138],[-37.3373688661802,-5.19714841826482],[-37.3354020704492,-5.19735553303139],[-37.329763130564,-5.19630220748087],[-37.3252472244798,-5.19450326661241],[-37.3262751873499,-5.19733777951486],[-37.3268812692551,-5.19794137029795],[-37.3382779899372,-5.20367544586509],[-37.3413678203686,-5.20583532693877],[-37.3432157760872,-5.20638565087707],[-37.3468760365998,-5.2050601374154]]]}},{"type":"Feature","properties":{"id":"24080030007","state":"RN","municipality":"2408003","origin":"face","accuracy":"otima","notes":""},"geometry":{"type":"Polygon","coordinates":[[[-37.3520584500374,-5.14050699700027],[-37.3515593236038,-5.13902747463818],[-37.349776728813,-5.1386487170646],[-37.3490280396123,-5.14044189867464],[-37.3467700865702,-5.14214630370892],[-37.3469245784065,-5.143306243888],[-37.3474890657677,-5.14364949173064],[-37.3480238449245,-5.14369091810137],[-37.3486893468358,-5.14284463537161],[-37.3520584500374,-5.14050699700027]]]}},{"type":"Feature","properties":{"id":"24102560002","state":"RN","municipality":"2410256","origin":"setor","accuracy":"otima","notes":""},"geometry":{"type":"Polygon","coordinates":[[[-36.7567305549999,-5.15350816199994],[-36.7644611785054,-5.15433304037471],[-36.7645853099319,-5.1540017980658],[-36.7644361885494,-5.15356405929391],[-36.7636120966992,-5.15349370839175],[-36.7614694578885,-5.15015593996993],[-36.7613046395184,-5.14916711293866],[-36.760488396162,-5.14844014821136],[-36.7582986663884,-5.14851831650152],[-36.7582044844627,-5.14960485473903],[-36.754472525655,-5.15176229206617],[-36.7530284027937,-5.15173102491072],[-36.7526427554455,-5.15222243325583],[-36.7567305549999,-5.15350816199994]]]}},{"type":"Feature","properties":{"id":"24007030003","state":"RN","municipality":"2400703","origin":"face","accuracy":"regular","notes":""},"geometry":{"type":"Polygon","coordinates":[[[-36.7692297557944,-5.29616967422014],[-36.7680419688996,-5.2922049591779],[-36.7677655656599,-5.28927417787524],[-36.7656962765412,-5.28475152365952],[-36.759798429035,-5.28500443611589],[-36.7579046933253,-5.28720253855618],[-36.7595668479424,-5.28860470811745],[-36.7610048918245,-5.28720253855618],[-36.7614568484731,-5.28778274703568],[-36.7611281527286,-5.287154187825],[-36.7621441213934,-5.28651447010331],[-36.7629621255757,-5.28657397875649],[-36.7626222242945,-5.28725460857014],[-36.7631152679112,-5.28691243411254],[-36.7637689242213,-5.28784597484997],[-36.7644599323205,-5.28793523763558],[-36.7654273436594,-5.28992133128605],[-36.7652966123973,-5.29088090233906],[-36.7642470271223,-5.29269962013487],[-36.7640976199658,-5.29240951826823],[-36.7640042404929,-5.29369637935764],[-36.7631600900582,-5.29404598855518],[-36.7656589247521,-5.29821896818031],[-36.7648708020011,-5.29848675200697],[-36.7657896560141,-5.29834542166845],[-36.7664433123241,-5.29921199928792],[-36.770081376587,-5.29738958142525],[-36.7692297557944,-5.29616967422014]]]}},{"type":"Feature","properties":{"id":"24007030002","state":"RN","municipality":"2400703","origin":"face","accuracy":"regular","notes":""},"geometry":{"type":"Polygon","coordinates":[[[-36.7855748987247,-5.31926381916543],[-36.7803008260973,-5.30985444024783],[-36.7712691634818,-5.29848117317836],[-36.7665684408177,-5.30068852573607],[-36.7649660490634,-5.29925477025472],[-36.7693250028568,-5.30367504073138],[-36.7687030955675,-5.30394654137815],[-36.7694127795611,-5.30376058204383],[-36.7724868318079,-5.30727148481429],[-36.7746438976311,-5.31166566388112],[-36.7737922768386,-5.31104270768781],[-36.7756673366536,-5.31360891124376],[-36.7767524061284,-5.31692636434553],[-36.779286725022,-5.32152316443125],[-36.7805753617475,-5.32487590593737],[-36.7809096602604,-5.32881065855764],[-36.782235648775,-5.3305400078337],[-36.7831395620723,-5.33112761357603],[-36.7866282191786,-5.33147720153569],[-36.7903036352306,-5.33253340224701],[-36.7955478264267,-5.33524827601706],[-36.7994921753605,-5.32990777317919],[-36.7855748987247,-5.31926381916543]]]}},{"type":"Feature","properties":{"id":"24007030004","state":"RN","municipality":"2400703","origin":"face","accuracy":"regular","notes":""},"geometry":{"type":"Polygon","coordinates":[[[-36.7554506807784,-5.30146212004781],[-36.758005543156,-5.30070340255895],[-36.75809518745,-5.30011204857563],[-36.7590812746834,-5.29990377282406],[-36.7580877170922,-5.30002278754784],[-36.7590401877154,-5.29952813245165],[-36.7586778753607,-5.29923803378988],[-36.7598544567188,-5.29892190047772],[-36.7589057212745,-5.29902231931205],[-36.7608031921631,-5.2972482508358],[-36.7611244175497,-5.29570848916172],[-36.7624279949909,-5.29548161574059],[-36.7611356230865,-5.29560063131617],[-36.7611953859491,-5.29445510545026],[-36.7617369868917,-5.29433237041015],[-36.7611953859491,-5.29435468587381],[-36.7603960576614,-5.29201899630979],[-36.7606014925017,-5.29165450892615],[-36.7598955436868,-5.29001059377234],[-36.7606014925017,-5.28917747673275],[-36.7600412156645,-5.2886344623443],[-36.7596452866996,-5.28848569119581],[-36.757307064699,-5.28961635102732],[-36.7541284274427,-5.29577543540124],[-36.7527874982123,-5.29993724571744],[-36.7530526959153,-5.30150303125846],[-36.7554506807784,-5.30146212004781]]]}},{"type":"Feature","properties":{"id":"24010080002","state":"RN","municipality":"2401008","origin":"face","accuracy":"regular","notes":""},"geometry":{"type":"Polygon","coordinates":[[[-37.7900685538008,-5.66453331077064],[-37.7902727430535,-5.66478110604421],[-37.7902777232792,-5.66429542720803],[-37.7905416752401,-5.66471172337834],[-37.7905217543374,-5.66405258763685],[-37.7907508447185,-5.66466216432629],[-37.7906213588509,-5.66399807261705],[-37.7911293418699,-5.66363133507731],[-37.7914879181186,-5.6647860619486],[-37.7912438870605,-5.66357682001769],[-37.7931712343972,-5.66263519544999],[-37.7927528954404,-5.6626946665207],[-37.7929222231134,-5.66113354888574],[-37.7921453079079,-5.65900744856349],[-37.7886790708371,-5.65999863849783],[-37.7870505370409,-5.66163409817403],[-37.7869808138814,-5.66292759482216],[-37.789142231825,-5.66519740186444],[-37.7900685538008,-5.66453331077064]]]}},{"type":"Feature","properties":{"id":"24010080003","state":"RN","municipality":"2401008","origin":"face","accuracy":"regular","notes":""},"geometry":{"type":"Polygon","coordinates":[[[-37.8011893977364,-5.66701125872195],[-37.8007835093437,-5.66887962444544],[-37.7973048217087,-5.66859713983017],[-37.7965353768417,-5.66906299157787],[-37.7993815758159,-5.66976920228679],[-37.7996853695821,-5.66940742427718],[-37.8010449711918,-5.66962052641988],[-37.8019837437318,-5.66727144263999],[-37.8030420416881,-5.66633973587742],[-37.8030046899955,-5.6660052131358],[-37.8020260756501,-5.66605725001942],[-37.8011893977364,-5.66701125872195]]]}},{"type":"Feature","properties":{"id":"24026000003","state":"RN","municipality":"2402600","origin":"face","accuracy":"regular","notes":""},"geometry":{"type":"Polygon","coordinates":[[[-35.4264381330772,-5.63088886110282],[-35.4321785548018,-5.63121850093826],[-35.4348628347481,-5.6309323984503],[-35.4347034653916,-5.62655376889064],[-35.4306254847979,-5.62752714606817],[-35.4273662252123,-5.62958895879714],[-35.42228203025,-5.62997146623685],[-35.4196789974266,-5.63131801481411],[-35.420382097529,-5.63263968186124],[-35.4264381330772,-5.63088886110282]]]}},{"type":"Feature","properties":{"id":"24042000003","state":"RN","municipality":"2404200","origin":"face","accuracy":"regular","notes":""},"geometry":{"type":"Polygon","coordinates":[[[-35.2126900749869,-6.27212275576051],[-35.2110149473819,-6.27218136098099],[-35.2118696423701,-6.27389336618586],[-35.2118567514879,-6.27330621141249],[-35.2130785101651,-6.27292255433237],[-35.2126900749869,-6.27212275576051]]]}},{"type":"Feature","properties":{"id":"24047050002","state":"RN","municipality":"2404705","origin":"face","accuracy":"regular","notes":""},"geometry":{"type":"Polygon","coordinates":[[[-36.8634362758147,-5.51894566875764],[-36.8623090181494,-5.51376959062134],[-36.8624901420026,-5.51310300715801],[-36.8668776290253,-5.5112669335348],[-36.8665964104112,-5.5100215315279],[-36.8659148127531,-5.50928377786925],[-36.8660149075141,-5.50991241046571],[-36.8657003239796,-5.5100167871343],[-36.8654834519975,-5.50943322643358],[-36.8655787803413,-5.51005474228198],[-36.865092605788,-5.50957555836466],[-36.86515695242,-5.51019232967194],[-36.8648376024683,-5.51029433409565],[-36.864639796155,-5.50974161224117],[-36.8644229241729,-5.5104390380155],[-36.8640940413868,-5.50996222660529],[-36.8642823148658,-5.51050071508539],[-36.8635792683304,-5.51004050910186],[-36.8627070139847,-5.51036075557141],[-36.8629763165559,-5.51109613569981],[-36.8626045360151,-5.51113646297086],[-36.862387664033,-5.5104485267959],[-36.8624972916284,-5.51114595174009],[-36.8622637371861,-5.51037498874385],[-36.8616560189945,-5.51052918142318],[-36.8614582126811,-5.51001204274065],[-36.860259458758,-5.51045089899096],[-36.8612318078646,-5.51393089896261],[-36.8585244829011,-5.51479200010151],[-36.8627665941995,-5.5245510589697],[-36.863898618282,-5.52578219766514],[-36.8659434112562,-5.52502785865248],[-36.8634362758147,-5.51894566875764]]]}},{"type":"Feature","properties":{"id":"24047050003","state":"RN","municipality":"2404705","origin":"face","accuracy":"regular","notes":""},"geometry":{"type":"Polygon","coordinates":[[[-36.8605382941636,-5.51179830426281],[-36.8599615576837,-5.50950676460225],[-36.860876709784,-5.50922684507292],[-36.8609291403731,-5.50855313990233],[-36.8624686931253,-5.50802651068064],[-36.8628261744145,-5.50849146263025],[-36.864451522676,-5.50785571191389],[-36.8658147179921,-5.50719149402098],[-36.8647851718793,-5.50736703739344],[-36.8649615293153,-5.5068878513084],[-36.8666822059206,-5.50621888790979],[-36.8665249141534,-5.50597692223975],[-36.8648614345543,-5.50659369728262],[-36.8616107380312,-5.50289303742689],[-36.8594849159647,-5.49965256892477],[-36.8564582410495,-5.49939162266994],[-36.8539225071048,-5.48735950390018],[-36.8490559951545,-5.48729782443209],[-36.8535268944781,-5.50295945972984],[-36.8539129742704,-5.50704441710144],[-36.8544849443331,-5.50836810806681],[-36.8562199201901,-5.5090750242561],[-36.8581693848205,-5.51254791573123],[-36.8605382941636,-5.51179830426281]]]}},{"type":"Feature","properties":{"id":"24056030002","state":"RN","municipality":"2405603","origin":"face","accuracy":"regular","notes":""},"geometry":{"type":"Polygon","coordinates":[[[-37.3533411079099,-6.37693302737298],[-37.3539570534606,-6.37785354701824],[-37.3536374150498,-6.37627915599121],[-37.3531497914889,-6.37568556990124],[-37.3532804466057,-6.37639045330658],[-37.3529421431783,-6.37551630499186],[-37.3533411079099,-6.37693302737298]]]}},{"type":"Feature","properties":{"id":"24056030003","state":"RN","municipality":"2405603","origin":"face","accuracy":"regular","notes":""},"geometry":{"type":"Polygon","coordinates":[[[-37.3554479216684,-6.38168632262919],[-37.3544855067455,-6.38174197070277],[-37.3539395550074,-6.38224975909493],[-37.3549766299971,-6.38243409311274],[-37.3554479216684,-6.38168632262919]]]}},{"type":"Feature","properties":{"id":"24056030004","state":"RN","municipality":"2405603","origin":"face","accuracy":"regular","notes":""},"geometry":{"type":"Polygon","coordinates":[[[-37.3518864031719,-6.38409425561725],[-37.3496267695893,-6.38482926997929],[-37.3502660464108,-6.38563036487255],[-37.3517079189498,-6.38554457474132],[-37.3521255486982,-6.38513996973935],[-37.3518864031719,-6.38409425561725]]]}},{"type":"Feature","properties":{"id":"24080030003","state":"RN","municipality":"2408003","origin":"face","accuracy":"regular","notes":""},"geometry":{"type":"Polygon","coordinates":[[[-37.3426691141883,-5.20641819734187],[-37.331664564468,-5.20046519801043],[-37.3316467390057,-5.20177296874744],[-37.3338690393246,-5.20388551670316],[-37.3366498869826,-5.20534713536194],[-37.3369090158384,-5.20649367923989],[-37.3388543618393,-5.20659572081581],[-37.340250727489,-5.20848930723572],[-37.341926365909,-5.20726439463608],[-37.3426691141883,-5.20641819734187]]]}},{"type":"Feature","properties":{"id":"24081020022","state":"RN","municipality":"2408102","origin":"face","accuracy":"regular","notes":"Aglomerado Subnormal"},"geometry":{"type":"Polygon","coordinates":[[[-35.2322802535685,-5.80703997102881],[-35.2316115723623,-5.8070321598774],[-35.2331360608266,-5.80851627670218],[-35.2328311631338,-5.80814785157458],[-35.2332106495326,-5.80801245853428],[-35.2322802535685,-5.80703997102881]]]}},{"type":"Feature","properties":{"id":"24081020017","state":"RN","municipality":"2408102","origin":"face","accuracy":"regular","notes":"Aglomerado Subnormal"},"geometry":{"type":"Polygon","coordinates":[[[-35.2099402818409,-5.8207379601447],[-35.2098617674135,-5.82142272066122],[-35.2113116671718,-5.82096187432175],[-35.2109845237245,-5.82029273517879],[-35.2099402818409,-5.8207379601447]]]}},{"type":"Feature","properties":{"id":"24081020031","state":"RN","municipality":"2408102","origin":"face","accuracy":"regular","notes":"Aglomerado Subnormal"},"geometry":{"type":"Polygon","coordinates":[[[-35.1977986237437,-5.77826993679386],[-35.1972732875622,-5.77710814712198],[-35.1967420066038,-5.77723052829842],[-35.1977757798972,-5.77897771199714],[-35.1990712679485,-5.77988905753931],[-35.1978699972101,-5.77895167353153],[-35.1992439996886,-5.77948546183736],[-35.1977986237437,-5.77826993679386]]]}},{"type":"Feature","properties":{"id":"24081020036","state":"RN","municipality":"2408102","origin":"face","accuracy":"regular","notes":""},"geometry":{"type":"Polygon","coordinates":[[[-35.2876708734881,-5.76015289107759],[-35.2873201757126,-5.75993416066821],[-35.2876289991268,-5.75860615280321],[-35.2880058683781,-5.7586478158422],[-35.2876813420784,-5.75844991637969],[-35.2880268055587,-5.75683547082134],[-35.2883408632681,-5.75706461821214],[-35.286833386263,-5.75494500132213],[-35.2843470960637,-5.75573660364069],[-35.2832217226051,-5.75406486323972],[-35.2825622014154,-5.75427318006868],[-35.2873568157787,-5.76102781187278],[-35.287299238532,-5.76013726747969],[-35.2876708734881,-5.76015289107759]]]}},{"type":"Feature","properties":{"id":"24081020010","state":"RN","municipality":"2408102","origin":"face","accuracy":"regular","notes":""},"geometry":{"type":"Polygon","coordinates":[[[-35.2452257740293,-5.83554179119083],[-35.2444337296444,-5.83511273064862],[-35.2449099182725,-5.83573797861558],[-35.2446261290901,-5.83599956174178],[-35.2448730417121,-5.83655941302242],[-35.2453492303403,-5.83663756885474],[-35.2452257740293,-5.83554179119083]]]}},{"type":"Feature","properties":{"id":"24081020044","state":"RN","municipality":"2408102","origin":"face","accuracy":"regular","notes":""},"geometry":{"type":"Polygon","coordinates":[[[-35.208715456774,-5.8144448938371],[-35.2076149462173,-5.81491616024046],[-35.2078975981558,-5.81526895886419],[-35.2089562343512,-5.81486278478367],[-35.208715456774,-5.8144448938371]]]}},{"type":"Feature","properties":{"id":"24081020004","state":"RN","municipality":"2408102","origin":"face","accuracy":"regular","notes":"Aglomerado Subnormal"},"geometry":{"type":"Polygon","coordinates":[[[-35.2737698351322,-5.83825172360739],[-35.275353923902,-5.83905879924012],[-35.2749707283393,-5.84055810661795],[-35.2751374745255,-5.84031726070333],[-35.2759134856234,-5.84096164291828],[-35.2761860515048,-5.84079576241895],[-35.2758782123916,-5.84005248957835],[-35.2765227505348,-5.83968085278818],[-35.2763271444317,-5.83919118505307],[-35.2770053524778,-5.83872544205448],[-35.2775777408289,-5.83984992363316],[-35.2785124814694,-5.83914652478231],[-35.2788283372262,-5.83939534624547],[-35.2785365314001,-5.83911302957692],[-35.2788892637173,-5.83935387600931],[-35.278632731123,-5.8390348740851],[-35.2794937186427,-5.83844791008354],[-35.2798817241915,-5.83874139216358],[-35.2795241818882,-5.83842557991901],[-35.279694134732,-5.83787211055601],[-35.2788219239113,-5.83714637900679],[-35.2789790501253,-5.83684651602635],[-35.2768321929767,-5.83743029168081],[-35.2763784509505,-5.83668063430871],[-35.2737040986548,-5.8379853564932],[-35.2716454245856,-5.84198403991129],[-35.2735790390151,-5.84271614519154],[-35.2721135965702,-5.84161878441359],[-35.2737698351322,-5.83825172360739]]]}},{"type":"Feature","properties":{"id":"24081020034","state":"RN","municipality":"2408102","origin":"face","accuracy":"regular","notes":"Aglomerado Subnormal"},"geometry":{"type":"Polygon","coordinates":[[[-35.2034327443876,-5.77074949728448],[-35.2035636017665,-5.7711986671517],[-35.2034523729944,-5.77073908174711],[-35.2036826819813,-5.77102941477975],[-35.2035570588975,-5.77066747492247],[-35.2040804884132,-5.7703498009005],[-35.2037965279009,-5.76912857697846],[-35.2029616578235,-5.76918065481134],[-35.203337218501,-5.76935381357126],[-35.2031500924491,-5.77009982777444],[-35.2034327443876,-5.77074949728448]]]}},{"type":"Feature","properties":{"id":"24081020037","state":"RN","municipality":"2408102","origin":"face","accuracy":"regular","notes":""},"geometry":{"type":"Polygon","coordinates":[[[-35.2286437270086,-5.7546950214136],[-35.2288688017004,-5.75428880382778],[-35.2283401378896,-5.75462731850277],[-35.2284657609733,-5.75405965531801],[-35.2278428798497,-5.75458044725211],[-35.2259218935273,-5.75360656594761],[-35.2262516541221,-5.75389300179838],[-35.225743927492,-5.75376801162657],[-35.2261574368093,-5.75401799194268],[-35.2258381448048,-5.75475230848568],[-35.2267593807523,-5.75527830769588],[-35.225278075223,-5.75561682178167],[-35.2248069886589,-5.75526789187466],[-35.2251158120732,-5.75620010711812],[-35.2245714453769,-5.75695525242351],[-35.2252728409279,-5.75630426515092],[-35.2246499598043,-5.75714794451318],[-35.2254403383729,-5.75637196786201],[-35.226816957999,-5.75711148925799],[-35.2276021022725,-5.7558095143251],[-35.2281831090349,-5.75578868270193],[-35.2277277253563,-5.75571056410825],[-35.2279004570964,-5.75539288171672],[-35.2290520020308,-5.75526789187474],[-35.2290258305551,-5.75474189265482],[-35.2286437270086,-5.7546950214136]]]}},{"type":"Feature","properties":{"id":"24081020046","state":"RN","municipality":"2408102","origin":"face","accuracy":"regular","notes":""},"geometry":{"type":"Polygon","coordinates":[[[-35.2178859418882,-5.80804500494149],[-35.2181856052859,-5.80774687978403],[-35.2183413255668,-5.80809707918861],[-35.2176896558198,-5.80836786519601],[-35.218364879895,-5.80813613487079],[-35.2192206871531,-5.80997174887821],[-35.2197310309308,-5.81025034509109],[-35.2186187432101,-5.80782108562404],[-35.2190152410682,-5.80761409036186],[-35.2185925717343,-5.80778202992],[-35.2186422975383,-5.80723524977941],[-35.2178859418882,-5.80804500494149]]]}},{"type":"Feature","properties":{"id":"24081020013","state":"RN","municipality":"2408102","origin":"face","accuracy":"regular","notes":"Aglomerado Subnormal"},"geometry":{"type":"Polygon","coordinates":[[[-35.2491282761202,-5.83464857928339],[-35.2497054744575,-5.83541418957684],[-35.2503981124621,-5.83511113562738],[-35.2507027449178,-5.8354428999425],[-35.2505552386761,-5.83501862438909],[-35.2536464564375,-5.83300570366699],[-35.2539895687824,-5.83314925609722],[-35.2537811360495,-5.83289405175144],[-35.2541627282835,-5.83301846388451],[-35.2538773357724,-5.83282706059141],[-35.2557115438217,-5.83073438032622],[-35.2566671277355,-5.83074714059542],[-35.2563624952797,-5.83043132384807],[-35.2571224730904,-5.8293498893971],[-35.2570647532566,-5.82853641963144],[-35.2576483649087,-5.82836415529449],[-35.2578888642159,-5.82913296424155],[-35.2584179626916,-5.82931798864419],[-35.2589823343991,-5.82914572454714],[-35.2586167754522,-5.82874058470306],[-35.2588348281574,-5.8283003536748],[-35.2585173690719,-5.82868954344212],[-35.2587193884899,-5.82817594049557],[-35.2570839932012,-5.82706260081784],[-35.2557692636554,-5.82992729271137],[-35.254547527175,-5.82942964127146],[-35.2545763870919,-5.82911382378261],[-35.2542044148301,-5.82931798864419],[-35.2525561929117,-5.82868954344212],[-35.252678045894,-5.82843752714818],[-35.251414622867,-5.82824931237382],[-35.2515460958216,-5.8272508159901],[-35.2508919377061,-5.82704346028833],[-35.2511516769578,-5.82669255046476],[-35.2508117712704,-5.82704665037665],[-35.2505392053889,-5.82681058379351],[-35.2509015576784,-5.82636078097531],[-35.2504943121849,-5.82677549280648],[-35.2500036935983,-5.82618532587758],[-35.2503339793135,-5.82556963755554],[-35.2498497740417,-5.82588545703822],[-35.2499203205052,-5.82450733435585],[-35.2495740015029,-5.8248486752427],[-35.2492501291025,-5.82452328486922],[-35.249612481392,-5.82389483430048],[-35.2491378960925,-5.82417237347083],[-35.2488525035814,-5.82388207387556],[-35.2482336186976,-5.82245290445018],[-35.2476051138416,-5.82315153906546],[-35.2480925257707,-5.82362367520851],[-35.247698106907,-5.82404795937694],[-35.2482560652996,-5.82511664364405],[-35.2476916935921,-5.82572914236698],[-35.2484548780602,-5.82530804956672],[-35.2486536908208,-5.82568767112038],[-35.2481758988639,-5.82649476483116],[-35.2496637879109,-5.82802919671021],[-35.2494874217523,-5.82929246804057],[-35.2499620070517,-5.82911382378261],[-35.2500325535152,-5.82997833385974],[-35.2513408697461,-5.83091940420086],[-35.2509817241141,-5.8317998618026],[-35.2501191332657,-5.83209653742237],[-35.2507893246684,-5.83396271917441],[-35.2501255465806,-5.83420516284369],[-35.2497824342357,-5.83324814775002],[-35.2490609363142,-5.83347145141795],[-35.2489166367299,-5.83310778539894],[-35.2489968031657,-5.83351292208936],[-35.2483137851333,-5.83372027540033],[-35.2482079654382,-5.83334384933286],[-35.2482913385313,-5.83474428062725],[-35.2461909779154,-5.83551308083018],[-35.2457099793011,-5.83421792303389],[-35.2461172247945,-5.83553541111077],[-35.2453091471225,-5.83587993532723],[-35.2454438267345,-5.83672210474268],[-35.245828625626,-5.8366646841409],[-35.2491282761202,-5.83464857928339]]]}},{"type":"Feature","properties":{"id":"24081020042","state":"RN","municipality":"2408102","origin":"face","accuracy":"regular","notes":""},"geometry":{"type":"Polygon","coordinates":[[[-35.197628395044,-5.87910077087214],[-35.1979406601943,-5.87882116185913],[-35.1960327596098,-5.88009421485291],[-35.1954622214377,-5.87945118026903],[-35.1958809650502,-5.88021917695265],[-35.1948681289374,-5.88138028178988],[-35.197628395044,-5.87910077087214]]]}},{"type":"Feature","properties":{"id":"24081020040","state":"RN","municipality":"2408102","origin":"face","accuracy":"regular","notes":"Aglomerado Subnormal"},"geometry":{"type":"Polygon","coordinates":[[[-35.2375420287746,-5.75305973346748],[-35.2400126160885,-5.750044333493],[-35.2410280693488,-5.75037764273876],[-35.2406773715733,-5.75012245286501],[-35.2411850982035,-5.74942458609516],[-35.2416404818821,-5.74959124092395],[-35.2414206414856,-5.74911210815962],[-35.2421534428075,-5.74891941334718],[-35.2412636126309,-5.74816425737229],[-35.2415305616839,-5.74776324310248],[-35.2443832525441,-5.74482072715743],[-35.2462833016859,-5.74196152453413],[-35.2466025936905,-5.74215422170106],[-35.2468067312016,-5.7411803191358],[-35.2499682454761,-5.73721177917732],[-35.2512087734282,-5.73887315294166],[-35.2600756694232,-5.74618001517409],[-35.2611958085867,-5.74605502330803],[-35.2612219800625,-5.74639875087368],[-35.2603844928375,-5.7465654065884],[-35.2612847916044,-5.74649770271018],[-35.2616825980363,-5.74706537343985],[-35.2612795573092,-5.74732056468437],[-35.2614522890494,-5.74768512340665],[-35.2619600156796,-5.74748201214734],[-35.2617768153491,-5.74807051380208],[-35.2626875827063,-5.74738306048193],[-35.265637108027,-5.75011464092829],[-35.2670137276531,-5.74865120289153],[-35.2674377055608,-5.74892982928465],[-35.2671131792611,-5.7485574594015],[-35.2677910204839,-5.74791948246199],[-35.2682228498343,-5.74819290123793],[-35.2678852377967,-5.74784917475553],[-35.2685526104291,-5.74723463295156],[-35.2689190110901,-5.74750284407472],[-35.2686180391186,-5.74716172116807],[-35.2693194346696,-5.74651593067818],[-35.2696099380507,-5.746825806045],[-35.2693953319493,-5.74644562279837],[-35.2704631281613,-5.74543006356614],[-35.2707431629521,-5.74573473152599],[-35.270805974494,-5.74511237543438],[-35.2712037809259,-5.74533371554491],[-35.270905426102,-5.74501863136166],[-35.2715309243732,-5.74438585846708],[-35.2718475992301,-5.74471917102591],[-35.2715727987344,-5.74434159037816],[-35.2730698071492,-5.74291459366969],[-35.2751609080642,-5.74505769139384],[-35.2755246915776,-5.74475823107863],[-35.2758780065006,-5.7450837314138],[-35.2756476975137,-5.74465927893986],[-35.2763203044414,-5.74459678284337],[-35.2761397212585,-5.74410722985024],[-35.2764720990009,-5.74443012655251],[-35.2763883502784,-5.74385724518078],[-35.2766919393975,-5.7442061820849],[-35.276459013263,-5.74379735300414],[-35.2769405684174,-5.74396400948013],[-35.2768542025473,-5.74340935570704],[-35.2771813459946,-5.74373225280493],[-35.2770975972721,-5.74314114265591],[-35.2774482950476,-5.74342237575484],[-35.2771682602567,-5.74305521029242],[-35.2817809828633,-5.74720208304938],[-35.2823057209528,-5.74728020281149],[-35.2819353945705,-5.74695600572863],[-35.2824784526929,-5.74698725364827],[-35.2822625380178,-5.74641177085315],[-35.2826734301875,-5.74667607637202],[-35.2824418126269,-5.74612402923749],[-35.2829102820434,-5.74628938303441],[-35.2824836869881,-5.74605632530677],[-35.2830280536844,-5.74606674129665],[-35.282664270171,-5.74576858351147],[-35.2828670991083,-5.745422251565],[-35.2833264085083,-5.74561234356169],[-35.2822272065254,-5.74491447126272],[-35.2826577273021,-5.7441293639042],[-35.2830542251602,-5.74439236847984],[-35.2827048359585,-5.7440538477165],[-35.2842620387675,-5.74160086817496],[-35.2846533023305,-5.74181049157396],[-35.284352330359,-5.74146676123952],[-35.2848024797424,-5.7403340120791],[-35.2862131222871,-5.74053452186459],[-35.2866187801617,-5.73978716685109],[-35.2863151910427,-5.73968300579581],[-35.2863910883224,-5.73915178411774],[-35.28672870036,-5.73917261634975],[-35.2864067912079,-5.73905283100538],[-35.2868045976398,-5.73839401116152],[-35.2865140942586,-5.73832630631227],[-35.2866397173424,-5.73702428841717],[-35.2869590093469,-5.73701908033961],[-35.2866920602939,-5.73651910467341],[-35.2852552462735,-5.7363107813498],[-35.2856870756239,-5.73532384857014],[-35.2853494635863,-5.73535249308121],[-35.2854175094233,-5.73449836522411],[-35.2857603557561,-5.73447232472057],[-35.2854175094233,-5.73438378699968],[-35.2857682071988,-5.73422493987773],[-35.2854436808991,-5.73409994539002],[-35.2857943786746,-5.73395672250586],[-35.2854620009322,-5.73383693606607],[-35.2858205501504,-5.73368850500791],[-35.2854907895555,-5.73354528202051],[-35.2858388701834,-5.73341247521822],[-35.2855195781789,-5.73328227244089],[-35.2858650416592,-5.73315727774669],[-35.2855457496547,-5.73303488708211],[-35.2859461732341,-5.73222502478902],[-35.2856975442142,-5.73170421241791],[-35.2859749618575,-5.73181358305525],[-35.2857315671327,-5.73156098893252],[-35.2861372250074,-5.73125110526845],[-35.2781810963695,-5.72729551666465],[-35.2784715997507,-5.72704812871206],[-35.278966240643,-5.72624086201633],[-35.278432342537,-5.72701167153103],[-35.2777728213473,-5.7271028144792],[-35.2740800261144,-5.73007146255465],[-35.272543760486,-5.73405046839775],[-35.2699344643505,-5.73738885372748],[-35.2632921437969,-5.73703470457213],[-35.2629388288738,-5.73648264809726],[-35.2630827719906,-5.73702689245594],[-35.2620594672875,-5.73783935196752],[-35.2604891787406,-5.73619880753191],[-35.2572125099726,-5.73123287681241],[-35.2535406519204,-5.73371454554723],[-35.2530250738475,-5.73298020188305],[-35.2512820535603,-5.73430566546982],[-35.2508947157188,-5.73385516443896],[-35.2511642819193,-5.73457127862767],[-35.2500624627889,-5.73602694069893],[-35.2496568049142,-5.73570664328106],[-35.2497745765552,-5.73657118549242],[-35.2474453152106,-5.73474054185007],[-35.2464036904745,-5.7351597936154],[-35.2453542142956,-5.73484470380811],[-35.2451945682933,-5.73574049586217],[-35.2446344987116,-5.73611027007896],[-35.2447836761236,-5.73654254104256],[-35.2476442184266,-5.73873253528703],[-35.2460058840426,-5.74065170287541],[-35.2454876888221,-5.74029755574689],[-35.2459640096814,-5.74070117929498],[-35.2457153806614,-5.74095116534911],[-35.2446973102535,-5.74020120685769],[-35.2456237804962,-5.74105532617267],[-35.2448124647469,-5.74210214139207],[-35.243608576861,-5.74099803772206],[-35.2447862932711,-5.74216984579279],[-35.2433560221196,-5.74133395628204],[-35.2446698302039,-5.74244717335021],[-35.2445036413327,-5.74274012484879],[-35.2431165531162,-5.74162300232634],[-35.2444264354791,-5.74282084923524],[-35.2442118293777,-5.74306302232601],[-35.2428744669652,-5.7419589205179],[-35.2441411663931,-5.74315806872598],[-35.24391216598,-5.7434653419105],[-35.2431518846085,-5.74271799074083],[-35.243812714372,-5.74360075037991],[-35.2427566953242,-5.74244717335021],[-35.2437917771914,-5.74363981050933],[-35.243527445286,-5.74399135155356],[-35.2425015234353,-5.74280392315517],[-35.2435117424005,-5.74402520364265],[-35.2378730979432,-5.75136975738498],[-35.2371232851621,-5.75100520102313],[-35.2378102864013,-5.75146480239807],[-35.2369780334715,-5.75122002890748],[-35.2376113831854,-5.75175123932776],[-35.2373562112965,-5.75210668131723],[-35.2365658327279,-5.75178899691229],[-35.2372776968692,-5.75222125597714],[-35.2370251421279,-5.75259752941373],[-35.2362256035427,-5.75222906788493],[-35.2369570962909,-5.75268866827097],[-35.2367712788128,-5.75296338673804],[-35.2375420287746,-5.75305973346748]]]}},{"type":"Feature","properties":{"id":"24081020006","state":"RN","municipality":"2408102","origin":"face","accuracy":"regular","notes":""},"geometry":{"type":"Polygon","coordinates":[[[-35.2787914606657,-5.83077904126711],[-35.2793686590029,-5.83051107556875],[-35.280244076481,-5.82841200650454],[-35.2803050029721,-5.82355030272591],[-35.2800773302947,-5.82223278651473],[-35.2795770917358,-5.82167451600186],[-35.2786599877111,-5.82123746955618],[-35.2771400320899,-5.8209694993046],[-35.2790287533155,-5.82144801752135],[-35.2800612970075,-5.82256136832873],[-35.2801222234987,-5.82354073240137],[-35.2793333857712,-5.82349288077626],[-35.27893576025,-5.82668617028414],[-35.2779962096234,-5.8293371290962],[-35.2789165203054,-5.82967846704661],[-35.2783425286257,-5.83062272795864],[-35.2787048809151,-5.8307407604609],[-35.27826236219,-5.83198488532585],[-35.2785509613585,-5.83290362191652],[-35.2783938351445,-5.8323134614322],[-35.2787914606657,-5.83077904126711]]]}},{"type":"Feature","properties":{"id":"24081020035","state":"RN","municipality":"2408102","origin":"face","accuracy":"regular","notes":"Aglomerado Subnormal"},"geometry":{"type":"Polygon","coordinates":[[[-35.1967851895389,-5.76808441542013],[-35.1976226767639,-5.76790995432397],[-35.197510139418,-5.76755322027375],[-35.1987794559935,-5.76740479801157],[-35.1965417948141,-5.76731366151554],[-35.19573571336,-5.77001129559924],[-35.1960497710694,-5.76968841343125],[-35.1964737489771,-5.76998786060937],[-35.1962748457611,-5.77094869439996],[-35.1967642523582,-5.7712793874959],[-35.1967851895389,-5.76808441542013]]]}},{"type":"Feature","properties":{"id":"24081020024","state":"RN","municipality":"2408102","origin":"face","accuracy":"regular","notes":"Aglomerado Subnormal"},"geometry":{"type":"Polygon","coordinates":[[[-35.2460255126493,-5.80315130609045],[-35.2442694066243,-5.80457815111252],[-35.2435313710073,-5.80395325592693],[-35.243104775952,-5.80448962433667],[-35.2426546265686,-5.8039740857776],[-35.241547573143,-5.80417457305106],[-35.2411707038917,-5.80470573379441],[-35.241063400841,-5.80291957362004],[-35.239220928946,-5.80284927273941],[-35.2385771106417,-5.80059963993109],[-35.2378338407295,-5.801149030253],[-35.2373967770839,-5.80223479059475],[-35.2385221505426,-5.80423445884618],[-35.2417464763589,-5.80630962790287],[-35.2433691078574,-5.80489320217256],[-35.2436465255007,-5.80511712265362],[-35.2441594864261,-5.80560662293027],[-35.2433481706768,-5.80621589395721],[-35.2438140229457,-5.80654396269883],[-35.2430916902142,-5.80723655163718],[-35.2451749396864,-5.80600238880051],[-35.2461956272419,-5.80670539327938],[-35.2459548496647,-5.80535145794548],[-35.2461851586516,-5.80501297360372],[-35.2467609311188,-5.80519002697707],[-35.2464573419998,-5.80487237235583],[-35.2469179599735,-5.80421623273528],[-35.2460255126493,-5.80315130609045]]]}},{"type":"Feature","properties":{"id":"24081020038","state":"RN","municipality":"2408102","origin":"face","accuracy":"regular","notes":"Aglomerado Subnormal"},"geometry":{"type":"Polygon","coordinates":[[[-35.2138254374207,-5.74002413318097],[-35.2141290265397,-5.73959707291086],[-35.2137521572885,-5.73912834785584],[-35.2141499637204,-5.73873253528704],[-35.2136893457466,-5.73904501891683],[-35.2132601335438,-5.73845650793829],[-35.2127733440942,-5.73881065621056],[-35.2124069434333,-5.73832109824663],[-35.211192586957,-5.73896168996565],[-35.2107476718687,-5.73845129987382],[-35.2098526073969,-5.7397116500879],[-35.2089261371542,-5.73959186485681],[-35.2082666159645,-5.74052410577358],[-35.2093815208328,-5.74187298797611],[-35.2138254374207,-5.74002413318097]]]}},{"type":"Feature","properties":{"id":"24081020007","state":"RN","municipality":"2408102","origin":"face","accuracy":"regular","notes":""},"geometry":{"type":"Polygon","coordinates":[[[-35.2605551998679,-5.83796302631022],[-35.2643390556339,-5.83986427870254],[-35.2655704120866,-5.83640948139526],[-35.2659455910058,-5.83650837247299],[-35.2621392886377,-5.83451140732874],[-35.2605551998679,-5.83796302631022]]]}},{"type":"Feature","properties":{"id":"24081020043","state":"RN","municipality":"2408102","origin":"face","accuracy":"regular","notes":""},"geometry":{"type":"Polygon","coordinates":[[[-35.2361196090658,-5.83057317604592],[-35.2362844893632,-5.83089602336243],[-35.2357819970282,-5.82944060536189],[-35.236025391753,-5.83031802239015],[-35.2339735480516,-5.83172917686932],[-35.2333297297474,-5.83030240073399],[-35.2341044054305,-5.83243475277777],[-35.2341436626442,-5.83215616756201],[-35.2361196090658,-5.83057317604592]]]}},{"type":"Feature","properties":{"id":"24091020011","state":"RN","municipality":"2408102","origin":"face","accuracy":"regular","notes":""},"geometry":{"type":"Polygon","coordinates":[[[-35.2443006533611,-5.83409032111872],[-35.2450766644588,-5.83474428062728],[-35.2450798711163,-5.83225923043762],[-35.2447880652902,-5.83240916317455],[-35.2446950722248,-5.83181581210877],[-35.2442878267314,-5.83216671872888],[-35.2439318877567,-5.83174882082001],[-35.2442108669531,-5.83223370996776],[-35.2438196547468,-5.83256228592834],[-35.243402789281,-5.83222413979127],[-35.2436208419862,-5.83319391684586],[-35.2443006533611,-5.83409032111872]]]}},{"type":"Feature","properties":{"id":"24081020033","state":"RN","municipality":"2408102","origin":"face","accuracy":"regular","notes":"Aglomerado Subnormal"},"geometry":{"type":"Polygon","coordinates":[[[-35.2484895570942,-5.77707039122177],[-35.2468355198248,-5.77713809145481],[-35.2476834756402,-5.77921075621111],[-35.2480655791866,-5.77932532539845],[-35.2488873635261,-5.77765365450259],[-35.2485994772926,-5.77671626679391],[-35.2484895570942,-5.77707039122177]]]}},{"type":"Feature","properties":{"id":"24081020039","state":"RN","municipality":"2408102","origin":"face","accuracy":"regular","notes":""},"geometry":{"type":"Polygon","coordinates":[[[-35.2549565287602,-5.72675386711317],[-35.2542708360947,-5.72730593299718],[-35.2533548344423,-5.72557161102002],[-35.2542760703898,-5.72474871767007],[-35.2519886834065,-5.71848843960697],[-35.2502299602339,-5.72011861844703],[-35.2486701402773,-5.7181707364807],[-35.2491359925462,-5.717202001269],[-35.2485706886693,-5.71809261273409],[-35.2482985053212,-5.71779574239974],[-35.246152444307,-5.71973841740769],[-35.249062712414,-5.73071727167125],[-35.25093659008,-5.73403484408353],[-35.2512297106088,-5.73431087357215],[-35.2515542369085,-5.7335765306754],[-35.2519311061597,-5.73382651985273],[-35.2519311061598,-5.73327966838507],[-35.2522242266885,-5.73362861176304],[-35.2520881350145,-5.73314946557743],[-35.2525906273495,-5.73332133327722],[-35.2524807071512,-5.7328369787179],[-35.2529989023717,-5.73299843028336],[-35.2532501485392,-5.7322745019396],[-35.253511863297,-5.73263386216745],[-35.2535537376583,-5.73201930395924],[-35.2539986527466,-5.73228491818127],[-35.2537212351033,-5.73188389273965],[-35.2542656017995,-5.73207659331169],[-35.2541242758303,-5.73159223769607],[-35.2543912248833,-5.73138912070268],[-35.2546686425266,-5.7317536896136],[-35.2545273165574,-5.73125370933359],[-35.255050746073,-5.73145161824679],[-35.2549355915796,-5.73096726210088],[-35.2556317528354,-5.7310297596912],[-35.2553595694872,-5.73065998218236],[-35.2558829990029,-5.73081622622938],[-35.2560347935624,-5.73016520908469],[-35.2568513436068,-5.73093080517005],[-35.2549565287602,-5.72675386711317]]]}},{"type":"Feature","properties":{"id":"24081020023","state":"RN","municipality":"2408102","origin":"face","accuracy":"regular","notes":"Aglomerado Subnormal"},"geometry":{"type":"Polygon","coordinates":[[[-35.2376283946446,-5.80308230710642],[-35.236695381533,-5.80350931955128],[-35.2364938611695,-5.80323462560709],[-35.2366482728766,-5.80352624381833],[-35.2360096888675,-5.80344162247792],[-35.2360528718025,-5.80371892005372],[-35.2333768384038,-5.80399101003071],[-35.23270554005,-5.80225431863929],[-35.2307479136615,-5.80298857262399],[-35.2356550653706,-5.80708423421814],[-35.2362046663621,-5.80678741041143],[-35.2361784948863,-5.80740188759244],[-35.2363800152498,-5.80660775382088],[-35.2376650347107,-5.8054282678255],[-35.2379188980258,-5.80575373330264],[-35.237774954909,-5.80529547785683],[-35.2387668538411,-5.80432949498626],[-35.2376283946446,-5.80308230710642]]]}},{"type":"Feature","properties":{"id":"24081020008","state":"RN","municipality":"2408102","origin":"face","accuracy":"regular","notes":""},"geometry":{"type":"Polygon","coordinates":[[[-35.2520158711348,-5.8399344590365],[-35.2534813135798,-5.84057565168055],[-35.2528463954089,-5.84211642503284],[-35.2531574411795,-5.84242904519572],[-35.2547030500602,-5.84306385498936],[-35.2549050694782,-5.84257259521205],[-35.2553187282866,-5.84275761517877],[-35.2549659959694,-5.84244180519865],[-35.2550942622665,-5.84211004502773],[-35.255456614556,-5.84226954513443],[-35.2551519821003,-5.84196649489284],[-35.2557291804375,-5.84068092204449],[-35.2564795382758,-5.84136677393128],[-35.2568899904267,-5.84102544309725],[-35.2566462844621,-5.8406841120552],[-35.2579032941742,-5.83990255888582],[-35.2574287088747,-5.84005248957835],[-35.2571529363359,-5.83969201784556],[-35.2576275216353,-5.83915928486004],[-35.2569092303713,-5.83866483163577],[-35.257079183215,-5.83829478893728],[-35.2591506839141,-5.83759298314832],[-35.2549082761357,-5.83507923520213],[-35.2535999599047,-5.83551627087037],[-35.252503283064,-5.83681780573259],[-35.2517272719663,-5.83886261297783],[-35.2500117102418,-5.84063945190348],[-35.2476644370039,-5.8401003397909],[-35.2468884259061,-5.83925817545254],[-35.2457468558615,-5.83885623293704],[-35.2450766644589,-5.83917842497607],[-35.2454005368592,-5.84035554084871],[-35.2457901804212,-5.84052606838096],[-35.2454454300631,-5.84003972952096],[-35.2485462677968,-5.84198244490963],[-35.2499668170378,-5.84173681460045],[-35.2506594550425,-5.84245456520131],[-35.2520158711348,-5.8399344590365]]]}},{"type":"Feature","properties":{"id":"24081020020","state":"RN","municipality":"2408102","origin":"face","accuracy":"regular","notes":"Aglomerado Subnormal"},"geometry":{"type":"Polygon","coordinates":[[[-35.2178885590359,-5.8093221244628],[-35.2172800722239,-5.80792913972406],[-35.2146053473991,-5.8089120405284],[-35.2148173363529,-5.80952651539161],[-35.2159911270417,-5.80928176700949],[-35.2162724704063,-5.81005767108905],[-35.2152269199488,-5.81047296159168],[-35.2150973711437,-5.81021649696008],[-35.2155095718873,-5.81136472856383],[-35.2167108426257,-5.81092991097577],[-35.2169647059408,-5.81131525831627],[-35.2168259971191,-5.81087783699061],[-35.2175300098177,-5.81060965589076],[-35.2171832377636,-5.80967362474029],[-35.2178885590359,-5.8093221244628]]]}},{"type":"Feature","properties":{"id":"24081020021","state":"RN","municipality":"2408102","origin":"face","accuracy":"regular","notes":"Aglomerado Subnormal"},"geometry":{"type":"Polygon","coordinates":[[[-35.2272147644309,-5.80719749589265],[-35.2260606023489,-5.80732117240775],[-35.2246905255917,-5.80809447547605],[-35.2254586584059,-5.80852538968818],[-35.224868491627,-5.80862302881427],[-35.2256117615392,-5.81059012813577],[-35.2253919211426,-5.80993008961921],[-35.2260383565945,-5.80968664326491],[-35.2256902759666,-5.80893156834157],[-35.2264963574206,-5.80863734921802],[-35.2272487873494,-5.80986629887345],[-35.2260645280702,-5.81066693730147],[-35.2282734006263,-5.80983505442392],[-35.2272147644309,-5.80719749589265]]]}},{"type":"Feature","properties":{"id":"24081020032","state":"RN","municipality":"2408102","origin":"face","accuracy":"regular","notes":"Aglomerado Subnormal"},"geometry":{"type":"Polygon","coordinates":[[[-35.2156940807915,-5.78764454870613],[-35.2125220979267,-5.7854990079879],[-35.2095280810973,-5.78194739114266],[-35.2093134749958,-5.78211403641991],[-35.2110826667587,-5.78446268807477],[-35.2116793764066,-5.78816530978834],[-35.2126791267814,-5.78973279775004],[-35.2159924356155,-5.79015982029502],[-35.2156155663642,-5.79004004571133],[-35.2161232929944,-5.7881288565282],[-35.2164949279505,-5.78810802609278],[-35.2162384474878,-5.7876341334796],[-35.2156940807915,-5.78764454870613]]]}},{"type":"Feature","properties":{"id":"24081020015","state":"RN","municipality":"2408102","origin":"face","accuracy":"regular","notes":""},"geometry":{"type":"Polygon","coordinates":[[[-35.2399877531864,-5.81863550581767],[-35.2397561356257,-5.81823193783375],[-35.2401604849266,-5.81857952705009],[-35.239958964563,-5.81816684619632],[-35.2402533936656,-5.81854177392464],[-35.2400257018263,-5.81813560220765],[-35.2405151084234,-5.81844804201599],[-35.2402769479938,-5.81805098306304],[-35.2406027828673,-5.81841419437847],[-35.2403750910279,-5.81801062623572],[-35.2409456292,-5.81826969098001],[-35.2409482463476,-5.8178140493903],[-35.2412688469259,-5.8181785626916],[-35.2396763126246,-5.81590425619649],[-35.2383860588685,-5.81629480747934],[-35.2399877531864,-5.81863550581767]]]}},{"type":"Feature","properties":{"id":"24081020030","state":"RN","municipality":"2408102","origin":"face","accuracy":"regular","notes":""},"geometry":{"type":"Polygon","coordinates":[[[-35.1926527135129,-5.78321610727152],[-35.1919421579454,-5.78403826504965],[-35.1951311522695,-5.78074572101109],[-35.1958063763446,-5.78105037001829],[-35.1953143525999,-5.78067671929012],[-35.1958875079196,-5.77929147541369],[-35.1954177299293,-5.77993071901476],[-35.1943250708154,-5.77975235580152],[-35.194656139984,-5.78007653415462],[-35.1921031125215,-5.783490159997],[-35.1926527135129,-5.78321610727152]]]}},{"type":"Feature","properties":{"id":"24081020002","state":"RN","municipality":"2408102","origin":"face","accuracy":"regular","notes":""},"geometry":{"type":"Polygon","coordinates":[[[-35.2090739181765,-5.84803544347535],[-35.2089151886338,-5.84851074862705],[-35.20896970181,-5.84868460175281],[-35.2091156047231,-5.84812954754753],[-35.2093593106877,-5.84841823960234],[-35.2101513550726,-5.8476845467955],[-35.2120849695022,-5.84718850611352],[-35.2118508835099,-5.84662228550491],[-35.2124441151342,-5.84627617290706],[-35.2090739181765,-5.84803544347535]]]}},{"type":"Feature","properties":{"id":"24081020028","state":"RN","municipality":"2408102","origin":"face","accuracy":"regular","notes":"Aglomerado Subnormal"},"geometry":{"type":"Polygon","coordinates":[[[-35.1877259331969,-5.79726423033046],[-35.1877049960163,-5.796634119511],[-35.1882415112698,-5.79686585456359],[-35.1880216708733,-5.79654559148826],[-35.1887256835718,-5.79638155423297],[-35.1884665859615,-5.79613159260939],[-35.1888303694749,-5.79579049896534],[-35.1891705986601,-5.79610295116631],[-35.1889245867878,-5.79568374442369],[-35.1892595816778,-5.79531140525462],[-35.1896312166339,-5.7955561597011],[-35.1894584848937,-5.79528015999851],[-35.1902279262817,-5.79487917905805],[-35.1904608524162,-5.79423344291898],[-35.1906911614031,-5.79447559405768],[-35.1906466698942,-5.79382725367892],[-35.1911884194429,-5.79380121589717],[-35.1909659618988,-5.79349657376134],[-35.1915391172184,-5.7933559696432],[-35.1913088082315,-5.79309559155425],[-35.1917066146634,-5.79269200527911],[-35.1921279754235,-5.79308517642818],[-35.191827003452,-5.79263992960969],[-35.1926487877915,-5.79291332682055],[-35.1926357020536,-5.79166611370731],[-35.1928450738599,-5.79190826594682],[-35.193049211371,-5.79120524302918],[-35.1933083089813,-5.7914369803098],[-35.193216708816,-5.79099433598328],[-35.1934627206884,-5.79124429988089],[-35.193415612032,-5.79060637096484],[-35.1937218182986,-5.79089539190993],[-35.1936249838382,-5.79030172710591],[-35.1938971671864,-5.79064803165071],[-35.193166983012,-5.78937737934916],[-35.1925545704787,-5.78965858953098],[-35.1925048446748,-5.7889894132205],[-35.1917668090577,-5.79058554062074],[-35.1912878710509,-5.79033818022588],[-35.1914370484628,-5.79127554536032],[-35.1880373737587,-5.79520725439415],[-35.1877678075582,-5.79501457525162],[-35.1879457735935,-5.79530880148335],[-35.1868151658397,-5.79658204420518],[-35.18647886101062,-5.796673294702187],[-35.18604968206212,-5.7980137202666],[-35.1871239892539,-5.7969179298432],[-35.1877259331969,-5.79726423033046]]]}},{"type":"Feature","properties":{"id":"24081020029","state":"RN","municipality":"2408102","origin":"face","accuracy":"regular","notes":"Aglomerado Subnormal"},"geometry":{"type":"MultiPolygon","coordinates":[[[[-35.1905039272101,-5.78936390007771],[-35.1919159864696,-5.78831502851069],[-35.1922509813596,-5.78869257989525],[-35.1933109261288,-5.78778905995455],[-35.1926487877915,-5.7879869491717],[-35.1933423318998,-5.78703395572623],[-35.1929471426155,-5.78718758046131],[-35.1930308913379,-5.78663817655547],[-35.1906492870418,-5.7873646394262],[-35.1907801444207,-5.78705218239188],[-35.1903744865461,-5.78748701838426],[-35.190790613011,-5.78695584143815],[-35.190170349035,-5.78638821062059],[-35.189472522271,-5.787323395088971],[-35.18934432944087,-5.7877237710796265],[-35.18748847123154,-5.7935200474263535],[-35.1887557807689,-5.79222853165278],[-35.1905039272101,-5.78936390007771]]],[[[-35.1872901781251,-5.79574493300492],[-35.1875047842265,-5.79542727306436],[-35.18702959725113,-5.79495321747425],[-35.18691081815704,-5.795324192180248],[-35.18677812930439,-5.795738610293764],[-35.1869538746613,-5.79550538618106],[-35.1872901781251,-5.79574493300492]]]]}},{"type":"Feature","properties":{"id":"24081020016","state":"RN","municipality":"2408102","origin":"face","accuracy":"regular","notes":"Aglomerado Subnormal"},"geometry":{"type":"Polygon","coordinates":[[[-35.2414952301914,-5.80934946338114],[-35.2432748905446,-5.80799553440194],[-35.2405033312593,-5.80975043403104],[-35.241683664817,-5.81076327420631],[-35.2421416656433,-5.81026857100641],[-35.2414952301914,-5.80934946338114]]]}},{"type":"Feature","properties":{"id":"24081020027","state":"RN","municipality":"2408102","origin":"face","accuracy":"regular","notes":"Aglomerado Subnormal"},"geometry":{"type":"Polygon","coordinates":[[[-35.2229056309434,-5.7918301523325],[-35.2225313788397,-5.79147603714551],[-35.2229291852716,-5.79228841871558],[-35.2221414238505,-5.79258525015165],[-35.2229396538619,-5.79238996632966],[-35.2222618126391,-5.79285604360638],[-35.2229475053047,-5.79273887337749],[-35.2229475053047,-5.79303049701326],[-35.2223141555907,-5.79321015792819],[-35.2232301572431,-5.79313725205656],[-35.2233165231131,-5.79345491328553],[-35.2236541351508,-5.79299144028505],[-35.2229056309434,-5.7918301523325]]]}},{"type":"Feature","properties":{"id":"24081020009","state":"RN","municipality":"2408102","origin":"face","accuracy":"regular","notes":""},"geometry":{"type":"Polygon","coordinates":[[[-35.2355689251823,-5.83282068048057],[-35.233644930725,-5.83435828510716],[-35.2340104896719,-5.83502500447502],[-35.2335359043724,-5.83527701780953],[-35.2331767587404,-5.83474428062728],[-35.2334749778813,-5.83531848834737],[-35.2332280652593,-5.83504733477506],[-35.233398018103,-5.83540461945468],[-35.2328496796827,-5.83584803494574],[-35.232493740708,-5.83530572818222],[-35.2327951665064,-5.83589588551735],[-35.2323847143555,-5.83624359954825],[-35.2320063287789,-5.83568853301092],[-35.2322885146326,-5.83630740025371],[-35.2317273495825,-5.83548118042783],[-35.2332312719167,-5.83805872708821],[-35.2329971859244,-5.83750685237729],[-35.2332921984078,-5.83719103943695],[-35.2340650028482,-5.8366997745094],[-35.2337411304479,-5.83693583693094],[-35.2341195160245,-5.83681461569994],[-35.2340233163016,-5.8373250207061],[-35.2347063343339,-5.83752280252105],[-35.2353893523663,-5.8362850700146],[-35.2403115715196,-5.83561835214524],[-35.2405264175673,-5.83532486842985],[-35.2401736852501,-5.83503776464659],[-35.2383362705434,-5.83478894124883],[-35.2378328253271,-5.83424025336604],[-35.2383619238028,-5.83366923459243],[-35.2372909002216,-5.83475066071578],[-35.2374672663802,-5.8337234654507],[-35.2387114494626,-5.83228156084776],[-35.2355689251823,-5.83282068048057]]]}},{"type":"Feature","properties":{"id":"24081020012","state":"RN","municipality":"2408102","origin":"face","accuracy":"regular","notes":""},"geometry":{"type":"Polygon","coordinates":[[[-35.243346672776,-5.82714554310497],[-35.2436849751347,-5.82740234510836],[-35.2435663288098,-5.82708971656694],[-35.2440264841509,-5.82704027020007],[-35.2442798100878,-5.82738160954723],[-35.2441916270085,-5.82677708785145],[-35.2445844425435,-5.82675475722223],[-35.2442172802679,-5.8266829801938],[-35.2443615798522,-5.82614704475812],[-35.2439158544696,-5.82565896025558],[-35.2429346172964,-5.8261948961571],[-35.2426011249238,-5.82572914236702],[-35.243346672776,-5.82714554310497]]]}},{"type":"Feature","properties":{"id":"24081020014","state":"RN","municipality":"2408102","origin":"face","accuracy":"regular","notes":"Aglomerado Subnormal"},"geometry":{"type":"Polygon","coordinates":[[[-35.2499643197545,-5.819403586019],[-35.2495246389614,-5.81968998853733],[-35.2491058953488,-5.81934370183763],[-35.2500349827391,-5.81780754022207],[-35.24931003286,-5.81664630340206],[-35.2469755372202,-5.81780754022207],[-35.2454340372966,-5.81618545314747],[-35.2441228463599,-5.81667234012834],[-35.2450440823075,-5.81842981636527],[-35.2448268590585,-5.81767214950555],[-35.2453345856886,-5.8178387842281],[-35.2458501637616,-5.81884379885731],[-35.2463029302926,-5.82122874866043],[-35.2477004870994,-5.82092412135627],[-35.2474283037512,-5.82014302495021],[-35.2469886229581,-5.82033309184227],[-35.2472136976498,-5.81926038470512],[-35.2475408410971,-5.81962750072761],[-35.2484699284873,-5.8192265371165],[-35.2490326152167,-5.81959104950203],[-35.2487892204919,-5.8209527615372],[-35.2496319420121,-5.82005710427928],[-35.2505453265169,-5.8207470729327],[-35.2502417373978,-5.82037475033058],[-35.2505557951072,-5.82000503113897],[-35.2499643197545,-5.819403586019]]]}},{"type":"Feature","properties":{"id":"24081020025","state":"RN","municipality":"2408102","origin":"face","accuracy":"regular","notes":""},"geometry":{"type":"Polygon","coordinates":[[[-35.1959961195441,-5.81329276298411],[-35.194904769004,-5.81215755378058],[-35.1951010550724,-5.81063959844707],[-35.1948445746097,-5.81214193161961],[-35.1941614990918,-5.81213932792607],[-35.19543866711,-5.81305843099663],[-35.1954700728809,-5.81439932938451],[-35.1961950227601,-5.81453472088876],[-35.1959961195441,-5.81329276298411]]]}},{"type":"Feature","properties":{"id":"24081020041","state":"RN","municipality":"2408102","origin":"face","accuracy":"regular","notes":"Aglomerado Subnormal"},"geometry":{"type":"Polygon","coordinates":[[[-35.2368654961256,-5.75312873854751],[-35.2356956311581,-5.75460258089879],[-35.2350727500345,-5.75385524435356],[-35.2346827950453,-5.75393857112504],[-35.2348241210146,-5.75369379869909],[-35.2337798791308,-5.75348808562135],[-35.2343478001553,-5.7534698578767],[-35.2339997195274,-5.75313655044285],[-35.2347482237348,-5.75209756742285],[-35.2341148740209,-5.75205069596367],[-35.2332957068289,-5.75265742066443],[-35.2325602883594,-5.75233452862958],[-35.2331805523354,-5.75276157934623],[-35.2322828707161,-5.75262356908873],[-35.2328063002317,-5.75304280769187],[-35.2319635787115,-5.7529516688914],[-35.2324241966853,-5.75333445175525],[-35.232146779042,-5.75353495696208],[-35.2315997951982,-5.75325633282438],[-35.2349418926556,-5.75563114352704],[-35.2342823714659,-5.75645920018493],[-35.2336437874568,-5.75605037991255],[-35.2341855370055,-5.75661804110943],[-35.2339813994944,-5.75688885175591],[-35.2331857866306,-5.75653471473073],[-35.2339185879525,-5.75701384124151],[-35.2307623079731,-5.76082340341487],[-35.2311993716187,-5.7610655688411],[-35.2371586166544,-5.7533214319342],[-35.2368654961256,-5.75312873854751]]]}},{"type":"Feature","properties":{"id":"24093080002","state":"RN","municipality":"2409308","origin":"face","accuracy":"regular","notes":""},"geometry":{"type":"Polygon","coordinates":[[[-37.6386887773017,-6.10320909395856],[-37.637304075965,-6.10360290654293],[-37.6373760864353,-6.10232301458556],[-37.6372755718204,-6.1036521330956],[-37.6368840148877,-6.10399075198704],[-37.6368585111794,-6.10355666341353],[-37.6368075037629,-6.10400417740124],[-37.6367669978733,-6.10356412198305],[-37.6367669978733,-6.10401611110246],[-37.6363904431219,-6.10406832104216],[-37.6363424361417,-6.10356263026917],[-37.6360588949146,-6.10412053097682],[-37.6361399066938,-6.10513787783038],[-37.6372350659308,-6.10506925918841],[-37.6372515683303,-6.10551229678718],[-37.6375681143563,-6.10500064053763],[-37.637563613702,-6.10551378849566],[-37.6379086638726,-6.10482312703075],[-37.6403195144123,-6.10476345861189],[-37.6405745514949,-6.10439500597803],[-37.6406030556394,-6.10475898348018],[-37.6407380752714,-6.10435025462875],[-37.6407785811609,-6.10474704979552],[-37.6410921267507,-6.10426522705476],[-37.6411101293683,-6.10476345861189],[-37.6412196452921,-6.10423986795113],[-37.6412391481278,-6.10480075137445],[-37.6412466492185,-6.10423986795113],[-37.6427003605893,-6.10409964700348],[-37.6425413374672,-6.10318373480495],[-37.6386887773017,-6.10320909395856]]]}},{"type":"Feature","properties":{"id":"24093080001","state":"RN","municipality":"2409308","origin":"face","accuracy":"regular","notes":""},"geometry":{"type":"Polygon","coordinates":[[[-37.640011969695,-6.09427215560648],[-37.6400269718763,-6.09497028935243],[-37.6396879225782,-6.09442431303879],[-37.6396369151617,-6.09496730587682],[-37.6391988514669,-6.09454961912709],[-37.6390998370701,-6.09525968640818],[-37.638793792571,-6.09462718954805],[-37.6386227677039,-6.09716015597811],[-37.6378036486032,-6.09757485723426],[-37.6379146647451,-6.09815364837944],[-37.637575615447,-6.098395308415],[-37.637530608903,-6.09764049337492],[-37.637518607158,-6.09844304371776],[-37.6347612062295,-6.0988666943438],[-37.6347942110285,-6.09957675591004],[-37.6357093440896,-6.10041510469993],[-37.6374255936337,-6.10031366754953],[-37.6374555979964,-6.10130118722715],[-37.6374826019228,-6.10028681653589],[-37.6382897192783,-6.09978858081701],[-37.6383257245135,-6.10009289250872],[-37.6383497280036,-6.09972294493929],[-37.6413831690685,-6.09754502262222],[-37.6410981276233,-6.09656942989414],[-37.640011969695,-6.09427215560648]]]}},{"type":"Feature","properties":{"id":"24099020002","state":"RN","municipality":"2409902","origin":"face","accuracy":"regular","notes":""},"geometry":{"type":"Polygon","coordinates":[[[-36.7226951935172,-5.25972388945217],[-36.7232223874054,-5.26399072617343],[-36.7248347541148,-5.2634331842857],[-36.7227606117369,-5.25666408776623],[-36.7208134576678,-5.25371731401025],[-36.7212656130099,-5.25352571575419],[-36.7206903174895,-5.25356211942737],[-36.7197783105442,-5.25242210865235],[-36.7226951935172,-5.25972388945217]]]}},{"type":"Feature","properties":{"id":"24099020003","state":"RN","municipality":"2409902","origin":"face","accuracy":"regular","notes":""},"geometry":{"type":"Polygon","coordinates":[[[-36.7486393329801,-5.27920865748776],[-36.7427131687488,-5.27467014331046],[-36.7288829874757,-5.26732638729925],[-36.7268280857506,-5.26591625359079],[-36.7258006348881,-5.26431835364748],[-36.7237572775547,-5.26503875029329],[-36.7240843686534,-5.26671328608001],[-36.7237072518573,-5.26770191149747],[-36.7247385508504,-5.26832650736521],[-36.7248847798122,-5.26939176758072],[-36.7248501466371,-5.268357162361],[-36.7265317796967,-5.26921933349707],[-36.7277439408266,-5.27115059249985],[-36.7297488168543,-5.27075974294821],[-36.7327234217858,-5.27163915409341],[-36.7428093720131,-5.27671059231682],[-36.7474612050288,-5.28050833326672],[-36.7486393329801,-5.27920865748776]]]}},{"type":"Feature","properties":{"id":"24102560001","state":"RN","municipality":"2410256","origin":"face","accuracy":"regular","notes":""},"geometry":{"type":"Polygon","coordinates":[[[-36.7862264764164,-5.07005553100609],[-36.7871595375499,-5.06817848368963],[-36.7840218907969,-5.06774111265759],[-36.7828601382091,-5.06672969101214],[-36.7853391535737,-5.06535379055659],[-36.7856318786352,-5.06437881296351],[-36.7835004742811,-5.06518977573737],[-36.7811312308146,-5.0677957840528],[-36.7814331035343,-5.06828782640137],[-36.7822792619152,-5.06758165439417],[-36.7824027553005,-5.06782311974734],[-36.7811723952764,-5.06865230197348],[-36.7801478575611,-5.0685885187632],[-36.7809437038221,-5.06945870344598],[-36.7794846523437,-5.07014437170261],[-36.7794389140528,-5.07052706994791],[-36.7801341360739,-5.07070247323453],[-36.7862264764164,-5.07005553100609]]]}},{"type":"Feature","properties":{"id":"24147040001","state":"RN","municipality":"2414704","origin":"face","accuracy":"regular","notes":""},"geometry":{"type":"Polygon","coordinates":[[[-35.3763311584525,-6.34672345611253],[-35.3762175414499,-6.34726798433961],[-35.3756999528826,-6.34734828338432],[-35.376136747137,-6.34739596093619],[-35.3762932861183,-6.34884636014132],[-35.3758362932857,-6.34937833944869],[-35.3752631586283,-6.34885388815423],[-35.3743138254512,-6.34887898152975],[-35.3748970593978,-6.34870834655197],[-35.3741067900243,-6.348811229413],[-35.3738517829741,-6.34796558187234],[-35.3732937972503,-6.34819895062019],[-35.3713749323179,-6.34777738119218],[-35.3679108761505,-6.34822153468696],[-35.3705669891885,-6.34818891325688],[-35.3709406628858,-6.34927294736544],[-35.3731928043591,-6.34933066208036],[-35.3758918393759,-6.3506555894097],[-35.3772855412742,-6.34974972090356],[-35.3778637255762,-6.34721528808475],[-35.3796336259941,-6.34666072240887],[-35.3778410021756,-6.34717011986198],[-35.3776036688814,-6.34650263344167],[-35.3763311584525,-6.34672345611253]]]}}]}