{"type":"FeatureCollection","features":[{"type":"Feature","properties":{"id":"28003080013","state":"SE","municipality":"2800308","origin":"","accuracy":"","notes":"Sem associacao de dados do Censo Demografico 2010"},"geometry":{"type":"Polygon","coordinates":[[[-37.0622496921835,-10.8795363118342],[-37.0608503259813,-10.8792530767004],[-37.0600224566632,-10.8802811140502],[-37.0590877654977,-10.8802496435717],[-37.0589221916341,-10.8805748383561],[-37.0598301773378,-10.8817025271987],[-37.0614698926968,-10.8822112970474],[-37.0627517548666,-10.8809577285345],[-37.0622496921835,-10.8795363118342]]]}},{"type":"Feature","properties":{"id":"28003080002","state":"SE","municipality":"2800308","origin":"","accuracy":"","notes":"Sem associacao de dados do Censo Demografico 2010"},"geometry":{"type":"Polygon","coordinates":[[[-37.1033532263059,-10.9868927434914],[-37.1030336076561,-10.9872393784601],[-37.1031404217386,-10.9875736151049],[-37.1042438528277,-10.9870655406028],[-37.1033532263059,-10.9868927434914]]]}},{"type":"Feature","properties":{"id":"28003080017","state":"SE","municipality":"2800308","origin":"","accuracy":"","notes":"Sem associacao de dados do Censo Demografico 2010"},"geometry":{"type":"Polygon","coordinates":[[[-37.0756938893267,-10.8800195155966],[-37.0751719829733,-10.8802082847144],[-37.0758808275597,-10.8809242912269],[-37.0761665760018,-10.8802502992066],[-37.0756938893267,-10.8800195155966]]]}},{"type":"Feature","properties":{"id":"28003080004","state":"SE","municipality":"2800308","origin":"","accuracy":"","notes":"Sem associacao de dados do Censo Demografico 2010"},"geometry":{"type":"Polygon","coordinates":[[[-37.0939661803981,-10.9351651270048],[-37.0894683851017,-10.9369398267153],[-37.0895156750055,-10.9383946598343],[-37.0905770706246,-10.9373009561696],[-37.0930657986863,-10.9372228234789],[-37.0939661803981,-10.9351651270048]]]}},{"type":"Feature","properties":{"id":"28003080001","state":"SE","municipality":"2800308","origin":"","accuracy":"","notes":"Sem associacao de dados do Censo Demografico 2010"},"geometry":{"type":"Polygon","coordinates":[[[-37.1072598978045,-10.9932010619938],[-37.1073334598771,-10.9937323369517],[-37.1078037316984,-10.9935853337824],[-37.1077249151921,-10.9931030597126],[-37.1072598978045,-10.9932010619938]]]}},{"type":"Feature","properties":{"id":"28003080005","state":"SE","municipality":"2800308","origin":"","accuracy":"","notes":"Sem associacao de dados do Censo Demografico 2010"},"geometry":{"type":"Polygon","coordinates":[[[-37.0793772401554,-10.9222355151839],[-37.079086150621,-10.9221030955733],[-37.0790928269865,-10.9225239537351],[-37.0795014205532,-10.9224623327954],[-37.0793772401554,-10.9222355151839]]]}},{"type":"Feature","properties":{"id":"28003080008","state":"SE","municipality":"2800308","origin":"face","accuracy":"regular","notes":""},"geometry":{"type":"Polygon","coordinates":[[[-37.0847143267106,-10.9170612733084],[-37.0843911906219,-10.9177037154374],[-37.0848665478432,-10.9177423930314],[-37.0847143267106,-10.9170612733084]]]}},{"type":"Feature","properties":{"id":"28003080016","state":"SE","municipality":"2800308","origin":"face","accuracy":"regular","notes":"Aglomerado Subnormal"},"geometry":{"type":"Polygon","coordinates":[[[-37.0468486523216,-10.867791006982],[-37.0493295897295,-10.8674920247821],[-37.0515301197878,-10.8664665660141],[-37.0560620366676,-10.867733308686],[-37.0583827413043,-10.8677018368836],[-37.0580168764766,-10.8682971779182],[-37.0582118263483,-10.8703952866336],[-37.0600064333861,-10.871871821797],[-37.0595070412491,-10.8724671545114],[-37.0600518326713,-10.8719977072277],[-37.0603562749366,-10.8723255336211],[-37.0612535784556,-10.8734322728633],[-37.0611040278691,-10.8741298836408],[-37.0618410986168,-10.8751159772947],[-37.0638199733415,-10.8752602194442],[-37.0643674353099,-10.8756981906341],[-37.0647226179529,-10.8771668318452],[-37.0642125436311,-10.8780112972661],[-37.0637318453174,-10.8777018350603],[-37.0631897244414,-10.8785095831937],[-37.0638253144339,-10.8794615692556],[-37.0640923690526,-10.8814048702094],[-37.0654303126925,-10.8825456685109],[-37.0655611694556,-10.8810849213959],[-37.0670673575052,-10.8799598527592],[-37.0691984533626,-10.8804660030444],[-37.0688833289126,-10.8807177665966],[-37.0693373217644,-10.8805656594758],[-37.0699221713794,-10.8817562890021],[-37.0708328276292,-10.8815333741443],[-37.0708114632598,-10.8819923163169],[-37.0709449905691,-10.8815255065581],[-37.0721894650924,-10.8812055578741],[-37.0723336745865,-10.8806312228995],[-37.0717328016943,-10.8798549510382],[-37.0722669109318,-10.8791678438528],[-37.0722161705542,-10.8778565662034],[-37.0740000954074,-10.8749874705937],[-37.074309878765,-10.8729444688693],[-37.0746570497694,-10.8729444688693],[-37.0758614660998,-10.8697684782002],[-37.0755997525735,-10.8694301584568],[-37.076205966558,-10.8698209308392],[-37.0756371402201,-10.8693331209403],[-37.0761578967266,-10.8677254407357],[-37.0770979289845,-10.8669727391966],[-37.0785133184638,-10.8673372882628],[-37.0793999397979,-10.8668704555657],[-37.0801343399994,-10.8641035389187],[-37.0805963444898,-10.8642058234978],[-37.0805082164656,-10.8652548940799],[-37.081910253214,-10.8653545555935],[-37.0830398942512,-10.8677700257848],[-37.0815524000249,-10.8682289891375],[-37.0798112039108,-10.8698602703125],[-37.0798726264731,-10.8706260776916],[-37.0809274922171,-10.8712161676531],[-37.0800969523528,-10.8721432621908],[-37.0797257464328,-10.8720226220463],[-37.0802491734855,-10.8731660788473],[-37.0795895485772,-10.872953647984],[-37.0792851063118,-10.8735542237374],[-37.0783610973311,-10.8732237760926],[-37.0782382522065,-10.8736696180666],[-37.0790180516931,-10.8740000652174],[-37.0780299496039,-10.8746557132423],[-37.078216887837,-10.8753952824844],[-37.0812826748599,-10.8750228755067],[-37.0823295289654,-10.8782591290551],[-37.0829651189579,-10.8784689335835],[-37.0840012908786,-10.877446135114],[-37.0847810903651,-10.8786000613386],[-37.0861430689207,-10.878400747128],[-37.0874836831067,-10.8776454499628],[-37.0877881253721,-10.8766121583806],[-37.0876545980628,-10.8759879855887],[-37.0856623706071,-10.8744616415772],[-37.0855448665747,-10.873716824825],[-37.0859828361495,-10.872200959634],[-37.0873394736127,-10.871802322526],[-37.0899192212295,-10.8731346076178],[-37.0921464567497,-10.8756890116037],[-37.0939143583257,-10.8768901508843],[-37.0969587809792,-10.8775457925551],[-37.0974715258471,-10.8789042775083],[-37.0973593629072,-10.8798483946795],[-37.0967878660232,-10.8801421194117],[-37.0942561882376,-10.8804148635468],[-37.0935885516908,-10.8795913853012],[-37.0918687199463,-10.8792084933678],[-37.0921464567497,-10.8805984411895],[-37.0912277888613,-10.8799900119972],[-37.0909180055036,-10.8800581980892],[-37.0918900843157,-10.8807925088603],[-37.0897856939202,-10.8803519226146],[-37.0885251961198,-10.88085020463],[-37.0913346107088,-10.8840496798278],[-37.0877347144484,-10.8823083303735],[-37.0864421700937,-10.883373072363],[-37.0867412712666,-10.8844640355787],[-37.0895880735023,-10.8850986806117],[-37.0867679767286,-10.8878837597725],[-37.0865917206802,-10.8887177049641],[-37.0854540680044,-10.8890533803569],[-37.0854914556511,-10.8894939537358],[-37.0871365121025,-10.8900394246354],[-37.0885091728427,-10.8896722808707],[-37.0873394736127,-10.8907842005965],[-37.0877400555408,-10.8907317516461],[-37.0868374109294,-10.8944136455224],[-37.0880498388985,-10.8950797382685],[-37.0894118174539,-10.8945657455722],[-37.0896308022413,-10.8934905538984],[-37.0880498388985,-10.8926880912408],[-37.0881673429306,-10.8918594020433],[-37.089112716281,-10.891707300611],[-37.0891233984657,-10.8897037503539],[-37.0900741129084,-10.8894310147217],[-37.089983314338,-10.8883977640032],[-37.0910568739054,-10.88733303997],[-37.0913933627249,-10.8872648555425],[-37.091623029697,-10.8878470451508],[-37.0935992338755,-10.887259610586],[-37.0932680861483,-10.8871547114347],[-37.0935885516908,-10.8860113082894],[-37.0957410119178,-10.8869344230966],[-37.0957516941025,-10.8872963252802],[-37.0966062688824,-10.8875533280132],[-37.0967878660232,-10.8882404158635],[-37.096900028963,-10.8874903885889],[-37.0973486807225,-10.8873907344732],[-37.0974448203852,-10.8878837597725],[-37.0982406431491,-10.8876634719737],[-37.1001954829581,-10.8883872741297],[-37.1026096567114,-10.887778860841],[-37.1035496889693,-10.8881722316438],[-37.1041211858533,-10.8911880572048],[-37.1025509046952,-10.8918279327877],[-37.1020435009196,-10.8913978526295],[-37.1016696244535,-10.8921321354515],[-37.1019667227168,-10.8923491419031],[-37.1017050091904,-10.892895918787],[-37.1017664317528,-10.8946647416834],[-37.1023280769999,-10.8923450399999],[-37.1050897769999,-10.89095197],[-37.1048001469999,-10.887578445],[-37.1036044539999,-10.8857541119999],[-37.1028461409999,-10.885631907],[-37.0993625249999,-10.8869391339999],[-37.0976365339999,-10.886539731],[-37.096720608,-10.8853137189999],[-37.096673021,-10.8841654119999],[-37.097324709,-10.882352523],[-37.1011815129999,-10.879872489],[-37.103327856,-10.877427025],[-37.1034334199999,-10.876641241],[-37.1026806139999,-10.875651282],[-37.0981135849999,-10.87476426],[-37.0932398189999,-10.874661701],[-37.092519958,-10.874250452],[-37.0900387669999,-10.871821492],[-37.0841167649999,-10.8640197349999],[-37.0827801359999,-10.8628181939999],[-37.0818127859999,-10.862504816],[-37.078245591,-10.8626181129999],[-37.0747624909999,-10.863879894],[-37.073182924,-10.8649185549999],[-37.0716165879999,-10.866743713],[-37.0709050029999,-10.8721718889998],[-37.069768258,-10.875446021],[-37.0679955809999,-10.876637096],[-37.0669883729999,-10.8768296169999],[-37.0660588649999,-10.8763175579999],[-37.062248997,-10.8700835249999],[-37.0591999029999,-10.8664304719999],[-37.0572984759999,-10.8649088909999],[-37.052457052,-10.862681692],[-37.0494951859999,-10.8625273119999],[-37.0466201394425,-10.8630715493197],[-37.0468486523216,-10.867791006982]]]}},{"type":"Feature","properties":{"id":"28003080007","state":"SE","municipality":"2800308","origin":"face","accuracy":"regular","notes":""},"geometry":{"type":"Polygon","coordinates":[[[-37.0844125549914,-10.9180963911157],[-37.0839946145131,-10.9180727912566],[-37.0843738320717,-10.917790903905],[-37.0841134538185,-10.9174998385449],[-37.0834698521873,-10.9178931700449],[-37.0839238450392,-10.9184477665748],[-37.0844125549914,-10.9180963911157]]]}},{"type":"Feature","properties":{"id":"28003080015","state":"SE","municipality":"2800308","origin":"face","accuracy":"regular","notes":"Aglomerado Subnormal"},"geometry":{"type":"Polygon","coordinates":[[[-37.0962110280467,-10.8792399639562],[-37.0953511121744,-10.8793396207977],[-37.0956395311627,-10.8803781480047],[-37.0972739054293,-10.8793710913722],[-37.0966383154367,-10.8782591290553],[-37.094731545459,-10.8781542267358],[-37.096200345862,-10.878563345573],[-37.0962110280467,-10.8792399639562]]]}},{"type":"Feature","properties":{"id":"28003080011","state":"SE","municipality":"2800308","origin":"face","accuracy":"regular","notes":""},"geometry":{"type":"Polygon","coordinates":[[[-37.0581477332398,-10.8931352153088],[-37.0581784445209,-10.8923773330621],[-37.0580155412035,-10.8918712030133],[-37.0581624212438,-10.8925845052173],[-37.0578873549865,-10.8918843152016],[-37.0568378303349,-10.8915630664223],[-37.0571422726003,-10.8914673473313],[-37.0557135303901,-10.8916587854826],[-37.0562743450894,-10.8920469062883],[-37.0560006141053,-10.8921373803223],[-37.0558136758721,-10.892327506826],[-37.0565667698969,-10.8920560848148],[-37.0575174843396,-10.8924874752385],[-37.0573532457491,-10.893729194337],[-37.0577578334965,-10.8940071708703],[-37.057437367954,-10.8950889167015],[-37.0581477332398,-10.8931352153088]]]}},{"type":"Feature","properties":{"id":"28003080003","state":"SE","municipality":"2800308","origin":"face","accuracy":"regular","notes":"Aglomerado Subnormal"},"geometry":{"type":"Polygon","coordinates":[[[-37.095639992729,-10.9314426923837],[-37.0953034337893,-10.9302046818103],[-37.0940738962901,-10.9292244488159],[-37.0949198601251,-10.9286156709053],[-37.0969586966306,-10.9284766626988],[-37.0995542706991,-10.922115083153],[-37.0979989583069,-10.9222750199567],[-37.0963963560109,-10.9230024733632],[-37.0939057544098,-10.925974179403],[-37.0902171419121,-10.9249681364184],[-37.08787891889,-10.9255562850389],[-37.0882624925542,-10.9272381772936],[-37.0869383752474,-10.9287136945514],[-37.0858979973635,-10.9315047753116],[-37.0863761508354,-10.932299274091],[-37.0862710621602,-10.9339811281228],[-37.0873272033456,-10.9344557600505],[-37.0863236064977,-10.9358435381773],[-37.085062542396,-10.9356113824374],[-37.0860871569787,-10.936132442844],[-37.0857351099169,-10.9380825419827],[-37.0870434639226,-10.9401719196827],[-37.0876214516359,-10.9403885950458],[-37.0876372149372,-10.9427204246428],[-37.0872641501403,-10.9435561644126],[-37.0830238220981,-10.9478328452259],[-37.0824510888186,-10.9476110164969],[-37.0815157996097,-10.9461459109514],[-37.080144392399,-10.9465379821596],[-37.0786784053807,-10.9441649116499],[-37.0776170097617,-10.9440101455217],[-37.0784629735967,-10.9460375753945],[-37.0776800629667,-10.9470693409951],[-37.0786521332119,-10.9467907646372],[-37.0790672334787,-10.9477864159708],[-37.0794560615768,-10.9477451455157],[-37.0795769135532,-10.9495042935636],[-37.081379184332,-10.9537705710856],[-37.0802810076768,-10.9538531103106],[-37.0801759190016,-10.9541729495899],[-37.0829712777605,-10.95564317409],[-37.0833916324612,-10.9581812286725],[-37.0740229770716,-10.9600176936174],[-37.0724624102455,-10.9590943039602],[-37.0719527301712,-10.9579955180995],[-37.0684059873848,-10.9562312618452],[-37.0665038823645,-10.9562364205045],[-37.0625105127089,-10.9572010882224],[-37.0613230106798,-10.953481683617],[-37.0579969541113,-10.9528213683445],[-37.0568882685884,-10.9538943799145],[-37.0569933572636,-10.9549467528687],[-37.0559109439095,-10.9569844251586],[-37.0536515373938,-10.9581399596662],[-37.0540929098295,-10.9593212826905],[-37.0547812406517,-10.9592954896617],[-37.0571194636737,-10.9578717109863],[-37.0570301382999,-10.9585010632746],[-37.0558426362708,-10.9589859731411],[-37.0555063525103,-10.9597184950496],[-37.0560475591872,-10.9614775719439],[-37.058391036643,-10.9624886495305],[-37.0589900420915,-10.9622616732302],[-37.0618484540555,-10.9630612480594],[-37.0638609021847,-10.9627930038416],[-37.0645282152718,-10.9630251382749],[-37.0644336354642,-10.9643508803261],[-37.0646385583807,-10.9630354553567],[-37.0659836934226,-10.9629426016085],[-37.0661938707729,-10.9624370640229],[-37.0659942022901,-10.9613331320065],[-37.064938061105,-10.9599196803267],[-37.0649380611049,-10.9585629667062],[-37.0676546033575,-10.9580419457537],[-37.0688315965192,-10.9584082081031],[-37.0691310992434,-10.9577221106553],[-37.0694673830038,-10.9578304419371],[-37.0702292758987,-10.9622461975671],[-37.071695262917,-10.9642528684712],[-37.0717740794234,-10.9667392644316],[-37.0725885166558,-10.9674769256017],[-37.0739599238665,-10.9675904117722],[-37.0744801128085,-10.9687716970512],[-37.0764662887688,-10.9698188586576],[-37.0782265240775,-10.9729912714207],[-37.0791828310214,-10.9732749814724],[-37.0808957764263,-10.9725063845202],[-37.0815000363085,-10.9719905465186],[-37.0811637525479,-10.9714566532386],[-37.0813686754644,-10.9702366905782],[-37.0779638023896,-10.9649982736038],[-37.076200939864,-10.9663240068096],[-37.0749766567986,-10.965906169359],[-37.074143829048,-10.9651169192301],[-37.0744380773384,-10.9649337922652],[-37.073991450469,-10.9649647433094],[-37.0740676397585,-10.963801497668],[-37.0752052246671,-10.9627182049296],[-37.0754101475836,-10.9629142296239],[-37.0749425029792,-10.9619315255734],[-37.0739362789146,-10.9612170641486],[-37.0748505503883,-10.9605593454272],[-37.0843374305376,-10.9587383596916],[-37.0849285543351,-10.9581451182924],[-37.0858690979778,-10.9550086570435],[-37.08436895714,-10.9524783133444],[-37.0838671587162,-10.9501465605549],[-37.0842165785611,-10.9487304760614],[-37.0877528124798,-10.9443557897635],[-37.0894867756198,-10.944035939882],[-37.0877948479499,-10.9441184818199],[-37.0883728356633,-10.9434013979664],[-37.088551486411,-10.9412707716747],[-37.0884674154709,-10.9403989129163],[-37.0876161972022,-10.9392536270999],[-37.0885882674473,-10.9361427608627],[-37.0902539229484,-10.9341307404429],[-37.0916410934604,-10.9348684828485],[-37.0944528375893,-10.9341219673523],[-37.095639992729,-10.9314426923837]]]}},{"type":"Feature","properties":{"id":"28003080014","state":"SE","municipality":"2800308","origin":"face","accuracy":"regular","notes":"Aglomerado Subnormal"},"geometry":{"type":"Polygon","coordinates":[[[-37.0536184869062,-10.8762672899617],[-37.0532365988014,-10.8761689433814],[-37.0530282961989,-10.8769517812628],[-37.05361581636,-10.8768495010533],[-37.0536184869062,-10.8762672899617]]]}},{"type":"Feature","properties":{"id":"28003080006","state":"SE","municipality":"2800308","origin":"face","accuracy":"regular","notes":""},"geometry":{"type":"Polygon","coordinates":[[[-37.0828823320262,-10.9193104702296],[-37.0823562344273,-10.9194127358463],[-37.0826740294236,-10.9194192913334],[-37.0822801238609,-10.9196906883701],[-37.0823709224313,-10.9203357469983],[-37.0832869197735,-10.9193943804818],[-37.0824991086483,-10.9189184517062],[-37.0828823320262,-10.9193104702296]]]}},{"type":"Feature","properties":{"id":"28003080009","state":"SE","municipality":"2800308","origin":"face","accuracy":"regular","notes":""},"geometry":{"type":"Polygon","coordinates":[[[-37.0593735139397,-10.8946195050539],[-37.0592132811685,-10.8951177632032],[-37.0584454991397,-10.894748003288],[-37.0586658192001,-10.8949709082564],[-37.0580983281353,-10.8956488005758],[-37.0588126992404,-10.8953157550257],[-37.059790119145,-10.8955045682967],[-37.0597994660566,-10.8946077041929],[-37.0593735139397,-10.8946195050539]]]}},{"type":"Feature","properties":{"id":"28003080012","state":"SE","municipality":"2800308","origin":"face","accuracy":"regular","notes":""},"geometry":{"type":"Polygon","coordinates":[[[-37.0654209657808,-10.8869370455778],[-37.0658108655241,-10.8868596823735],[-37.0645690615471,-10.8862211073605],[-37.0651499053428,-10.8870393223255],[-37.0649162325514,-10.8872373195194],[-37.0657067142228,-10.887698875381],[-37.0654209657808,-10.8869370455778]]]}},{"type":"Feature","properties":{"id":"28003080010","state":"SE","municipality":"2800308","origin":"face","accuracy":"regular","notes":""},"geometry":{"type":"Polygon","coordinates":[[[-37.0588994919915,-10.8937344391796],[-37.0589849494695,-10.8945788576418],[-37.0591745582488,-10.8943546411719],[-37.0590236723892,-10.8936006956631],[-37.0588994919915,-10.8937344391796]]]}},{"type":"Feature","properties":{"id":"28040030002","state":"SE","municipality":"2804003","origin":"face","accuracy":"regular","notes":""},"geometry":{"type":"Polygon","coordinates":[[[-37.0813980314388,-10.7480015779923],[-37.0811406417464,-10.7463611662882],[-37.0835825097609,-10.7418408163517],[-37.0847841062005,-10.7423439543],[-37.0860963935441,-10.742098936706],[-37.0865351562841,-10.7429283270108],[-37.0863404469831,-10.74145167002],[-37.087199301708,-10.7411214848605],[-37.0850708356506,-10.7412525107606],[-37.0844947094998,-10.7399632134311],[-37.0856522963028,-10.7364936136147],[-37.0860097078965,-10.7360114304265],[-37.0866338445599,-10.7360219126779],[-37.0860950599188,-10.7357284095012],[-37.0864684750166,-10.7340669665022],[-37.0866765205711,-10.7343604712924],[-37.0869165731339,-10.734339506674],[-37.0864311335068,-10.733831114232],[-37.0865804995459,-10.7323321377247],[-37.0855242682693,-10.7316140938974],[-37.0851188461632,-10.7321644196111],[-37.0848307830877,-10.7317084355195],[-37.0850388286422,-10.7322797258241],[-37.0846547445416,-10.7324212379346],[-37.083678530786,-10.7351833314168],[-37.0842759949424,-10.7357022038466],[-37.0836998687916,-10.7377986490362],[-37.0831824221561,-10.7385533657437],[-37.0827503275429,-10.7382808293723],[-37.0830170526128,-10.7387577678608],[-37.0826116305066,-10.7394076608528],[-37.0811019666113,-10.7408227455956],[-37.0814006986895,-10.7411057617486],[-37.0811926531351,-10.7419338445251],[-37.0798003482705,-10.7422483057442],[-37.0798376897802,-10.7415460085707],[-37.0765196299114,-10.7410952796736],[-37.076044859287,-10.7404611134586],[-37.0757301237046,-10.7405764165058],[-37.0765729749253,-10.7418342650708],[-37.0785147334338,-10.7428248171287],[-37.078530736938,-10.7436633771779],[-37.0780933078234,-10.743883498805],[-37.0775865301907,-10.7445228988116],[-37.0785467404422,-10.7438520528681],[-37.0788881485316,-10.7469442209901],[-37.07819466335,-10.7488414338886],[-37.0815073887175,-10.7496485318927],[-37.0820781803669,-10.7489619746367],[-37.0813980314388,-10.7480015779923]]]}},{"type":"Feature","properties":{"id":"28040030001","state":"SE","municipality":"2804003","origin":"face","accuracy":"regular","notes":""},"geometry":{"type":"Polygon","coordinates":[[[-37.086088391792,-10.7413796058295],[-37.084908133358,-10.7403667745691],[-37.0848974643552,-10.7411057617486],[-37.0857029740662,-10.7415342162535],[-37.086088391792,-10.7413796058295]]]}},{"type":"Feature","properties":{"id":"28054060001","state":"SE","municipality":"2805406","origin":"face","accuracy":"regular","notes":""},"geometry":{"type":"Polygon","coordinates":[[[-37.6848100815132,-9.80980773012858],[-37.685071832874,-9.80871377383763],[-37.6859726185916,-9.80804850434361],[-37.6875702044835,-9.80774610867769],[-37.688373510384,-9.80642623730557],[-37.6877380863909,-9.80331331231367],[-37.6867434312197,-9.80223890170367],[-37.6860015015004,-9.80047963575494],[-37.6863661482237,-9.80020035809806],[-37.6859906704096,-9.80042271293956],[-37.6859112424105,-9.79997978194798],[-37.6853480256892,-9.8000100222352],[-37.6854725832334,-9.8012445351402],[-37.6837955693422,-9.80176751184398],[-37.6840320481579,-9.80201476925011],[-37.6856621273222,-9.8014081878028],[-37.6855628423232,-9.80175328119623],[-37.6855953355957,-9.8023456313901],[-37.6857740485937,-9.80142241846534],[-37.6875322956658,-9.80536784608778],[-37.6872326354872,-9.80530025123979],[-37.6874564780302,-9.8061754255743],[-37.6869028280635,-9.80588060473191],[-37.6874745298483,-9.80627503876922],[-37.6868824302182,-9.80722847780914],[-37.6855718682323,-9.80740280032252],[-37.6849343059678,-9.80795679729012],[-37.6851855593273,-9.80725693859558],[-37.6842685269735,-9.80881516506033],[-37.6844418244262,-9.81147978642396],[-37.6848389644219,-9.81223043022908],[-37.685286649508,-9.81204188004939],[-37.6848100815132,-9.80980773012858]]]}}]}