{"type":"FeatureCollection","features":[{"type":"Feature","properties":{"id":"270010","state":"AL","stateCode":"27"},"geometry":{"type":"Polygon","coordinates":[[[-37.5000382869999,-8.96797407399991],[-37.4903396729999,-8.96590642299997],[-37.4870057889999,-8.97555648799996],[-37.4908950009999,-8.99527133899995],[-37.4937568519999,-9.00069138799996],[-37.482206503,-9.01291547399993],[-37.47878195,-9.01955195099996],[-37.4693714009999,-9.02767532199992],[-37.461979088,-9.02844230999997],[-37.4459782599999,-9.02661046699991],[-37.434140106,-9.02955246899998],[-37.428281864,-9.03237249300001],[-37.420590617,-9.04183699099997],[-37.4140691649999,-9.04631741299997],[-37.386038629,-9.05800611099997],[-37.3727605679999,-9.06591499999993],[-37.335084007,-9.08144363899993],[-37.33078759,-9.09081498299996],[-37.3277033269999,-9.09322568999992],[-37.3238690199999,-9.09404009399999],[-37.317453236,-9.09240182199996],[-37.310699493,-9.1004187689999],[-37.3110581299999,-9.10754485499997],[-37.3037339899999,-9.11693652499996],[-37.2965721129999,-9.12091900199997],[-37.2822867169999,-9.14884184999996],[-37.2778099449999,-9.15332029599998],[-37.2682018819999,-9.15824246800002],[-37.262559525,-9.15888170799995],[-37.2620091079999,-9.16371176199993],[-37.247083411,-9.17901850499996],[-37.243231903,-9.18603785499995],[-37.24678577,-9.19038235299996],[-37.240618976,-9.19847526499999],[-37.239172884,-9.2033186369999],[-37.2348134789999,-9.20453205099994],[-37.2335570219999,-9.20658584399994],[-37.232356515,-9.22231697999993],[-37.228783857,-9.225536018],[-37.2303992639999,-9.23035018699998],[-37.233893074,-9.23214927899997],[-37.2343418189999,-9.24017569999999],[-37.2203085049999,-9.22803147499997],[-37.2161673079999,-9.22626423299993],[-37.2121722679999,-9.22111707899994],[-37.208920028,-9.22017927599998],[-37.2065294719999,-9.21765158800002],[-37.202310515,-9.21786036799996],[-37.1983157489999,-9.21548234299993],[-37.1589484989999,-9.23910180299996],[-37.1607513369999,-9.24396928799999],[-37.168284425,-9.251826019],[-37.1697234139999,-9.25796349599995],[-37.168613843,-9.26300310599993],[-37.1693881489999,-9.27243404899999],[-37.1643357059999,-9.27570549599996],[-37.15653007,-9.27341557099993],[-37.1525825809999,-9.27067478000001],[-37.142395759,-9.26807935899992],[-37.129918637,-9.26006073099993],[-37.126263967,-9.25295248799996],[-37.116476146,-9.24093074099993],[-37.108175565,-9.23871566699999],[-37.098610144,-9.24408358699994],[-37.090672932,-9.24636207199999],[-37.0781138579999,-9.25626492799992],[-37.067303765,-9.26724027499997],[-37.05720143,-9.28178846699994],[-37.058332609,-9.29134564599996],[-37.0619255369999,-9.29736875699995],[-37.061671224,-9.30416202899991],[-37.057586229,-9.31754026699999],[-37.0572565329999,-9.31294329999994],[-37.0544544599999,-9.30713308699998],[-37.0455310369999,-9.31588168999996],[-37.0397926149999,-9.31621243599999],[-37.028513274,-9.31401704299996],[-37.024291631,-9.31571512299994],[-37.018379798,-9.32392757699992],[-37.0128415779999,-9.33933054300001],[-37.003366362,-9.35261331999989],[-36.979640393,-9.35932825199993],[-36.9941596539999,-9.37430422999995],[-37.022781103,-9.36959593499994],[-37.0249207059999,-9.37217543299995],[-37.027980079,-9.38609935999996],[-37.0385891559999,-9.4168445779999],[-37.103199942,-9.45633051599999],[-37.10561839,-9.46245188299996],[-37.1034216369999,-9.49015972499995],[-37.104368745,-9.49199124999997],[-37.1123096219999,-9.49453931499995],[-37.114756613,-9.49700478099993],[-37.1154763599999,-9.50061535499997],[-37.1096409369999,-9.50821973199997],[-37.1096991719999,-9.51645508099996],[-37.1208106109999,-9.53893872299997],[-37.1873515789999,-9.56129360699999],[-37.2280728879999,-9.51932870399995],[-37.2691495949999,-9.45711627],[-37.320779987,-9.46841531299998],[-37.3802929299999,-9.50288084299993],[-37.373097692,-9.524782435],[-37.445338334,-9.47662773499995],[-37.6549485649999,-9.4088462149999],[-37.6543173329999,-9.40475595499997],[-37.647952056,-9.40149743499992],[-37.6481870009999,-9.394922707],[-37.637257522,-9.37735774000001],[-37.622751841,-9.36454197199993],[-37.622539156,-9.36117682499994],[-37.6176886069999,-9.35610627599988],[-37.616671737,-9.35009309899992],[-37.6116058189999,-9.33874786499993],[-37.59274453,-9.31398432299991],[-37.585942234,-9.29605245399993],[-37.589521458,-9.28893374899998],[-37.5871344060098,-9.28826230296468],[-37.5899884239999,-9.28641323499996],[-37.5920100709999,-9.28827860199993],[-37.5945979109999,-9.28802971199996],[-37.597139671,-9.28408908999994],[-37.605445645,-9.27950235099995],[-37.60925219,-9.27017546299989],[-37.6056601,-9.26252218599993],[-37.607318054,-9.25844204999996],[-37.60687438,-9.25555867999994],[-37.609779224,-9.25222891899995],[-37.6100018229999,-9.24927824799997],[-37.6183274359999,-9.24662739799991],[-37.617897674,-9.23766649599995],[-37.608018585,-9.23150230300002],[-37.6089078319999,-9.22615742599991],[-37.618439273,-9.22240350699999],[-37.6218391279999,-9.2190823399999],[-37.6223115199999,-9.21302177400001],[-37.620347297,-9.21153769799995],[-37.620586816,-9.20907598999992],[-37.61846875,-9.208789055],[-37.615850898,-9.20563602299996],[-37.618128204,-9.19523552299999],[-37.6924527019999,-9.17679344899998],[-37.669955751,-9.15564973199998],[-37.6355458669999,-9.11042899200003],[-37.6093675169999,-9.09144410399995],[-37.5427264679999,-9.00064903899993],[-37.5301006339999,-8.96306965400003],[-37.51697566,-8.96736908399994],[-37.5000382869999,-8.96797407399991]]]}},{"type":"Feature","properties":{"id":"270008","state":"AL","stateCode":"27"},"geometry":{"type":"Polygon","coordinates":[[[-36.4153028389999,-9.22967369999998],[-36.406927729,-9.22067210500001],[-36.404353629,-9.22101548100001],[-36.4029117589999,-9.22343201299993],[-36.3996140379999,-9.22452704300004],[-36.391737116,-9.22512127499994],[-36.3873872709999,-9.22355762399997],[-36.3858474569999,-9.22063755199992],[-36.3803452619999,-9.2197121069999],[-36.3758755369999,-9.2166999719999],[-36.3657066459999,-9.22262764299991],[-36.360217453,-9.22155549799981],[-36.3583485139999,-9.21828813599986],[-36.3559327239999,-9.21838597100003],[-36.350978042,-9.22487347899999],[-36.3509018849999,-9.22818628999983],[-36.3467513509999,-9.23439305199991],[-36.3466751949999,-9.23667774899992],[-36.3405707179999,-9.24042871799992],[-36.3410728219999,-9.24562697100005],[-36.339596045,-9.24751724499989],[-36.3360372179999,-9.27141204999993],[-36.337011886,-9.27246169199993],[-36.3361871669999,-9.27339887299991],[-36.3349875759999,-9.27234923099997],[-36.3311263919999,-9.27504831099988],[-36.3257657199999,-9.27384871999981],[-36.3248660269999,-9.27654779899991],[-36.3258781819999,-9.27819723699993],[-36.3243412059999,-9.28044646999986],[-36.327929643,-9.28590038900001],[-36.3398920709999,-9.28671199699982],[-36.3660904659999,-9.36143121999988],[-36.3646079809999,-9.36357620699994],[-36.3659264439999,-9.3660559839999],[-36.366598084,-9.37446380099989],[-36.3653319899999,-9.37740279599984],[-36.3664091589999,-9.37810811599987],[-36.3654883449999,-9.38171409399998],[-36.3621406899999,-9.38287553999988],[-36.3665888199999,-9.38403569299987],[-36.3741835579999,-9.37454114599995],[-36.3893630749999,-9.4253786249999],[-36.3906009699999,-9.424405596],[-36.4631867899999,-9.45385339399991],[-36.4542647229999,-9.45541607599996],[-36.4517919719999,-9.45705656599991],[-36.4575808069999,-9.46392764899991],[-36.4566270939999,-9.46638510299999],[-36.4591505399999,-9.46954727899994],[-36.459798382,-9.47330178999995],[-36.4616638759999,-9.47659530899996],[-36.4659646849999,-9.47931738399985],[-36.4684155359999,-9.48551882499988],[-36.4738972489999,-9.4874225619999],[-36.479165355,-9.49236047299992],[-36.4818918669999,-9.49744164899995],[-36.488363889,-9.50219916699985],[-36.4468117489999,-9.6059058869999],[-36.4493517059999,-9.61146071099991],[-36.453236095,-9.6154714629999],[-36.4599611179999,-9.61817941599988],[-36.465666394,-9.61842329599989],[-36.466911066,-9.60911921000003],[-36.4690579689999,-9.60600057899994],[-36.481097807,-9.6071624839999],[-36.4820606899999,-9.60537318799989],[-36.4952483329999,-9.60388333299989],[-36.5384521879999,-9.53306597899995],[-36.5445014859999,-9.53447935599991],[-36.545308919,-9.53678677099992],[-36.5479838469999,-9.53598505299989],[-36.5504693419999,-9.53961474099992],[-36.5550572269999,-9.54063057999991],[-36.554612243,-9.54217748700002],[-36.5582485499999,-9.54534035799986],[-36.5589431789999,-9.55019803799992],[-36.5662521509999,-9.55569198799992],[-36.566496377,-9.56094395499987],[-36.5730581069999,-9.56173536299997],[-36.5750791049999,-9.56422269299992],[-36.5736427839999,-9.56571346499987],[-36.5839425709999,-9.57296269399991],[-36.5916429489999,-9.5727435919999],[-36.597305198,-9.5689523619999],[-36.6013583959999,-9.56801390499986],[-36.6027238139999,-9.57589138899984],[-36.6147480189999,-9.58016810800003],[-36.6199173759999,-9.57742765199993],[-36.6235486309999,-9.58053845199994],[-36.6224422999999,-9.5828684419999],[-36.6235532939999,-9.58547636299984],[-36.620883071,-9.58597188199991],[-36.6208309969999,-9.58731207099987],[-36.6235222569999,-9.58991013799989],[-36.623523318,-9.591089174],[-36.6217774569999,-9.59119416399989],[-36.624661839,-9.59582950699992],[-36.623829348,-9.6042105059999],[-36.619496865,-9.60869722399992],[-36.616912293,-9.60755933299989],[-36.6153886619999,-9.60858785899984],[-36.6142450439999,-9.61005651499989],[-36.6149958459999,-9.61191002399983],[-36.6109667849999,-9.61862931499997],[-36.6141399339999,-9.62281109499997],[-36.6234979869999,-9.621105076],[-36.624086189,-9.62360317199996],[-36.626109437,-9.62415892199994],[-36.6266389269999,-9.62690545199992],[-36.6303331669999,-9.63037544299994],[-36.6260800529999,-9.63268179399989],[-36.6193889249999,-9.62982179399984],[-36.61705419,-9.62704113699994],[-36.6141645809999,-9.62838392999993],[-36.6089460709999,-9.63444520299986],[-36.61130044,-9.64333118499998],[-36.6091364819999,-9.64726844299992],[-36.6095201259999,-9.64946901599995],[-36.6070006809999,-9.65037713699991],[-36.6063405159999,-9.65337263899989],[-36.610015006,-9.65375408099998],[-36.6116479519999,-9.6522746319999],[-36.612802975,-9.65357929799997],[-36.616725193,-9.65335920899992],[-36.6196662809999,-9.65559627499984],[-36.6242567019999,-9.65464633499982],[-36.623336614,-9.65111630899992],[-36.6260473579999,-9.65091746999987],[-36.6281770789999,-9.64418378199987],[-36.6305992089999,-9.64377586499996],[-36.6315202399999,-9.64492698899988],[-36.6320449,-9.64313807899987],[-36.634865856,-9.64268262899992],[-36.638111245,-9.63904686299992],[-36.6367658259999,-9.63689817999994],[-36.638816138,-9.63606311399986],[-36.6442760339999,-9.63761433099989],[-36.646106528,-9.63981171799986],[-36.6487594619999,-9.63918735499999],[-36.6508789899999,-9.640857441],[-36.6531504789999,-9.64043719300003],[-36.6552753989999,-9.64295474599989],[-36.6591596819999,-9.64305562599988],[-36.6603724749999,-9.64143466499991],[-36.6898881689999,-9.6345583299999],[-36.6805460779999,-9.60244725399993],[-36.688666565,-9.59688194499989],[-36.6988901949999,-9.59987586599988],[-36.694859938,-9.58359863399994],[-36.6953307159999,-9.57994433099992],[-36.7071679169999,-9.5845933629999],[-36.7197750449999,-9.57995693199991],[-36.7230350879999,-9.5821594829999],[-36.744013319,-9.57517731099989],[-36.7540825209999,-9.57693288899998],[-36.7564433259999,-9.56572479900002],[-36.7579170079999,-9.56351431499991],[-36.7626901619999,-9.56114945199995],[-36.76392134,-9.55798507499993],[-36.7703070069999,-9.5563891419999],[-36.774308413,-9.55749023799996],[-36.777362734,-9.55381054399987],[-36.7855559759999,-9.55021927399993],[-36.7925582409999,-9.55307583899999],[-36.796859076,-9.55738052299989],[-36.8011634539999,-9.55578217799991],[-36.803082748,-9.55642630999989],[-36.8043595579999,-9.55960024299992],[-36.8100287409999,-9.56125627699988],[-36.8118052389999,-9.56358612299994],[-36.8139450799999,-9.56363469799982],[-36.8178581459999,-9.55976237599994],[-36.821808704,-9.55973278900002],[-36.827856031,-9.55334431399992],[-36.8314509129999,-9.55193456499995],[-36.8327548929999,-9.5551187519999],[-36.8366726309999,-9.55731416499992],[-36.83797432,-9.5624676259999],[-36.842416649,-9.56527855699987],[-36.842256703,-9.57296445699991],[-36.850221621,-9.57026326799992],[-36.8578348339999,-9.5771791059999],[-36.868554967,-9.58152879499989],[-36.8738340049999,-9.58631562899996],[-36.8789243239999,-9.59673130099993],[-36.8862533809999,-9.59699195699989],[-36.8881716979999,-9.59940739700001],[-37.0027221039999,-9.63048446699987],[-37.1098942689999,-9.6060041539999],[-37.14714456,-9.60311526599992],[-37.1208106109999,-9.53893872299995],[-37.1096991719999,-9.5164550809999],[-37.1096409369999,-9.50821973199994],[-37.1154763599999,-9.50061535499994],[-37.1137548059999,-9.49553442899993],[-37.1043687449999,-9.4919912499999],[-37.1034216369999,-9.49015972499989],[-37.10561839,-9.46245188299991],[-37.1031999419999,-9.45633051599998],[-37.0385891559999,-9.4168445779999],[-37.027980079,-9.38609935999989],[-37.0249207059999,-9.37217543299988],[-37.022781103,-9.36959593499989],[-36.9941596539999,-9.37430422999991],[-36.979640393,-9.35932825199996],[-36.958528738,-9.37870056799989],[-36.9524336799999,-9.38254344400002],[-36.944008945,-9.38234064300004],[-36.9332555509999,-9.37441882799988],[-36.9304389919999,-9.370036411],[-36.9367694129999,-9.36121423599987],[-36.9384045309999,-9.35567707799994],[-36.936553282,-9.34988636199989],[-36.9300312629999,-9.34699903199982],[-36.922272036,-9.33976194399991],[-36.920945251,-9.33248751499987],[-36.9267899929999,-9.32720594099995],[-36.926764443,-9.32289195399989],[-36.9223222269999,-9.31816591899993],[-36.9214167709999,-9.30955791399999],[-36.9158222849999,-9.29902088799992],[-36.897947104,-9.2811978559999],[-36.8897937709999,-9.28363902799988],[-36.874772547,-9.27696073199997],[-36.879784269,-9.27637464599996],[-36.875079816,-9.27434811900003],[-36.8729644289999,-9.26868291899989],[-36.867471193,-9.26853158799997],[-36.8576742429999,-9.27336198399999],[-36.856015753,-9.27290864000003],[-36.8532010929999,-9.27615153399985],[-36.8503912369999,-9.27587243899985],[-36.846776739,-9.27770669299993],[-36.8402463719999,-9.28757868899989],[-36.8378991189999,-9.28841879699996],[-36.7968326449999,-9.2804231759999],[-36.761772536,-9.27145699299991],[-36.6892248179999,-9.29644472399991],[-36.6874451479999,-9.30081651999997],[-36.674484514,-9.31044994599989],[-36.672627468,-9.3095987999999],[-36.6704222259999,-9.31323551499999],[-36.663071418,-9.31412534999994],[-36.6589317529999,-9.3160597729999],[-36.654624483,-9.31266917799996],[-36.6487909099999,-9.31557472799995],[-36.6446891209999,-9.31437166299993],[-36.642593484,-9.31606443800002],[-36.641809838,-9.3197682799999],[-36.6348469939999,-9.32125538099992],[-36.635898325,-9.32305161699993],[-36.6346193039999,-9.32690367599993],[-36.6287318839999,-9.32827864999997],[-36.627882418,-9.33233511099985],[-36.624538049,-9.33166593099991],[-36.624955604,-9.32775132399997],[-36.623434357,-9.32659317299988],[-36.619631468,-9.32880247899988],[-36.6193253769999,-9.32656737099989],[-36.6138267379999,-9.32380541999987],[-36.6156566009999,-9.32714848099989],[-36.614750504,-9.33102618499989],[-36.612847835,-9.33392872799981],[-36.6077221699999,-9.33346445399992],[-36.608303894,-9.33784644399993],[-36.6065558109999,-9.34071621299995],[-36.6036277059999,-9.34151263799982],[-36.6031421489999,-9.33815806799981],[-36.6008675649999,-9.33875820499992],[-36.598365935,-9.336830036],[-36.595110349,-9.33754351799991],[-36.593072901,-9.3348265239999],[-36.5852855059999,-9.33796797799995],[-36.5846258549999,-9.33561355899992],[-36.577690375,-9.33462845499992],[-36.576080291,-9.33187970799993],[-36.574565032,-9.33365228099991],[-36.570987814,-9.33162271199992],[-36.5665788539999,-9.33143755499999],[-36.5658309359999,-9.32710577299991],[-36.5669143259999,-9.3251874629999],[-36.56390958,-9.32278223799984],[-36.5668070479999,-9.32174472399994],[-36.568208526,-9.3182739549999],[-36.5727608239999,-9.32000171099993],[-36.5714338199999,-9.31604542299989],[-36.5744515279999,-9.30949378599991],[-36.5718413829999,-9.29258292699985],[-36.5532163139999,-9.28259301699996],[-36.4996359429999,-9.26523061899997],[-36.5003731409999,-9.26278559399993],[-36.4986544599999,-9.26491257499988],[-36.49491118,-9.26193215299993],[-36.4913404449999,-9.26240834399988],[-36.4904081889999,-9.26121440100002],[-36.4926926189999,-9.25417839599987],[-36.491488965,-9.25242736399986],[-36.4898115309999,-9.25264070699996],[-36.487167324,-9.24020116299994],[-36.481618468,-9.23918141899992],[-36.4761261329999,-9.24377278200002],[-36.4729556889999,-9.2437294219999],[-36.4684814629999,-9.24066605899992],[-36.462520006,-9.23925123799989],[-36.4595291159999,-9.23377782099982],[-36.4536629629999,-9.2323900759999],[-36.4552632189999,-9.22671931299988],[-36.4527507059999,-9.22510402899991],[-36.448714467,-9.22496150600001],[-36.4445698689999,-9.22011753399988],[-36.440674868,-9.21890339399989],[-36.4393832889999,-9.21362249699991],[-36.4370063999999,-9.21210026199999],[-36.431832678,-9.21213061599992],[-36.423303023,-9.21565312999997],[-36.4251852259999,-9.22176253199991],[-36.4243708989999,-9.22602407899991],[-36.4198037179999,-9.22956841999993],[-36.4153028389999,-9.22967369999998]]]}},{"type":"Feature","properties":{"id":"270003","state":"AL","stateCode":"27"},"geometry":{"type":"Polygon","coordinates":[[[-36.408037474,-10.471238445],[-36.419296904,-10.450514575],[-36.4304583229999,-10.4253112439999],[-36.4379284519999,-10.418429154],[-36.4436056289999,-10.4180216079999],[-36.450717968,-10.4101768379999],[-36.458836527,-10.4067310219999],[-36.4635292029999,-10.406737058],[-36.483853729,-10.4211728409999],[-36.51002865,-10.432815305],[-36.522229351,-10.433097475],[-36.5221330269999,-10.4287779369999],[-36.519646661,-10.426762122],[-36.5193077049999,-10.424703671],[-36.510047697,-10.4222658679999],[-36.512760537,-10.420804614],[-36.5281855779999,-10.4227158869999],[-36.538575555,-10.4223633789999],[-36.5446533349999,-10.4300397159999],[-36.55520885,-10.422716028],[-36.559344815,-10.422687679],[-36.5632280939999,-10.419504679],[-36.565310374,-10.4158091299999],[-36.565581664,-10.4118717979999],[-36.5619686429999,-10.4044164929999],[-36.5607621089999,-10.3933901239999],[-36.5617749739999,-10.3840864209999],[-36.5679300839999,-10.3728519279999],[-36.5684920319999,-10.362579287],[-36.5657658379999,-10.3452713139999],[-36.566076466,-10.3416756599999],[-36.567972426,-10.3394018239999],[-36.5661214069999,-10.328165407],[-36.57412972,-10.3152320559999],[-36.5889481979999,-10.301829564],[-36.591181863,-10.2873854049999],[-36.606429668,-10.2780650959999],[-36.625529994,-10.256278415],[-36.6386341819999,-10.2519145859999],[-36.644468553,-10.2525424199999],[-36.6579400029999,-10.2653345739999],[-36.679371954,-10.269812275],[-36.682748373,-10.2719248279999],[-36.6816628729999,-10.273463318],[-36.682533763,-10.27488693],[-36.685105509,-10.275259473],[-36.690415677,-10.272722604],[-36.701486992,-10.2711621359999],[-36.7212510459999,-10.264615208],[-36.733789583,-10.244761027],[-36.7435554589999,-10.233147553],[-36.747250655,-10.230904041],[-36.7685400269999,-10.227918822],[-36.778814648,-10.2247733199999],[-36.7885810609999,-10.2246392899999],[-36.814311886,-10.2188537779999],[-36.838381176,-10.2011541059999],[-36.846917441,-10.1854916129999],[-36.848607106,-10.162787497],[-36.851329645,-10.1600025889999],[-36.858584957,-10.1594087799999],[-36.8616682149999,-10.157541272],[-36.8643016719999,-10.1589597399999],[-36.8705343259999,-10.154765358],[-36.876982712,-10.146124028],[-36.910893893,-10.137943244],[-36.919739132,-10.1309985999999],[-36.926978842,-10.1181013239999],[-36.930574671,-10.105770907],[-36.9434590939999,-10.092844842],[-36.9522599789999,-10.0747886909999],[-36.94936543,-10.073911522],[-36.94230716,-10.0772432319999],[-36.868887011,-10.0470968249999],[-36.8747512149999,-10.0535041629999],[-36.872362853,-10.058296506],[-36.8654725369999,-10.058344023],[-36.8216637949999,-10.074597452],[-36.813360711,-10.0918303349999],[-36.806445587,-10.0942878099999],[-36.8003848689999,-10.1019145949999],[-36.789559532,-10.1053601459999],[-36.7861494599999,-10.1114822769999],[-36.7821686379999,-10.112414405],[-36.7700428149999,-10.1240991199999],[-36.7674996249999,-10.119550212],[-36.766083171,-10.1117535549999],[-36.7606682419999,-10.1047077209999],[-36.75263555,-10.09889737],[-36.751141706,-10.0938537179999],[-36.745678298,-10.088691033],[-36.737672026,-10.086483113],[-36.735608068,-10.0840545719999],[-36.7350801049999,-10.0793224509999],[-36.728780809,-10.072445354],[-36.7268880699999,-10.0656417519999],[-36.714382548,-10.053840572],[-36.71395103,-10.045493391],[-36.7051096519999,-10.019588605],[-36.706851093,-10.01101026],[-36.706940478,-10.0005925869999],[-36.6856876859999,-9.96267845099996],[-36.685475626,-9.96525233299994],[-36.6766113139999,-9.96838247099993],[-36.6538292609999,-9.98303952599995],[-36.646606213,-9.98618019699991],[-36.647027597,-9.98851482499999],[-36.6435054419999,-9.99231637999996],[-36.6430243899999,-9.9937316379999],[-36.644694374,-9.99592929700002],[-36.6486114459999,-9.99670195499991],[-36.6498034529999,-9.99937320099994],[-36.653088497,-10.000981752],[-36.653225299,-10.0068473529999],[-36.6471119559999,-10.0071008179999],[-36.646161949,-10.010039391],[-36.650663397,-10.0180572589999],[-36.654725303,-10.013519427],[-36.6556320219999,-10.018996402],[-36.651605079,-10.0243426819999],[-36.6516110079999,-10.0269339819999],[-36.6577858029999,-10.034214697],[-36.517216174,-10.0405193739999],[-36.5152395329999,-10.0443442859999],[-36.5150698099999,-10.049321261],[-36.512611131,-10.049872496],[-36.5105788629999,-10.055946831],[-36.5095823629999,-10.068618559],[-36.501519346,-10.070834045],[-36.5001647569999,-10.069728008],[-36.491361328,-10.071094238],[-36.4549519359999,-10.032269936],[-36.452412194,-10.0403187069999],[-36.304660656,-10.031379681],[-36.3055812629999,-10.0193833969999],[-36.2980459389999,-10.012840207],[-36.291185692,-10.000267794],[-36.287909863,-9.98534298899994],[-36.280950536,-9.93505072899993],[-36.123910727,-9.93366039800002],[-36.1158562779999,-9.93963874799994],[-36.112553423,-9.94613066599991],[-36.10613023,-9.95154536300002],[-36.104846519,-9.95834258099994],[-36.1020861049999,-9.96226059799993],[-36.0929485509999,-9.96932502499992],[-36.0888748409999,-9.97659996199994],[-36.0823170809999,-9.97968730399996],[-36.077055781,-9.99095762999997],[-36.073992259,-10.003288389],[-36.0648973769999,-10.005588779],[-36.056511763,-10.0118238589999],[-36.056518292,-10.0243169919999],[-36.054954622,-10.028220492],[-36.051356154,-10.0293703679999],[-36.0556481999999,-10.0371585779999],[-36.0566005269999,-10.041935663],[-36.0418769869999,-10.0511283069999],[-36.036040396,-10.046699681],[-36.0307721489999,-10.047045475],[-36.03262455305023,-10.051851587749296],[-36.05766226799161,-10.07526476002898],[-36.06840581524866,-10.08531122486865],[-36.070474394,-10.085254018],[-36.0887737849999,-10.094960289],[-36.0959105329999,-10.1034302459999],[-36.105249232846425,-10.119764100684533],[-36.14406582138135,-10.156062120563975],[-36.147528566,-10.1569188519999],[-36.14846556956721,-10.1601763962678],[-36.151135297286984,-10.162672901847058],[-36.1560450039999,-10.1635352339999],[-36.1634477089999,-10.168641618],[-36.1739091819999,-10.1805202059999],[-36.178362634867455,-10.188133625678331],[-36.195529144526496,-10.204186306565108],[-36.20813637228361,-10.215975529189368],[-36.20813637228362,-10.215975529189375],[-36.2173552149999,-10.2225447809999],[-36.236798216,-10.2402418599999],[-36.240465049,-10.245156624],[-36.2496659789999,-10.2513024779999],[-36.25115532305932,-10.25620324598226],[-36.251155323059336,-10.256203245982274],[-36.2693514799999,-10.2712833869999],[-36.278458149,-10.281651691],[-36.292165903,-10.300464952],[-36.302163384,-10.3231057469999],[-36.303300758,-10.3329952739999],[-36.302241572,-10.342639808],[-36.3014,-10.3446],[-36.3959,-10.4969],[-36.4012066489999,-10.4920283339999],[-36.408037474,-10.471238445]],[[-36.8414853099999,-10.1675055859999],[-36.8414806549999,-10.167501112],[-36.8413924559999,-10.1670624869999],[-36.8414853099999,-10.1675055859999]]]}},{"type":"Feature","properties":{"id":"270009","state":"AL","stateCode":"27"},"geometry":{"type":"Polygon","coordinates":[[[-37.7487572809999,-8.87028130199999],[-37.74611164,-8.88313178399993],[-37.743877849,-8.88400967400001],[-37.74159495,-8.88766084899994],[-37.7351936779999,-8.88760198099996],[-37.732987835,-8.89264118699998],[-37.735084565,-8.89561337899998],[-37.734292297,-8.89765198399998],[-37.731315536,-8.89841306999998],[-37.727952616,-8.90337119099998],[-37.7245653179999,-8.90409222199995],[-37.7266627419999,-8.90606340299997],[-37.7240553949999,-8.90782525499999],[-37.721675982,-8.91552300099991],[-37.712854141,-8.92196342799997],[-37.7078791499999,-8.92780050299994],[-37.703217889,-8.93764493600002],[-37.702244579,-8.94126045299994],[-37.7035014319999,-8.94427223299993],[-37.702187164,-8.94819536099997],[-37.690093072,-8.95615638300001],[-37.684628635,-8.96647348999992],[-37.68486809,-8.97421167799999],[-37.688506231,-8.978759117],[-37.693617417,-8.98304465299994],[-37.6975698969999,-8.98385853799996],[-37.7012128009999,-8.98653853400003],[-37.7033581359999,-8.98614750799989],[-37.701366525,-8.99040722099993],[-37.7018618149999,-8.99220921699999],[-37.694791185,-8.99225219899999],[-37.6903087929999,-8.98983494299991],[-37.686129845,-8.99622238199996],[-37.687597212,-8.99836163299993],[-37.685986009,-8.99875516499999],[-37.6616481539999,-8.98724800599992],[-37.660899559,-8.9943323979999],[-37.661857901,-8.99826954399996],[-37.664064986,-8.99954469299996],[-37.660707034,-9.00099925799994],[-37.661196232,-9.00480240199994],[-37.655712216,-9.00756455399996],[-37.6438845619999,-9.01834326399997],[-37.635417286,-9.01524578999994],[-37.6261388,-9.01437516399992],[-37.6153275099999,-9.00989999199992],[-37.6114233029999,-9.00548498399992],[-37.6157847879999,-9.00416817099995],[-37.6167710409999,-9.00063684499999],[-37.6145694519999,-8.98915828799996],[-37.6110033829999,-8.98374362699995],[-37.6032780069999,-8.97917988499991],[-37.6008357329999,-8.97612177599992],[-37.592002612,-8.97473436999999],[-37.583608596,-8.97016677399998],[-37.5761248799999,-8.97287349799992],[-37.562415182,-8.97395385599996],[-37.55582862,-8.96999247699993],[-37.5547369299999,-8.96645505799999],[-37.541063209,-8.95839844499998],[-37.5332449709999,-8.96070284399994],[-37.5301006339999,-8.96306965400003],[-37.5427264679999,-9.00064903899993],[-37.6093675169999,-9.09144410399995],[-37.6355458669999,-9.11042899200003],[-37.669955751,-9.15564973199998],[-37.6924527019999,-9.17679344899998],[-37.618128204,-9.19523552299999],[-37.615850898,-9.20563602299996],[-37.61846875,-9.208789055],[-37.620586816,-9.20907598999992],[-37.620347297,-9.21153769799995],[-37.6223115199999,-9.21302177400001],[-37.6218391279999,-9.2190823399999],[-37.618439273,-9.22240350699999],[-37.6089078319999,-9.22615742599991],[-37.608018585,-9.23150230300002],[-37.617897674,-9.23766649599995],[-37.6183274359999,-9.24662739799991],[-37.6100018229999,-9.24927824799997],[-37.609779224,-9.25222891899995],[-37.60687438,-9.25555867999994],[-37.607318054,-9.25844204999996],[-37.6056601,-9.26252218599993],[-37.60925219,-9.27017546299989],[-37.605445645,-9.27950235099995],[-37.597139671,-9.28408908999994],[-37.5945979109999,-9.28802971199996],[-37.5920100709999,-9.28827860199993],[-37.5899884239999,-9.28641323499996],[-37.5877933959999,-9.28730407799994],[-37.587134406,-9.28826230299993],[-37.589521458,-9.28893374899998],[-37.585942234,-9.29605245399993],[-37.59274453,-9.31398432299991],[-37.6116058189999,-9.33874786499993],[-37.6186745629999,-9.35817423500002],[-37.622539156,-9.36117682499994],[-37.6234725149999,-9.36553128299989],[-37.637257522,-9.37735774000001],[-37.6481870009999,-9.394922707],[-37.647952056,-9.40149743499992],[-37.6543173329999,-9.40475595499997],[-37.654119362,-9.40785879100002],[-37.65631458,-9.40839877400001],[-37.6577863699999,-9.41095459199991],[-37.659816011,-9.42253457699997],[-37.6657878679999,-9.44040403999995],[-37.6642055889999,-9.44559866299997],[-37.669208552,-9.45276864599999],[-37.671171915,-9.46229418699998],[-37.668661284,-9.46923607999995],[-37.6637881989999,-9.47502578799992],[-37.663358505,-9.48016344099993],[-37.6661520799999,-9.49209263599992],[-37.674367352,-9.49918185499993],[-37.6707015669999,-9.50780823999994],[-37.6761978709999,-9.52391103199995],[-37.67337469,-9.529502259],[-37.6722807069999,-9.53575282099998],[-37.668180601,-9.538747795],[-37.667832492,-9.54426320399998],[-37.663726564,-9.55724120399998],[-37.656398211,-9.56704706899997],[-37.655291008,-9.57106281699996],[-37.6494242899999,-9.57778654899994],[-37.643761377,-9.59112554199996],[-37.6390378479999,-9.59796203199995],[-37.637585672,-9.60371980699991],[-37.6428794779999,-9.621067871],[-37.659365828,-9.65412976099997],[-37.6596198509999,-9.6578601439999],[-37.6560098429999,-9.66736544399997],[-37.6603284359999,-9.67726487799997],[-37.6708517149999,-9.65664254899997],[-37.684144689,-9.64562940299992],[-37.6933630649999,-9.64209587199993],[-37.7117682589999,-9.63129919899994],[-37.7254476489999,-9.63039843299993],[-37.736637625,-9.62706953899993],[-37.747277682,-9.62572145499995],[-37.7602619119999,-9.62933340699991],[-37.7786766389999,-9.63871920799997],[-37.7819142069999,-9.63960269399997],[-37.785232716,-9.63857540299996],[-37.788363518,-9.63447275599997],[-37.790527055,-9.62515940799997],[-37.793100167,-9.62060793999996],[-37.807067963,-9.61010473200002],[-37.80976386,-9.60702246999999],[-37.811316038,-9.601713499],[-37.816442603,-9.59772390999996],[-37.8182482979999,-9.59289389299991],[-37.823775136,-9.591296574],[-37.833110618,-9.59488640599992],[-37.8375369419999,-9.58328263999994],[-37.8438609469999,-9.57806834799989],[-37.863795609,-9.56655242299999],[-37.868454348,-9.56173090799994],[-37.8861698709999,-9.55016684299996],[-37.89246553,-9.53979682499992],[-37.895920275,-9.54006489299998],[-37.9100351749999,-9.54715001399993],[-37.9171436419999,-9.548954206],[-37.926700887,-9.54641046899992],[-37.935399005,-9.54191240399998],[-37.948187186,-9.53881913799995],[-37.9562951519999,-9.5340827229999],[-37.977797149,-9.53145429199996],[-37.9852926649999,-9.52722883099993],[-37.9893301749999,-9.5273587],[-38.0032898979999,-9.51502990799998],[-38.0022284119999,-9.50662249599997],[-37.99794944,-9.49928333999998],[-38.0013362339999,-9.49561077199996],[-38.0109255089999,-9.478731137],[-38.019942004,-9.47591740099998],[-38.022154847,-9.4699909359999],[-38.029895381,-9.46693038099996],[-38.0361067509999,-9.46579996199997],[-38.0431630859999,-9.468598762],[-38.0551122809999,-9.462277467],[-38.0575557399999,-9.45920167799999],[-38.067846663,-9.45850266499995],[-38.0702500659999,-9.44798194499998],[-38.0777596559999,-9.44110667599992],[-38.1089424239999,-9.43562140200001],[-38.1133834829999,-9.4361793059999],[-38.118120252,-9.44226075800001],[-38.130180871,-9.43869913999991],[-38.1419284939999,-9.43776277399999],[-38.1549496439999,-9.44341613699994],[-38.1572695719999,-9.44039819300001],[-38.1745173219999,-9.43027811099994],[-38.177699961,-9.42538637099994],[-38.1839015909999,-9.425326901],[-38.20476417,-9.41867428199997],[-38.201867867,-9.40038285499997],[-38.1941767219999,-9.39438579399999],[-38.1959243899999,-9.39051132499997],[-38.194475624,-9.38493464099995],[-38.200293092,-9.37943012799997],[-38.2036244279999,-9.37283844699993],[-38.205573018,-9.36364891299994],[-38.2080679279999,-9.36010973799994],[-38.2148453639999,-9.35304934799991],[-38.223597374,-9.34690637199994],[-38.237588935,-9.32979343699995],[-38.2030811949999,-9.29690151999994],[-38.191698543,-9.29585804899992],[-38.1795543479999,-9.29125025599998],[-38.173559216,-9.28513777699994],[-38.1658176249999,-9.27131873100001],[-38.1607409309999,-9.26752293799999],[-38.1573777899999,-9.26261921199998],[-38.156306061,-9.24236376799992],[-38.148627856,-9.23077410199998],[-38.1439092099999,-9.21820483899994],[-38.1352380429999,-9.21395591399993],[-38.119247468,-9.2018031319999],[-38.11536997,-9.19836008799997],[-38.1140546429999,-9.19400114099991],[-38.10469332,-9.18459847899998],[-38.102578765,-9.18020765399993],[-38.097817791,-9.17869936099994],[-38.092287331,-9.17272497799996],[-38.07926335,-9.1705331929999],[-38.0639049149999,-9.17378060099999],[-38.05698159,-9.16762553999991],[-38.044541647,-9.16881549199996],[-38.030292437,-9.16494823199999],[-38.0292116599999,-9.15872128400001],[-38.025787942,-9.15550625699992],[-38.011012915,-9.15602801300001],[-37.9994826989999,-9.15224344999995],[-37.9909866469999,-9.155376341],[-37.987540631,-9.15368596499994],[-37.984652165,-9.14978976499997],[-37.9785633449999,-9.14766186399996],[-37.9762027679999,-9.13618990799994],[-37.9717588379999,-9.13104175199996],[-37.9712007329999,-9.12434193399993],[-37.9615824019999,-9.12012992199996],[-37.9575686779999,-9.11562977499994],[-37.9548504919999,-9.11131462299994],[-37.95159674,-9.09730964099997],[-37.942684658,-9.09221889599992],[-37.9425444239999,-9.08811636499995],[-37.9376771469999,-9.08011527599998],[-37.9297921889999,-9.07128003099994],[-37.9078755359999,-9.05221827899997],[-37.905736236,-9.04099292999995],[-37.889767742,-9.03479426699991],[-37.887706554,-9.03507389199994],[-37.8837911739999,-9.04005524899999],[-37.880983753,-9.04034676099997],[-37.877569828,-9.0353760519999],[-37.8752280419999,-9.02462200099998],[-37.879598557,-9.01541388199996],[-37.8744868549999,-9.01151490099994],[-37.867152284,-9.0116312229999],[-37.8530936859999,-9.00013964599997],[-37.8503202219999,-8.99185226199993],[-37.846008861,-8.98477108099998],[-37.839099054,-8.9783810879999],[-37.825333841,-8.93242826199995],[-37.833637043,-8.92641176799998],[-37.8270857599999,-8.92076282899995],[-37.8267792159999,-8.91560639099996],[-37.8203593049999,-8.90870377999996],[-37.8203593049999,-8.90020825799993],[-37.8243441619999,-8.89139308899992],[-37.819713479,-8.88985504699993],[-37.8172468609999,-8.88661247999996],[-37.8118025029999,-8.88474692499998],[-37.805305539,-8.88370386699991],[-37.8012323099999,-8.88471268299998],[-37.7961255219999,-8.88069033599989],[-37.793171478,-8.87544409299996],[-37.7878908659999,-8.87388681099999],[-37.7827923769999,-8.86701612799992],[-37.783047197,-8.86501539199996],[-37.779825576,-8.8654668309999],[-37.77603568,-8.86251443299998],[-37.7693419309999,-8.86411023399993],[-37.767948335,-8.86086883699997],[-37.761603954,-8.85622702599996],[-37.7589618359999,-8.85621851399995],[-37.7566334649999,-8.86113948699997],[-37.7487572809999,-8.87028130199999]]]}},{"type":"Feature","properties":{"id":"270002","state":"AL","stateCode":"27"},"geometry":{"type":"Polygon","coordinates":[[[-35.463763641,-9.34773121399998],[-35.5136675539999,-9.307729132],[-35.5136051539999,-9.31427260299998],[-35.519900631,-9.32211490099993],[-35.5191135489999,-9.32905263499994],[-35.5150758149999,-9.33827583199994],[-35.514184948,-9.3468328459999],[-35.5186980529999,-9.35479728199993],[-35.523356177,-9.35479996499989],[-35.5321170629999,-9.34707421899999],[-35.5363196689999,-9.34685240899992],[-35.5612860459999,-9.35820824699989],[-35.5645504349999,-9.35549973499999],[-35.567600472,-9.35545246599997],[-35.578446823,-9.35914791399994],[-35.68647888,-9.37071605499998],[-35.6919100969999,-9.29848282899992],[-35.6933197069999,-9.26025692500001],[-35.7029831859999,-9.22970146599996],[-35.7249390489999,-9.12534622799999],[-35.717838802,-9.12082251499996],[-35.710089683,-9.11336327899999],[-35.696362372,-9.10822697999991],[-35.689554134,-9.10188095699992],[-35.680939636,-9.10031497399994],[-35.674825584,-9.10132544199998],[-35.670554672,-9.105335037],[-35.664497761,-9.10781579699989],[-35.658735409,-9.10861243099992],[-35.6566254809999,-9.10697779299993],[-35.653208639,-9.10692844499993],[-35.6496995809999,-9.12273622599995],[-35.6454257119999,-9.11914779199994],[-35.6377232729999,-9.11884981],[-35.630595038,-9.12445176999996],[-35.626745902,-9.12953554199995],[-35.6236618,-9.13006173999997],[-35.616873369,-9.13356085599993],[-35.580064942,-9.15781191699991],[-35.629182885,-9.09221330699992],[-35.6866511489999,-9.09966610299999],[-35.688879383,-9.101236577],[-35.691164385,-9.09542265399999],[-35.6960297109999,-9.09213634799994],[-35.700653089,-9.08524841799997],[-35.7050565209999,-9.08268528799991],[-35.7074362709999,-9.06577341199993],[-35.708779969,-9.06395712099994],[-35.7075235769999,-9.05956158999997],[-35.7096427699999,-9.05747353799996],[-35.709271529,-9.04920693199994],[-35.6992182379999,-9.04120427599994],[-35.686398514,-9.03576367399992],[-35.6826664399999,-9.02931331899992],[-35.756867362,-9.00951685499994],[-35.8345666729999,-8.98428904599997],[-35.8353295119999,-8.94470759099996],[-35.8269523489999,-8.87009424999999],[-35.824473412,-8.86865263799999],[-35.825501938,-8.86383458999996],[-35.8229807009999,-8.85741933199993],[-35.8158693819999,-8.85740378799998],[-35.8116428109999,-8.86013868599994],[-35.807900173,-8.86038861699994],[-35.796212903,-8.84739891099995],[-35.790621022,-8.85341379199998],[-35.7876006779999,-8.85113063499998],[-35.7832522829999,-8.85565047399993],[-35.7813288519999,-8.860965692],[-35.7759844939999,-8.85845810399998],[-35.7769202229999,-8.86926548299997],[-35.7836816829999,-8.88200167199994],[-35.779142716,-8.88864195199994],[-35.7829852679999,-8.89754234399997],[-35.778192937,-8.89888840399998],[-35.7732466249999,-8.90614032799994],[-35.760921663,-8.90808090900002],[-35.748403512,-8.91715212699998],[-35.7449279109999,-8.91672473399995],[-35.736408162,-8.91191828500001],[-35.7233013479999,-8.90946999799993],[-35.713705341,-8.904798034],[-35.7080033999999,-8.90663447699996],[-35.7002806519999,-8.90659073699991],[-35.687507748,-8.89850656699999],[-35.6809222669999,-8.89699125999994],[-35.6773808499999,-8.89848452399996],[-35.6712095309999,-8.89663429799999],[-35.6631191819999,-8.88967459599994],[-35.6608901939999,-8.88287178999999],[-35.6575221719999,-8.88065942100001],[-35.6442794349999,-8.88298294299997],[-35.632133208,-8.88127858599997],[-35.623436332,-8.87564370499994],[-35.6202894799999,-8.86888972699997],[-35.6137877229999,-8.86439575000001],[-35.6093315429999,-8.86354161999994],[-35.605496693,-8.86515320699998],[-35.5961990989999,-8.86099195199995],[-35.594964086,-8.85608954499995],[-35.5880040179999,-8.84888418899991],[-35.5776861319999,-8.84348881299998],[-35.5689302839999,-8.84237497699993],[-35.5674873389999,-8.83544355600001],[-35.5636851459999,-8.83164681499991],[-35.560021954,-8.83277780899999],[-35.5537051209999,-8.82864472999995],[-35.5466457439999,-8.82759077899997],[-35.5467398839999,-8.82540568900001],[-35.5453561219999,-8.82452783899994],[-35.5441109909999,-8.82566248999994],[-35.538710549,-8.82022384399999],[-35.53462968,-8.81992177199995],[-35.5314507269999,-8.82827103899993],[-35.520499578,-8.82039449799989],[-35.517776171,-8.81675756399999],[-35.5139973939999,-8.81852688699999],[-35.511525612,-8.81753529400001],[-35.507150219,-8.81862377799994],[-35.504263371,-8.82229903999999],[-35.5003814099999,-8.82016745399994],[-35.500356347,-8.82496358799994],[-35.495759138,-8.82830257199998],[-35.493479703,-8.82532900999997],[-35.4881946479999,-8.82735680399998],[-35.48212887,-8.82615241799996],[-35.480588412,-8.81993488699997],[-35.472232156,-8.81715689299998],[-35.470131046,-8.81312703199995],[-35.4675919049999,-8.81402643899996],[-35.467531626,-8.81743564899995],[-35.464299586,-8.81636441999995],[-35.46234572,-8.81883058299999],[-35.4644694629999,-8.82021486299995],[-35.462883296,-8.82387777799996],[-35.463562669,-8.82573751499993],[-35.466762332,-8.82826415399998],[-35.4632330049999,-8.82882405899995],[-35.4613778729999,-8.83060769599992],[-35.4598276799999,-8.83777450099995],[-35.4558183159999,-8.8409589199999],[-35.449483184,-8.84200185299997],[-35.441522796,-8.840314819],[-35.439824395,-8.84156223799991],[-35.4358768959999,-8.84093112499992],[-35.431919771,-8.83600747299996],[-35.4238708849999,-8.83852385099997],[-35.4220927649999,-8.83653338100001],[-35.419391173,-8.83659021599993],[-35.418480313,-8.83856920499998],[-35.416698036,-8.83883547299999],[-35.4143380559999,-8.83641218799996],[-35.411225583,-8.83623096299998],[-35.4068879439999,-8.83841913399992],[-35.4075101329999,-8.84238885699991],[-35.399991622,-8.85031281199998],[-35.3945724999999,-8.84983545399992],[-35.287654072,-8.87655579999994],[-35.2775874019999,-8.87516415599988],[-35.252786768,-8.8872352779999],[-35.2378438929999,-8.88272317399995],[-35.229595983,-8.88461452499995],[-35.220113173,-8.88927378699999],[-35.2114544679999,-8.88885223899993],[-35.20909669,-8.89176597899997],[-35.203080514,-8.88822750599993],[-35.198102315,-8.887357854],[-35.1858869939999,-8.89003592],[-35.181596447,-8.88807540199995],[-35.1767494209999,-8.88884015599998],[-35.1682585669999,-8.89247142899999],[-35.155982967,-8.90276934699992],[-35.1556498589999,-8.90789726500001],[-35.1538482519999,-8.91145775499999],[-35.155421734,-8.91259950899995],[-35.154663871,-8.91395920400001],[-35.1527,-8.9139],[-35.15977911535801,-8.925948878058557],[-35.1669867739999,-8.9347529359999],[-35.1688414075595,-8.941373185778465],[-35.19822012615929,-8.991376693282408],[-35.2027776839999,-8.99397059999998],[-35.2203755309999,-9.01355491499991],[-35.2264510439999,-9.02989149599996],[-35.2388144859999,-9.04902799299999],[-35.23929799877057,-9.061292530638843],[-35.25475332006536,-9.087405603381683],[-35.2564476809999,-9.08875969499998],[-35.25687837646963,-9.090992129803757],[-35.26222796679054,-9.100020806404853],[-35.27662434657032,-9.124318042167019],[-35.279418467,-9.12503808599997],[-35.2840710679999,-9.13178321499994],[-35.28659206194474,-9.141140877780341],[-35.2951,-9.1555],[-35.3384435429047,-9.229578055146211],[-35.3425182189999,-9.23119682199994],[-35.341622906553106,-9.233640746422488],[-35.38681572342086,-9.28631315483402],[-35.431836199859404,-9.323979061025897],[-35.4362962219999,-9.32627457799994],[-35.43910572160974,-9.33006102963149],[-35.44855496619697,-9.33796664033049],[-35.453639960112866,-9.342220946792214],[-35.457263335,-9.34256764399997],[-35.463763641,-9.34773121399998]],[[-35.6225564309999,-9.13078266599993],[-35.6239268749999,-9.13486044699992],[-35.6225121919999,-9.13078162199992],[-35.6236618,-9.13006173999997],[-35.6225564309999,-9.13078266599993]]]}},{"type":"Feature","properties":{"id":"270007","state":"AL","stateCode":"27"},"geometry":{"type":"Polygon","coordinates":[[[-36.4818918669999,-9.49744164899992],[-36.479165355,-9.49236047299998],[-36.472649529,-9.48667984199998],[-36.4684155359999,-9.48551882499993],[-36.4509753529999,-9.50527158499994],[-36.3785760499999,-9.51015717799996],[-36.3512987879999,-9.50633750899994],[-36.3356016749999,-9.51391873999998],[-36.32919559,-9.51095152699996],[-36.319137299,-9.51801240399994],[-36.3121980859999,-9.51784229799999],[-36.309373035,-9.51907542899997],[-36.3093211729999,-9.52134072099998],[-36.307159059,-9.52257390899997],[-36.2927536839999,-9.51954959599995],[-36.260570892,-9.52058133499995],[-36.2407945129999,-9.51029662199994],[-36.225096573,-9.49090161699996],[-36.21698856,-9.47403136199997],[-36.2281881,-9.514925704],[-36.2186637289999,-9.56411521999995],[-36.191571648,-9.59985457999995],[-36.264411681,-9.59564230399994],[-36.2539094429999,-9.62388934399995],[-36.287908403,-9.60912400599995],[-36.291269539,-9.60241369299994],[-36.293302941,-9.60268441299996],[-36.2938333699999,-9.60155314799998],[-36.3208563049999,-9.60830624699998],[-36.351163817,-9.60721710900002],[-36.350213894,-9.60534534699994],[-36.3465775429999,-9.60478727399994],[-36.3445521609999,-9.600371606],[-36.3456746039999,-9.59636730499996],[-36.3471670319999,-9.59595560799993],[-36.346854881,-9.59396016799992],[-36.350744585,-9.59235028999995],[-36.3921048969999,-9.60290488599999],[-36.3886069939999,-9.6287728899999],[-36.3808292309999,-9.63536723199999],[-36.3941647399999,-9.64836759799999],[-36.378980541,-9.65863202199998],[-36.375632058,-9.66628210999994],[-36.3748332079999,-9.67299970399995],[-36.372083425,-9.67752672799998],[-36.3734649369999,-9.68758127899993],[-36.3707149909999,-9.6979441719999],[-36.3660508999999,-9.70004996799999],[-36.3641672049999,-9.69944678199998],[-36.3636936119999,-9.70161247699995],[-36.3552753779999,-9.70814542899993],[-36.3471388,-9.71009846299997],[-36.343138643,-9.71321466799997],[-36.3445198469999,-9.72157175599999],[-36.342719823,-9.73914994499994],[-36.347385352,-9.74853416499994],[-36.3531059919999,-9.74689742199998],[-36.361381133,-9.75214251999999],[-36.35497149,-9.75387758800001],[-36.3541603629999,-9.75721950199995],[-36.360028287,-9.76900981399998],[-36.3635252429999,-9.76641434299993],[-36.364714021,-9.76739732499998],[-36.3689395929999,-9.76571951399999],[-36.3845518649999,-9.76948910599996],[-36.3939958569999,-9.77407571399994],[-36.414504224,-9.77745881499988],[-36.393966975,-9.79275870499989],[-36.3634384969999,-9.82667778699991],[-36.353915452,-9.83388717600001],[-36.335806352,-9.85482933099993],[-36.323937015,-9.8787283949999],[-36.31300042,-9.88693129899995],[-36.277882607,-9.89229519199993],[-36.2772782829999,-9.89970668899996],[-36.2796743599999,-9.92478684499996],[-36.287909863,-9.98534298899994],[-36.291185692,-10.000267794],[-36.2980459389999,-10.012840207],[-36.3055812629999,-10.0193833969999],[-36.304660656,-10.031379681],[-36.452412194,-10.0403187069999],[-36.4549519359999,-10.032269936],[-36.491361328,-10.071094238],[-36.5001647569999,-10.069728008],[-36.501519346,-10.070834045],[-36.5095823629999,-10.068618559],[-36.5105788629999,-10.055946831],[-36.512611131,-10.049872496],[-36.5150698099999,-10.049321261],[-36.5152395329999,-10.0443442859999],[-36.517216174,-10.0405193739999],[-36.6577858029999,-10.034214697],[-36.6516110079999,-10.0269339819999],[-36.651605079,-10.0243426819999],[-36.6556320219999,-10.018996402],[-36.654725303,-10.013519427],[-36.650663397,-10.0180572589999],[-36.646161949,-10.010039391],[-36.6471119559999,-10.0071008179999],[-36.653225299,-10.0068473529999],[-36.653088497,-10.000981752],[-36.6498034529999,-9.99937320099994],[-36.6486114459999,-9.99670195499991],[-36.644694374,-9.99592929700002],[-36.6430243899999,-9.9937316379999],[-36.6435054419999,-9.99231637999996],[-36.647027597,-9.98851482499999],[-36.646606213,-9.98618019699991],[-36.6538292609999,-9.98303952599995],[-36.6766113139999,-9.96838247099993],[-36.685475626,-9.96525233299994],[-36.6856876859999,-9.96267845099996],[-36.706940478,-10.0005925869999],[-36.706851093,-10.01101026],[-36.7051096519999,-10.019588605],[-36.71395103,-10.045493391],[-36.714382548,-10.053840572],[-36.7268880699999,-10.0656417519999],[-36.728780809,-10.072445354],[-36.7350801049999,-10.0793224509999],[-36.735608068,-10.0840545719999],[-36.737672026,-10.086483113],[-36.745678298,-10.088691033],[-36.751141706,-10.0938537179999],[-36.75263555,-10.09889737],[-36.7606682419999,-10.1047077209999],[-36.766083171,-10.1117535549999],[-36.7674996249999,-10.119550212],[-36.7700428149999,-10.1240991199999],[-36.7821686379999,-10.112414405],[-36.7861494599999,-10.1114822769999],[-36.789559532,-10.1053601459999],[-36.8003848689999,-10.1019145949999],[-36.806445587,-10.0942878099999],[-36.813360711,-10.0918303349999],[-36.8216637949999,-10.074597452],[-36.8654725369999,-10.058344023],[-36.872362853,-10.058296506],[-36.8747512149999,-10.0535041629999],[-36.868887011,-10.0470968249999],[-36.94230716,-10.0772432319999],[-36.94936543,-10.073911522],[-36.9522599789999,-10.0747886909999],[-36.9544303169999,-10.0706448789999],[-36.959100783,-10.050530334],[-36.956299609,-10.034149155],[-36.9564454479999,-10.019232599],[-36.963958361,-9.99747769799998],[-36.9726246279999,-9.98789483799994],[-36.9948813939999,-9.97537238999998],[-37.000345926,-9.97527331099997],[-37.0133419339999,-9.97868094199992],[-37.0378592989999,-9.98908315199994],[-37.04421172,-9.98869285199989],[-37.049686969,-9.9866135309999],[-37.067923736,-9.97359399299993],[-37.103415598,-9.93900094899992],[-37.1334223279999,-9.913206639],[-37.1267089739999,-9.90290791400001],[-37.1254735429999,-9.89206542099993],[-37.1233178149999,-9.8899298339999],[-37.118007797,-9.89002188299996],[-37.119496195,-9.88530816299995],[-37.1177633959999,-9.88051518399994],[-37.1183003839999,-9.87327752299999],[-37.1141241899999,-9.86801460399993],[-37.1108324379999,-9.86808281299997],[-37.1071000899999,-9.86531210999997],[-37.107853596,-9.85436146800001],[-37.105919946,-9.85264152199991],[-37.105478717,-9.84793751899999],[-37.103493062,-9.84782026399997],[-37.040189722,-9.80731500000001],[-37.0378752779999,-9.80722027799988],[-37.032804147,-9.79332089799996],[-37.0290986959999,-9.7885896129999],[-37.0223618799999,-9.78709746699998],[-37.020615209,-9.78506944999997],[-37.01883712,-9.77735475199998],[-37.01511885,-9.77183783399996],[-37.0042773069999,-9.76500101199995],[-36.9983356729999,-9.76312649599993],[-36.999026239,-9.74026495599998],[-37.0018044349999,-9.73771506499995],[-37.002613292,-9.73339604200001],[-37.001445294,-9.72932807199994],[-36.993481985,-9.720735541],[-37.0671194499999,-9.65844010199992],[-37.0676131439999,-9.63691498299998],[-37.0629479309999,-9.63254565499995],[-37.0600059159999,-9.62661001000001],[-37.0539259819999,-9.62261361399991],[-37.0520791239999,-9.61976192799995],[-37.0027221039999,-9.63048446699995],[-36.8881716979999,-9.59940739699998],[-36.8862533809999,-9.59699195699995],[-36.878924324,-9.59673130099997],[-36.873834005,-9.58631562899999],[-36.868554967,-9.58152879499994],[-36.8578348339999,-9.57717910599996],[-36.850221621,-9.57026326799997],[-36.842256703,-9.57296445699992],[-36.842416649,-9.56527855699993],[-36.83797432,-9.56246762599998],[-36.8366726309999,-9.55731416499997],[-36.832754893,-9.55511875199998],[-36.831450913,-9.55193456499994],[-36.827856031,-9.55334431399997],[-36.821808704,-9.559732789],[-36.8178581459999,-9.55976237599995],[-36.8139450799999,-9.5636346979999],[-36.8118052389999,-9.56358612299995],[-36.8100287409999,-9.56125627699992],[-36.8043595579999,-9.55960024299996],[-36.803082748,-9.55642630999997],[-36.8011634539999,-9.55578217799997],[-36.796859076,-9.55738052299996],[-36.7925582409999,-9.55307583899994],[-36.7855559759999,-9.55021927399994],[-36.777362734,-9.5538105439999],[-36.774308413,-9.55749023799998],[-36.770307007,-9.55638914199991],[-36.76392134,-9.55798507499999],[-36.762690162,-9.56114945199997],[-36.7579170079999,-9.56351431499997],[-36.7564433259999,-9.56572479899999],[-36.7540825209999,-9.57693288900002],[-36.744013319,-9.57517731099996],[-36.7230350879999,-9.58215948299993],[-36.7197750449999,-9.57995693199994],[-36.707167917,-9.58459336299993],[-36.695330716,-9.57994433099995],[-36.694859938,-9.58359863399998],[-36.6988901949999,-9.59987586599993],[-36.6886665649999,-9.59688194499993],[-36.6805460779999,-9.60244725399996],[-36.6898881689999,-9.63455832999995],[-36.6603724749999,-9.64143466499993],[-36.659159682,-9.64305562599995],[-36.6552753989999,-9.64295474599995],[-36.6531504789999,-9.64043719300001],[-36.6508789899999,-9.64085744099995],[-36.6487594619999,-9.63918735499996],[-36.646106528,-9.63981171799994],[-36.6442760339999,-9.63761433099993],[-36.6391921929999,-9.63595944199997],[-36.6367658259999,-9.63689817999993],[-36.638111245,-9.63904686299998],[-36.634865856,-9.64268262899997],[-36.6320449,-9.64313807899993],[-36.63152024,-9.64492698899996],[-36.6305992089999,-9.64377586499993],[-36.628177079,-9.64418378199993],[-36.6260473579999,-9.65091746999992],[-36.623336614,-9.65111630899995],[-36.624579737,-9.65269731099992],[-36.623632929,-9.65518914499996],[-36.6196662809999,-9.6555962749999],[-36.616725193,-9.65335920899997],[-36.612802975,-9.653579298],[-36.6116479519999,-9.65227463199995],[-36.610015006,-9.65375408099997],[-36.6063981869999,-9.65347244499993],[-36.607000681,-9.65037713699998],[-36.609520126,-9.64946901599998],[-36.6091364819999,-9.64726844299998],[-36.61130044,-9.64333118500001],[-36.6089460709999,-9.63444520299991],[-36.6141645809999,-9.62838392999996],[-36.61705419,-9.62704113699998],[-36.6193889249999,-9.62982179399992],[-36.6260800529999,-9.63268179399994],[-36.630333167,-9.63037544299998],[-36.6266389269999,-9.62690545199992],[-36.626109437,-9.62415892199998],[-36.624086189,-9.623603172],[-36.6234979869999,-9.62110507599997],[-36.6141399339999,-9.62281109500002],[-36.6109667849999,-9.61862931499995],[-36.614995846,-9.61191002399991],[-36.6142450439999,-9.61005651499993],[-36.615388662,-9.6085878589999],[-36.616912293,-9.6075593329999],[-36.619496865,-9.60869722399998],[-36.623829348,-9.60421050599994],[-36.6246618389999,-9.59582950699997],[-36.6217774569999,-9.59119416399996],[-36.623523318,-9.59108917399996],[-36.623522257,-9.58991013799993],[-36.6208309969999,-9.58731207099992],[-36.620883071,-9.58597188199997],[-36.623553294,-9.58547636299991],[-36.6224423,-9.58286844199996],[-36.6235486309999,-9.5805384519999],[-36.6199173759999,-9.5774276519999],[-36.6147480189999,-9.58016810799999],[-36.6027238139999,-9.5758913889999],[-36.6013583959999,-9.56801390499996],[-36.597305198,-9.56895236199997],[-36.591642949,-9.57274359199995],[-36.5839425709999,-9.57296269399995],[-36.5736427839999,-9.56571346499994],[-36.575079105,-9.56422269299996],[-36.5730581069999,-9.56173536299996],[-36.566496377,-9.56094395499995],[-36.5662521509999,-9.55569198799997],[-36.558943179,-9.55019803799997],[-36.5582485499999,-9.54534035799992],[-36.554612243,-9.54217748699998],[-36.555057227,-9.54063057999999],[-36.5504693419999,-9.53961474099996],[-36.5479838469999,-9.53598505299992],[-36.545308919,-9.536786771],[-36.5445014859999,-9.53447935599995],[-36.538452188,-9.53306597899998],[-36.4952483329999,-9.60388333299995],[-36.48206069,-9.60537318799993],[-36.481097807,-9.60716248399993],[-36.469057969,-9.60600057899997],[-36.466911066,-9.60911921000001],[-36.4657573749999,-9.61838033299995],[-36.463329947,-9.61853828599997],[-36.453236095,-9.61547146299996],[-36.4494322529999,-9.61184096099996],[-36.446811749,-9.60590588699997],[-36.488363889,-9.50219916699991],[-36.4818918669999,-9.49744164899992]],[[-36.446748687,-9.60577897599994],[-36.4467627429999,-9.60579724099994],[-36.446811749,-9.60590588699997],[-36.446748687,-9.60577897599994]]]}},{"type":"Feature","properties":{"id":"270011","state":"AL","stateCode":"27"},"geometry":{"type":"Polygon","coordinates":[[[-37.373097692,-9.524782435],[-37.3802929299999,-9.50288084299993],[-37.320779987,-9.46841531299998],[-37.2691495949999,-9.45711627],[-37.2280728879999,-9.51932870399995],[-37.1873515789999,-9.56129360699999],[-37.1208106109999,-9.53893872299997],[-37.14714456,-9.603115266],[-37.1098942689999,-9.60600415399992],[-37.0520791239999,-9.61976192799995],[-37.0539259819999,-9.62261361399991],[-37.0600059159999,-9.62661001000001],[-37.0629479309999,-9.63254565499995],[-37.0676131439999,-9.63691498299998],[-37.0671194499999,-9.65844010199992],[-36.993481985,-9.720735541],[-37.001445294,-9.72932807199994],[-37.002613292,-9.73339604200001],[-37.0018044349999,-9.73771506499995],[-36.999026239,-9.74026495599998],[-36.9983356729999,-9.76312649599993],[-37.0042773069999,-9.76500101199995],[-37.01511885,-9.77183783399996],[-37.01883712,-9.77735475199998],[-37.020615209,-9.78506944999997],[-37.0223618799999,-9.78709746699998],[-37.0290986959999,-9.7885896129999],[-37.032804147,-9.79332089799996],[-37.0378752779999,-9.80722027799988],[-37.040189722,-9.80731500000001],[-37.103493062,-9.84782026399997],[-37.105478717,-9.84793751899999],[-37.105919946,-9.85264152199991],[-37.107853596,-9.85436146800001],[-37.1071000899999,-9.86531210999997],[-37.1108324379999,-9.86808281299997],[-37.1141241899999,-9.86801460399993],[-37.1183003839999,-9.87327752299999],[-37.1177633959999,-9.88051518399994],[-37.119496195,-9.88530816299995],[-37.118007797,-9.89002188299996],[-37.1233178149999,-9.8899298339999],[-37.1254735429999,-9.89206542099993],[-37.1267089739999,-9.90290791400001],[-37.1334223279999,-9.913206639],[-37.1425391669999,-9.90625414499991],[-37.15296599,-9.90085286199993],[-37.1798629209999,-9.89803271099992],[-37.226592315,-9.89947622599991],[-37.235542551,-9.89603772799997],[-37.239883453,-9.89313492399997],[-37.2489206729999,-9.88221383499997],[-37.2569380309999,-9.86026877699994],[-37.2642011909999,-9.85043471999994],[-37.28542132,-9.83096299799998],[-37.3087491689999,-9.82546131299996],[-37.321122201,-9.82046177300001],[-37.3415521459999,-9.79908820500002],[-37.354622911,-9.78908038799991],[-37.3953661579999,-9.77868312799993],[-37.417758345,-9.76295667399999],[-37.4344935409999,-9.75698594099988],[-37.4668576569999,-9.7495245559999],[-37.46638436,-9.7487440589999],[-37.469693142,-9.74755185000001],[-37.519248573,-9.74603618599995],[-37.571901149,-9.73872433699997],[-37.5781889619999,-9.73641255799992],[-37.5943164189999,-9.72324535899999],[-37.621643192,-9.70876693199994],[-37.6347641409999,-9.69955138299994],[-37.6391848219999,-9.69470508399997],[-37.655604088,-9.68588488699991],[-37.6603284359999,-9.67726487799997],[-37.6560098429999,-9.66736544399997],[-37.6596198509999,-9.6578601439999],[-37.659365828,-9.65412976099997],[-37.6428794779999,-9.621067871],[-37.637585672,-9.60371980699991],[-37.6390378479999,-9.59796203199995],[-37.643761377,-9.59112554199996],[-37.6494242899999,-9.57778654899994],[-37.655291008,-9.57106281699996],[-37.656398211,-9.56704706899997],[-37.663726564,-9.55724120399998],[-37.667832492,-9.54426320399998],[-37.668180601,-9.538747795],[-37.6722807069999,-9.53575282099998],[-37.67337469,-9.529502259],[-37.6761978709999,-9.52391103199995],[-37.6707015669999,-9.50780823999994],[-37.674367352,-9.49918185499993],[-37.6661520799999,-9.49209263599992],[-37.663358505,-9.48016344099993],[-37.6637881989999,-9.47502578799992],[-37.668661284,-9.46923607999995],[-37.671171915,-9.46229418699998],[-37.669208552,-9.45276864599999],[-37.6642055889999,-9.44559866299997],[-37.6657878679999,-9.44040403999995],[-37.65631458,-9.40839877400001],[-37.445338334,-9.47662773499995],[-37.373097692,-9.524782435]]]}},{"type":"Feature","properties":{"id":"270005","state":"AL","stateCode":"27"},"geometry":{"type":"Polygon","coordinates":[[[-35.8843375769999,-8.86268074499998],[-35.8755223049999,-8.8588911749999],[-35.8638695869999,-8.85797032999989],[-35.8554054239999,-8.86271971799994],[-35.8491433489999,-8.87181229499988],[-35.8425196389999,-8.87292521999995],[-35.8370551889999,-8.86874174999992],[-35.8339008249999,-8.87022067799991],[-35.8305884009999,-8.86848680899988],[-35.8269523489999,-8.87009424999991],[-35.8353295119999,-8.94470759099988],[-35.8345666729999,-8.98428904599991],[-35.8605133779999,-9.05349027499996],[-35.8885731639999,-9.13830826699997],[-35.8345364469999,-9.23565731999993],[-35.8385138539999,-9.30932448499989],[-35.8346173309999,-9.31265708799994],[-35.8311531829999,-9.31314785399991],[-35.8300895799999,-9.32268157099999],[-35.8774200949999,-9.41668701599987],[-35.9288486829999,-9.37454945099983],[-36.014378353,-9.40097200299989],[-36.0300101799999,-9.37466772899989],[-36.012224386,-9.36634875099992],[-36.000522366,-9.33844247099989],[-36.0037224879999,-9.32576418699995],[-36.0457487049999,-9.33336834699993],[-36.053720261,-9.29741408299994],[-36.0585302799999,-9.31216639699988],[-36.0587052389999,-9.29376125199992],[-36.0652606369999,-9.28449720899994],[-36.090184224,-9.26342918299985],[-36.1322006649999,-9.24953451999988],[-36.181260795,-9.21211792099996],[-36.2815812449999,-9.18624156299995],[-36.2851323689999,-9.18306090599998],[-36.28776026,-9.17330243499997],[-36.285945403,-9.17271855299999],[-36.2857607559999,-9.17007870399988],[-36.274172909,-9.16620395399993],[-36.2706212039999,-9.16904738199991],[-36.271098562,-9.17103932399988],[-36.2680694199999,-9.17009939599989],[-36.2670724509999,-9.17158215899998],[-36.2624445659999,-9.17127733499996],[-36.2625821049999,-9.16726326999992],[-36.2647195589999,-9.16586256],[-36.257257527,-9.1401489179999],[-36.2580698429999,-9.13346418599987],[-36.2635458309999,-9.12600445099998],[-36.2636458889999,-9.123595261],[-36.260688242,-9.11852250999994],[-36.267000734,-9.11109085800002],[-36.268394518,-9.10392443600002],[-36.266846282,-9.1023817859999],[-36.2556785779999,-9.10264200399986],[-36.25184134,-9.09974367499984],[-36.2455251149999,-9.0990442629999],[-36.2409652779999,-9.09939302299991],[-36.2364613,-9.10349078399993],[-36.2282747199999,-9.09493378699989],[-36.2224714189999,-9.08643380899997],[-36.2234046749999,-9.08253655899989],[-36.221916039,-9.07330330699983],[-36.2103419169999,-9.07313862799999],[-36.206006552,-9.07119371899995],[-36.2027970399999,-9.06684491799991],[-36.203370027,-9.06164524999993],[-36.198505732,-9.04667674399992],[-36.1957276439999,-9.04478651199998],[-36.1889496429999,-9.04629547400004],[-36.183447878,-9.04435142700003],[-36.179467395,-9.04101672299999],[-36.1751320589999,-9.04415109599989],[-36.1641381989999,-9.04048900199997],[-36.1576662009999,-9.04203227],[-36.1547873249999,-9.0399612409999],[-36.1517315309999,-9.04269565299989],[-36.1428095379999,-9.04032379399986],[-36.13889196,-9.03600999199991],[-36.1272822069999,-9.03366968299991],[-36.111495482,-9.01767413499988],[-36.11509176,-9.01340084999986],[-36.1137773999999,-9.00921395199989],[-36.109469674,-9.00842311999985],[-36.109796806,-9.00544158699996],[-36.1043317969999,-8.99892950199996],[-36.10623544,-8.99448351599989],[-36.1121917119999,-8.98778823899988],[-36.1246143659999,-8.9834010539999],[-36.1268141229999,-8.98127648400004],[-36.1298097979999,-8.9657934299999],[-36.1282526329999,-8.95771734999993],[-36.1242639279999,-8.95358794299989],[-36.1009531819999,-8.94927672099993],[-36.086414201,-8.9440675709999],[-36.078618744,-8.93629376999992],[-36.0734528689999,-8.92563957499988],[-36.0639386359999,-8.91533751500004],[-36.057278787,-8.91302717799989],[-36.0264145909999,-8.90796928799989],[-36.0148822389999,-8.91243738499998],[-36.0053875049999,-8.91300138499993],[-36.000411173,-8.91006061799987],[-35.99910892,-8.90772989100003],[-35.995603444,-8.90738672099998],[-35.987053722,-8.90328745999995],[-35.9841615929999,-8.90521711999986],[-35.970659243,-8.90039709799988],[-35.968050271,-8.90374576299992],[-35.9653070869999,-8.90314419500005],[-35.9626360119999,-8.90120802999992],[-35.9619652929999,-8.89541187799984],[-35.959469633,-8.8929228809999],[-35.953444561,-8.89404023099986],[-35.942539863,-8.8856001069999],[-35.924280575,-8.88462771599989],[-35.9218347409999,-8.88266868999994],[-35.916397521,-8.86758375699998],[-35.9110827799999,-8.8611044999999],[-35.906835249,-8.86315208499992],[-35.9009929069999,-8.86241207399991],[-35.896204821,-8.85426806699992],[-35.8888084769999,-8.86262503099995],[-35.8843375769999,-8.86268074499998]]]}},{"type":"Feature","properties":{"id":"270006","state":"AL","stateCode":"27"},"geometry":{"type":"Polygon","coordinates":[[[-36.300004338,-9.17550203299998],[-36.297204036,-9.17678221499994],[-36.294978253,-9.17244265099997],[-36.290948676,-9.17421088999989],[-36.28776026,-9.17330243499996],[-36.285132369,-9.18306090600003],[-36.2815812449999,-9.18624156299995],[-36.181260795,-9.21211792099999],[-36.1322006649999,-9.24953451999996],[-36.090184224,-9.26342918299993],[-36.065260637,-9.28449720899998],[-36.0587052389999,-9.29376125199999],[-36.05853028,-9.31216639699996],[-36.053720261,-9.29741408299997],[-36.0457487049999,-9.33336834699997],[-36.0037224879999,-9.32576418699999],[-36.000522366,-9.33844247099997],[-36.012224386,-9.36634875099995],[-36.0300101799999,-9.37466772899992],[-36.014378353,-9.40097200299996],[-35.9287746329999,-9.37460454499993],[-35.930894363,-9.46173060799996],[-35.933695023,-9.46278015999995],[-35.9330095059999,-9.48087944199993],[-35.937242859,-9.49249208299994],[-35.939489584,-9.49243008899996],[-35.9404328349999,-9.49800184299991],[-35.959991299,-9.52893628999998],[-35.9796019539999,-9.55043876399998],[-35.9764127119999,-9.55558471499996],[-36.0004108129999,-9.57439787799995],[-36.0056043199999,-9.58605768799994],[-36.0176881609999,-9.57587573599994],[-36.072684537,-9.59735810299997],[-36.0765217429999,-9.59708215399996],[-36.08563119,-9.60049590099988],[-36.09274292,-9.60125347199996],[-36.103076184,-9.59744277299997],[-36.1198839099999,-9.59565565899997],[-36.128298183,-9.59911161099994],[-36.130309116,-9.60431207299998],[-36.1385812319999,-9.61305816199995],[-36.150047172,-9.61206913699992],[-36.1548826939999,-9.61458764199992],[-36.1587155079999,-9.61877759399995],[-36.1660520199999,-9.61705815199998],[-36.1739374989999,-9.61226929199994],[-36.181745459,-9.61281035499996],[-36.2186637289999,-9.56411521999995],[-36.2281881,-9.514925704],[-36.21698856,-9.47403136199997],[-36.225096573,-9.49090161699996],[-36.2407945129999,-9.51029662199994],[-36.260570892,-9.52058133499995],[-36.2927536839999,-9.51954959599995],[-36.307159059,-9.52257390899997],[-36.3093211729999,-9.52134072099998],[-36.309373035,-9.51907542899997],[-36.3121980859999,-9.51784229799999],[-36.319137299,-9.51801240399994],[-36.32919559,-9.51095152699996],[-36.3356016749999,-9.51391873999998],[-36.3512987879999,-9.50633750899994],[-36.3785760499999,-9.51015717799996],[-36.4509753529999,-9.50527158499994],[-36.4684155359999,-9.48551882499993],[-36.4659646849999,-9.47931738399991],[-36.461663876,-9.47659530899995],[-36.459798382,-9.47330178999991],[-36.4591505399999,-9.46954727899995],[-36.456627094,-9.46638510299998],[-36.4575948949999,-9.46439050899995],[-36.456641335,-9.46208590999997],[-36.4517919719999,-9.45705656599995],[-36.454264723,-9.45541607599992],[-36.4631867899999,-9.45385339399995],[-36.3906009699999,-9.42440559599998],[-36.3893630749999,-9.42537862499992],[-36.374183558,-9.37454114599993],[-36.3665888199999,-9.38403569299993],[-36.3621406899999,-9.38287553999995],[-36.365488345,-9.38171409399994],[-36.366409159,-9.37810811599993],[-36.3653319899999,-9.37740279599993],[-36.366598084,-9.37446380099994],[-36.3659264439999,-9.36605598399999],[-36.364607981,-9.36357620699998],[-36.3660904659999,-9.36143121999994],[-36.3398920709999,-9.28671199699991],[-36.3279296429999,-9.28590038899998],[-36.324341206,-9.28044646999994],[-36.3258781819999,-9.27819723699997],[-36.3248660269999,-9.27654779899993],[-36.3257657199999,-9.27384871999991],[-36.331126392,-9.27504831099993],[-36.3349875759999,-9.272349231],[-36.3361871669999,-9.27339887299997],[-36.337011886,-9.27246169199996],[-36.3360372179999,-9.27141204999998],[-36.339596045,-9.24751724499991],[-36.3410728219999,-9.24562697100003],[-36.340570718,-9.24042871799997],[-36.3466751949999,-9.23667774899994],[-36.3467513509999,-9.23439305199999],[-36.350901885,-9.2281862899999],[-36.350978042,-9.22487347899998],[-36.3559327239999,-9.21838597100002],[-36.3536060559999,-9.22012278200001],[-36.352250099,-9.21703351899994],[-36.3491656139999,-9.21625923499991],[-36.3488919209999,-9.214737049],[-36.3548298339999,-9.20330258899998],[-36.3539191369999,-9.20119353900003],[-36.3514132,-9.20136430799992],[-36.3414649579999,-9.20697818799991],[-36.3318527669999,-9.20378433999998],[-36.3276478459999,-9.20076782699995],[-36.324958772,-9.19252260399995],[-36.322668055,-9.19131959699998],[-36.321523385,-9.18538081299995],[-36.312327397,-9.17991819699997],[-36.311792791,-9.17448134299998],[-36.3097948979999,-9.17236260399993],[-36.3078227949999,-9.17846992799997],[-36.300004338,-9.17550203299998]]]}},{"type":"Feature","properties":{"id":"270004","state":"AL","stateCode":"27"},"geometry":{"type":"Polygon","coordinates":[[[-36.036040396,-10.046699681],[-36.0418769869999,-10.0511283069999],[-36.0566005269999,-10.041935663],[-36.0556481999999,-10.0371585779999],[-36.051356154,-10.0293703679999],[-36.054954622,-10.028220492],[-36.056518292,-10.0243169919999],[-36.056511763,-10.0118238589999],[-36.0648973769999,-10.005588779],[-36.073992259,-10.003288389],[-36.077055781,-9.99095762999997],[-36.0823170809999,-9.97968730399996],[-36.0888748409999,-9.97659996199994],[-36.0929485509999,-9.96932502499992],[-36.1020861049999,-9.96226059799993],[-36.104846519,-9.95834258099994],[-36.10613023,-9.95154536300002],[-36.112553423,-9.94613066599991],[-36.1158562779999,-9.93963874799994],[-36.1216904099999,-9.93462103699991],[-36.123910727,-9.93366039800002],[-36.280950536,-9.93505072899993],[-36.2772782829999,-9.89970668899996],[-36.277882607,-9.89229519199993],[-36.31300042,-9.88693129899995],[-36.323937015,-9.8787283949999],[-36.335806352,-9.85482933099993],[-36.353915452,-9.83388717600001],[-36.3634384969999,-9.82667778699991],[-36.393966975,-9.79275870499989],[-36.414504224,-9.77745881499988],[-36.3939958569999,-9.77407571399994],[-36.3845518649999,-9.76948910599996],[-36.3689395929999,-9.76571951399999],[-36.364714021,-9.76739732499998],[-36.3635252429999,-9.76641434299993],[-36.360028287,-9.76900981399998],[-36.3541603629999,-9.75721950199995],[-36.35497149,-9.75387758800001],[-36.361381133,-9.75214251999999],[-36.3531059919999,-9.74689742199998],[-36.347385352,-9.74853416499994],[-36.343352834,-9.74161319],[-36.342694237,-9.73270248999999],[-36.3445198469999,-9.72157175599999],[-36.343138643,-9.71321466799997],[-36.3471388,-9.71009846299997],[-36.3552753779999,-9.70814542899993],[-36.3636936119999,-9.70161247699995],[-36.3641672049999,-9.69944678199998],[-36.3660508999999,-9.70004996799999],[-36.3707149909999,-9.6979441719999],[-36.3734649369999,-9.68758127899993],[-36.372083425,-9.67752672799998],[-36.3748332079999,-9.67299970399995],[-36.375632058,-9.66628210999994],[-36.378980541,-9.65863202199998],[-36.3941647399999,-9.64836759799999],[-36.3808292309999,-9.63536723199999],[-36.3886069939999,-9.6287728899999],[-36.3921048969999,-9.60290488599999],[-36.350744585,-9.59235028999995],[-36.346854881,-9.59396016799992],[-36.3471670319999,-9.59595560799993],[-36.344550413,-9.59832124400001],[-36.344639561,-9.60093818199998],[-36.3465775429999,-9.60478727399994],[-36.350213894,-9.60534534699994],[-36.351163817,-9.60721710900002],[-36.3208563049999,-9.60830624699998],[-36.2938333699999,-9.60155314799998],[-36.293302941,-9.60268441299996],[-36.291269539,-9.60241369299994],[-36.287908403,-9.60912400599995],[-36.2539094429999,-9.62388934399995],[-36.264411681,-9.59564230399994],[-36.191571648,-9.59985457999995],[-36.18102421,-9.61297278199989],[-36.176942055,-9.62132140799993],[-36.1616023179999,-9.62492104699997],[-36.157741692,-9.62380565199995],[-36.1557747079999,-9.62491857399993],[-36.1546053229999,-9.6272722329999],[-36.1513014399999,-9.62849190199993],[-36.148771331,-9.63290435399997],[-36.145689006,-9.63405701699997],[-36.144686508,-9.63756734299995],[-36.141495958,-9.63886317599997],[-36.1408838889999,-9.64544439399996],[-36.134386566,-9.64548560699999],[-36.134137527,-9.64874003099997],[-36.1321639769999,-9.65112340199991],[-36.128359919,-9.64876569999997],[-36.1152678089999,-9.64942839199991],[-36.1076336549999,-9.643520247],[-36.1044423519999,-9.63879179500002],[-36.1022449269999,-9.64479970400001],[-36.0987668629999,-9.64733082399991],[-36.099066965,-9.65190197799993],[-36.0961060879999,-9.65230708899997],[-36.094412602,-9.65592200599992],[-36.090048705,-9.65563604499991],[-36.088907874,-9.65931975199997],[-36.0849479199999,-9.663875923],[-36.0788855329999,-9.66759263599993],[-36.077494636,-9.67165326399991],[-36.0750814019999,-9.673734489],[-36.0342758469999,-9.66875402199993],[-36.031574856,-9.669422562],[-36.0183570009999,-9.68748163799994],[-35.992661727,-9.69358020399998],[-35.989965555,-9.69714999400001],[-35.987464983,-9.70327543499996],[-35.9879918829999,-9.737791737],[-36.028049284,-9.80857015899994],[-36.0261026629999,-9.80910222800001],[-36.026624832,-9.81121740599994],[-36.0253526899999,-9.81225956099993],[-36.016409085,-9.80777269399993],[-36.0102411309999,-9.81166770199999],[-36.00941291,-9.81064018299996],[-36.008412314,-9.81221420500002],[-36.0056600589999,-9.81113236600002],[-36.0002294699999,-9.8154356809999],[-35.999773376,-9.81817818099999],[-35.9977700299999,-9.81954398999992],[-35.9910242129999,-9.81840703499991],[-35.9839188779999,-9.82592718699998],[-35.977519829,-9.82591807999993],[-35.968661655,-9.82962334799992],[-35.9623833169999,-9.83360276099991],[-35.954270465,-9.843200655],[-35.950130735,-9.84520713299995],[-35.938265024,-9.84477889199995],[-35.923244067,-9.83796494099997],[-35.9178814789999,-9.83874199899997],[-35.909126807,-9.84781942399998],[-35.90465822688209,-9.855842836786023],[-35.9047,-9.8559],[-35.93282530954151,-9.89702114222622],[-35.93282530957334,-9.897021142272742],[-35.938489897,-9.90304694999996],[-35.94565512796117,-9.915779221570817],[-35.9627,-9.9407],[-35.99399782060823,-9.990785611176836],[-36.004050637,-10.0037191599999],[-36.0139898595733,-10.022778685160178],[-36.031435385342334,-10.050696597764398],[-36.0307721489999,-10.047045475],[-36.036040396,-10.046699681]]]}},{"type":"Feature","properties":{"id":"270001","state":"AL","stateCode":"27"},"geometry":{"type":"Polygon","coordinates":[[[-35.9178814789999,-9.83874199899997],[-35.923244067,-9.83796494099997],[-35.938265024,-9.84477889199995],[-35.950130735,-9.84520713299995],[-35.954270465,-9.843200655],[-35.9623833169999,-9.83360276099991],[-35.968661655,-9.82962334799992],[-35.977519829,-9.82591807999993],[-35.9839188779999,-9.82592718699998],[-35.9910242129999,-9.81840703499991],[-35.9977700299999,-9.81954398999992],[-35.999773376,-9.81817818099999],[-36.0002294699999,-9.8154356809999],[-36.0056600589999,-9.81113236600002],[-36.008412314,-9.81221420500002],[-36.00941291,-9.81064018299996],[-36.0102411309999,-9.81166770199999],[-36.016409085,-9.80777269399993],[-36.0253526899999,-9.81225956099993],[-36.026624832,-9.81121740599994],[-36.0261026629999,-9.80910222800001],[-36.028049284,-9.80857015899994],[-35.9879918829999,-9.737791737],[-35.987464983,-9.70327543499996],[-35.992661727,-9.69358020399998],[-36.0183570009999,-9.68748163799994],[-36.0298296399999,-9.67129711299993],[-36.0342758469999,-9.66875402199993],[-36.0750814019999,-9.673734489],[-36.077494636,-9.67165326399991],[-36.0788855329999,-9.66759263599993],[-36.0849479199999,-9.663875923],[-36.088907874,-9.65931975199997],[-36.090048705,-9.65563604499991],[-36.094412602,-9.65592200599992],[-36.0961060879999,-9.65230708899997],[-36.099066965,-9.65190197799993],[-36.0987668629999,-9.64733082399991],[-36.1022449269999,-9.64479970400001],[-36.1044423519999,-9.63879179500002],[-36.1076336549999,-9.643520247],[-36.1152678089999,-9.64942839199991],[-36.128359919,-9.64876569999997],[-36.1321639769999,-9.65112340199991],[-36.134137527,-9.64874003099997],[-36.134386566,-9.64548560699999],[-36.1408838889999,-9.64544439399996],[-36.141495958,-9.63886317599997],[-36.144686508,-9.63756734299995],[-36.145689006,-9.63405701699997],[-36.148771331,-9.63290435399997],[-36.1513014399999,-9.62849190199993],[-36.1546053229999,-9.6272722329999],[-36.1557747079999,-9.62491857399993],[-36.157741692,-9.62380565199995],[-36.1616023179999,-9.62492104699997],[-36.176942055,-9.62132140799993],[-36.1771935029999,-9.61903365199992],[-36.181745459,-9.61281035499996],[-36.1739374989999,-9.61226929199994],[-36.1660520199999,-9.61705815199998],[-36.1587155079999,-9.61877759399995],[-36.1548826939999,-9.61458764199992],[-36.150047172,-9.61206913699992],[-36.1385812319999,-9.61305816199995],[-36.130309116,-9.60431207299998],[-36.128298183,-9.59911161099994],[-36.1198839099999,-9.59565565899997],[-36.103076184,-9.59744277299997],[-36.09274292,-9.60125347199996],[-36.08563119,-9.60049590099988],[-36.0765217429999,-9.59708215399996],[-36.072684537,-9.59735810299997],[-36.0176881609999,-9.57587573599994],[-36.0056043199999,-9.58605768799994],[-36.0004108129999,-9.57439787799995],[-35.9764127119999,-9.55558471499996],[-35.9796019539999,-9.55043876399998],[-35.959991299,-9.52893628999998],[-35.9404328349999,-9.49800184299991],[-35.939489584,-9.49243008899996],[-35.937242859,-9.49249208299994],[-35.9330095059999,-9.48087944199993],[-35.933695023,-9.46278015999995],[-35.930894363,-9.46173060799996],[-35.928893971,-9.37556630499992],[-35.8774200949999,-9.41668701599993],[-35.873238988,-9.40929663999995],[-35.83008958,-9.32268157100001],[-35.831153183,-9.31314785399999],[-35.834617331,-9.31265708799996],[-35.8385138539999,-9.30932448499992],[-35.8345364469999,-9.23565731999997],[-35.8885731639999,-9.13830826699998],[-35.860513378,-9.05349027499997],[-35.8345666729999,-8.98428904599997],[-35.756867362,-9.00951685499994],[-35.6826664399999,-9.02931331899992],[-35.686398514,-9.03576367399992],[-35.7029923009999,-9.04359071599997],[-35.7085802179999,-9.04804034299998],[-35.7095429449999,-9.05178642699994],[-35.7096427699999,-9.05747353799996],[-35.7075235769999,-9.05956158999997],[-35.708779969,-9.06395712099994],[-35.7074362709999,-9.06577341199993],[-35.7050565209999,-9.08268528799991],[-35.700653089,-9.08524841799997],[-35.6960297109999,-9.09213634799994],[-35.691164385,-9.09542265399999],[-35.689226835,-9.10091700699992],[-35.629182885,-9.09221330699992],[-35.580064942,-9.15781191699991],[-35.616873369,-9.13356085599993],[-35.625985582,-9.13011424099997],[-35.6358372569999,-9.11966748199997],[-35.644794594,-9.11895541499993],[-35.6496995809999,-9.12273622599995],[-35.653208639,-9.10692844499993],[-35.6566254809999,-9.10697779299993],[-35.658735409,-9.10861243099992],[-35.664497761,-9.10781579699989],[-35.670554672,-9.105335037],[-35.674825584,-9.10132544199998],[-35.680939636,-9.10031497399994],[-35.689554134,-9.10188095699992],[-35.696362372,-9.10822697999991],[-35.7109466889999,-9.11388541499993],[-35.717838802,-9.12082251499996],[-35.7249390489999,-9.12534622799999],[-35.7029831859999,-9.22970146599996],[-35.6933197069999,-9.26025692500001],[-35.6919100969999,-9.29848282899992],[-35.68647888,-9.37071605499998],[-35.578446823,-9.35914791399994],[-35.567600472,-9.35545246599997],[-35.5645504349999,-9.35549973499999],[-35.5612860459999,-9.35820824699989],[-35.5363196689999,-9.34685240899992],[-35.5321170629999,-9.34707421899999],[-35.523356177,-9.35479996499989],[-35.5186980529999,-9.35479728199993],[-35.514184948,-9.3468328459999],[-35.5150758149999,-9.33827583199994],[-35.5191135489999,-9.32905263499994],[-35.519900631,-9.32211490099993],[-35.5136051539999,-9.31427260299998],[-35.5136675539999,-9.307729132],[-35.463763641,-9.34773121399998],[-35.46952157147239,-9.35550812922486],[-35.4725,-9.358],[-35.473277124190346,-9.359261894558612],[-35.4832331209999,-9.369213153],[-35.489890577,-9.37983947799992],[-35.4958347339999,-9.39394084799995],[-35.49569473336917,-9.395663616948793],[-35.50737041382372,-9.414622591352922],[-35.52415453631141,-9.441876655891457],[-35.53722356153319,-9.45931970244366],[-35.5519094189999,-9.47315114599997],[-35.5553060499999,-9.47729841399994],[-35.5564126609999,-9.48215316999997],[-35.55561107219579,-9.483673661993832],[-35.5585,-9.4875],[-35.562948970806396,-9.491802787589238],[-35.5793229879999,-9.50196773899997],[-35.580991826,-9.50642153299997],[-35.5874640289999,-9.51140794899988],[-35.59024580907421,-9.518202712883273],[-35.59489963952142,-9.522703628884312],[-35.603253675163316,-9.530783169624009],[-35.605240608,-9.53149623899995],[-35.6232020369447,-9.550076072911923],[-35.6304379409999,-9.55200409299992],[-35.635463024,-9.55499819499994],[-35.643598874,-9.56272565099991],[-35.646379088,-9.56752947599991],[-35.6499640089999,-9.56752982799995],[-35.654542356,-9.57657121299992],[-35.66548698,-9.59091906000001],[-35.6758760179999,-9.59897873499994],[-35.67787363766342,-9.602951287268942],[-35.76847535914745,-9.690576039089],[-35.7750649659999,-9.69566496599999],[-35.77740186472486,-9.699209239684182],[-35.7898,-9.7112],[-35.78997026108682,-9.71140041419533],[-35.7929648569999,-9.71170338399998],[-35.796879475,-9.71385186699994],[-35.8128283659999,-9.73221234299993],[-35.819883057,-9.74461762799997],[-35.8144607289999,-9.73778405399998],[-35.816337305,-9.741762422],[-35.830046077,-9.75596591499995],[-35.83443633164212,-9.763741391902403],[-35.846271282,-9.77688227099998],[-35.8553,-9.7883],[-35.90465822688209,-9.855842836786023],[-35.909126807,-9.84781942399998],[-35.9178814789999,-9.83874199899997]],[[-35.7559039299999,-9.14024640999995],[-35.7558665069999,-9.14023185699998],[-35.7558568379999,-9.14022345299999],[-35.7559039299999,-9.14024640999995]],[[-35.529701432,-9.43703754699994],[-35.529742635,-9.43701519099993],[-35.529981595,-9.43701020399989],[-35.529701432,-9.43703754699994]]]}}]}