{"type":"FeatureCollection","features":[{"type":"Feature","properties":{"id":"240003","state":"RN","stateCode":"24"},"geometry":{"type":"Polygon","coordinates":[[[-34.9709243359999,-6.48950063999991],[-34.970059162,-6.48725228100001],[-34.9710269909999,-6.48539687199986],[-34.9783612049999,-6.48726379099991],[-34.9793693459999,-6.49004750599995],[-34.9920675979999,-6.50149497899991],[-35.000245151,-6.50168939399988],[-35.0034098159999,-6.5042251509999],[-35.0111166849999,-6.50612314699987],[-35.0166554969999,-6.50528648799993],[-35.0188012349999,-6.50306152499985],[-35.0219868419999,-6.50524723299987],[-35.0285409169999,-6.505522616],[-35.0369632169999,-6.51712532699991],[-35.0577321229999,-6.52779119899994],[-35.0671461029999,-6.52466017500001],[-35.075416381,-6.51440142099989],[-35.0889412169999,-6.50498398799993],[-35.0945473579999,-6.49810344799988],[-35.0980837209999,-6.49775749999997],[-35.1016588389999,-6.50015138799994],[-35.1036812269999,-6.50584607699996],[-35.107286426,-6.50648131899994],[-35.1125495819999,-6.5051174979999],[-35.113291266,-6.51038076599992],[-35.1175854179999,-6.51619003999991],[-35.1234536479999,-6.5298607669999],[-35.1326306459999,-6.53576210599989],[-35.1394829889999,-6.5457198219999],[-35.1432933459999,-6.54778584699995],[-35.1454434789999,-6.55270970999988],[-35.1516983499999,-6.55357499799988],[-35.157484917,-6.55170825100006],[-35.1688535109999,-6.55826126099981],[-35.184026264,-6.55456855699981],[-35.1891802419999,-6.55032360199988],[-35.197197847,-6.55055630899989],[-35.203056315,-6.54785446200003],[-35.209504213,-6.54041803899997],[-35.2101157129999,-6.53316938000001],[-35.214076223,-6.52873560099988],[-35.2182345349999,-6.51860480999995],[-35.2228806269999,-6.51613438499994],[-35.2253353739999,-6.52434587699998],[-35.2323483709999,-6.53177656299988],[-35.2532105339999,-6.53401042399991],[-35.2745648029999,-6.54387791799992],[-35.277542169,-6.54247866199991],[-35.2745655509999,-6.5438779029999],[-35.330772859,-6.54434141299989],[-35.336765616,-6.54202665699985],[-35.3412637469999,-6.53861642399988],[-35.3143608509999,-6.44960549699988],[-35.3145811719999,-6.44159733799995],[-35.3032858,-6.42079365499989],[-35.300319348,-6.41886550699996],[-35.3039068059999,-6.41450487699986],[-35.3117779029999,-6.41050547299989],[-35.3081987949999,-6.40486263299999],[-35.3096188009999,-6.40311219299998],[-35.338892825,-6.38110592999993],[-35.3422740209999,-6.37556744300003],[-35.3412687299999,-6.37221942799994],[-35.3419612219999,-6.3640511079999],[-35.34492047,-6.36257626499991],[-35.34653546,-6.35841818999996],[-35.3441981769999,-6.34748651899993],[-35.3441461059999,-6.34135631899995],[-35.3462145169999,-6.33710100699996],[-35.3422090089999,-6.315256326],[-35.333132989,-6.31379290599989],[-35.3232353519999,-6.27113124200004],[-35.324019419,-6.23399019299992],[-35.3259724459999,-6.22826092599984],[-35.3245779649999,-6.20638705199997],[-35.3206631309999,-6.19844672499989],[-35.320129354,-6.19272005699998],[-35.3189557179999,-6.19095864199989],[-35.2856763549999,-6.20532224999989],[-35.298084287,-6.16125348699996],[-35.259692623,-6.1703505779999],[-35.254599312,-6.16741158899993],[-35.2374726319999,-6.16465305099992],[-35.2247694049999,-6.16810640099994],[-35.2135283169999,-6.17434522099991],[-35.1960174039999,-6.16353848999989],[-35.1876329629999,-6.16517615599997],[-35.174511804,-6.16454232999992],[-35.1601605159999,-6.15434656899993],[-35.1569129289999,-6.15081022199998],[-35.1570258049999,-6.14816175599993],[-35.146434018,-6.15279376000001],[-35.146241069,-6.16383613899991],[-35.1374110969999,-6.16890128299986],[-35.1354924249999,-6.16711668999995],[-35.110788826,-6.18694513299988],[-35.102361542,-6.18880487199988],[-35.097914008,-6.18760931099985],[-35.09400831450907,-6.182189099334533],[-35.0939,-6.1834],[-35.07891040094869,-6.208919482682388],[-35.078222486,-6.21173503599993],[-35.0722499469999,-6.22182677199988],[-35.071025241841035,-6.222343803146667],[-35.03421146870141,-6.285018491301741],[-35.0342249759999,-6.2857630449999],[-35.0353330529999,-6.28619577399991],[-35.0343087699999,-6.28637082299992],[-35.03280835449079,-6.296024100283206],[-35.0319,-6.3108],[-35.03188383967678,-6.310844963422958],[-35.037171144,-6.31449062099989],[-35.0344990299999,-6.31692795499987],[-35.0336617559999,-6.32958765699989],[-35.0275387999999,-6.352932185],[-35.0181458489999,-6.36861125699994],[-35.01060777746556,-6.37004208288762],[-34.96853802,-6.48726075499993],[-34.9709243359999,-6.48950063999991]]]}},{"type":"Feature","properties":{"id":"240011","state":"RN","stateCode":"24"},"geometry":{"type":"Polygon","coordinates":[[[-36.814350765,-5.02434856799991],[-36.7993701939999,-5.03875069099996],[-36.78589278,-5.04311225699998],[-36.777492212,-5.04949566399994],[-36.764375865,-5.05269810399997],[-36.7456094149999,-5.06012984199999],[-36.7418454688944,-5.060555546595781],[-36.7156,-5.0809],[-36.70290956129054,-5.080891780803944],[-36.700753065,-5.08609558399999],[-36.691523455,-5.0932836179999],[-36.682417006,-5.08863013099991],[-36.672916166,-5.088271592],[-36.6664268229999,-5.08549036499992],[-36.659920807,-5.08743720099996],[-36.642954803,-5.08706783999997],[-36.628583825,-5.08913314899998],[-36.623951852909634,-5.080840642391781],[-36.615364035278986,-5.080835080333729],[-36.60959137747272,-5.0808313415657205],[-36.6069012419999,-5.08207630599997],[-36.60153550273163,-5.080826124030266],[-36.57486878688515,-5.080808852841247],[-36.5588261029999,-5.08391258399993],[-36.55479764949099,-5.08079585339993],[-36.4068,-5.0807],[-36.393093686519414,-5.083677818360249],[-36.382879924,-5.08823597899989],[-36.375047324,-5.08858336299995],[-36.3694498319999,-5.09068293799995],[-36.36666694505601,-5.089419262698492],[-36.317986800568455,-5.099995456526244],[-36.308819871613174,-5.10198705327389],[-36.3095971929999,-5.10711861399994],[-36.3083429,-5.11107939999992],[-36.298378068,-5.11237724499993],[-36.293574263,-5.11468127099995],[-36.2879899289999,-5.12502385599996],[-36.2891060259999,-5.130195149],[-36.288989421,-5.15563776899996],[-36.286386339,-5.15693019599996],[-36.276306865,-5.20722000300002],[-36.276237614,-5.21949920099991],[-36.2783552879999,-5.22461411400002],[-36.276500859,-5.2582377269999],[-36.279363088,-5.25819370699999],[-36.276499884,-5.25825824299993],[-36.2758400079999,-5.28947749899991],[-36.3681851049999,-5.25078173199993],[-36.380341151,-5.27126784999995],[-36.381268525,-5.31486635199998],[-36.386290259,-5.32025239899993],[-36.4014794199999,-5.328522058],[-36.414506265,-5.33773756299999],[-36.4192415949999,-5.34263661899999],[-36.421276411,-5.34796224699991],[-36.43986854,-5.36988139299994],[-36.469907264,-5.59837241999996],[-36.306954041,-5.65026094299996],[-36.2992252189999,-5.65524973699999],[-36.2956335579999,-5.65976882399997],[-36.2884759299999,-5.66303255099992],[-36.285621995,-5.66935338499997],[-36.2794955619999,-5.67046018899996],[-36.2696077209999,-5.68006839299993],[-36.2622375619999,-5.67988356900003],[-36.196992266,-5.51982256899997],[-36.2003999999999,-5.51813999999992],[-36.2001,-5.51670999999991],[-36.1971999999999,-5.51541999999994],[-36.195486854,-5.51613482799994],[-36.1797284519999,-5.47753262999994],[-36.2232316339999,-5.43387422199994],[-36.159943333,-5.43411245999993],[-36.1285468539999,-5.456816633],[-36.1409006319999,-5.50023949299996],[-36.171978847,-5.54467945299998],[-36.1436943959999,-5.56693643599997],[-36.1431649509999,-5.59152595199996],[-36.0625348399999,-5.65528679399996],[-36.0918281509999,-5.74903029299994],[-36.115603379,-5.80917891299995],[-36.1124963479999,-5.84220051699994],[-36.11783937,-5.85905126699992],[-36.127215961,-5.85942288599993],[-36.1374129769999,-5.86394768699996],[-36.1418433619999,-5.85709935799997],[-36.150938198,-5.85873405899996],[-36.1533862709999,-5.85132521099998],[-36.1563705329999,-5.84952571799995],[-36.1679796669999,-5.85593567499998],[-36.1800220949999,-5.85346902999989],[-36.185756317,-5.85816491899995],[-36.1968192969999,-5.88311658399998],[-36.212878748,-5.87372576599996],[-36.2241793659999,-5.89995339799994],[-36.259099078,-5.86306826899993],[-36.2591707529999,-5.85151875100001],[-36.2529630169999,-5.83412190299996],[-36.253963578,-5.83104358299991],[-36.256210753,-5.83036255799997],[-36.2636200429999,-5.83321902799996],[-36.2694640709999,-5.84322082799999],[-36.2760911079999,-5.84554648299994],[-36.2847520299999,-5.8592914889999],[-36.3206708469999,-5.86557353099992],[-36.332341185,-5.89409852800003],[-36.3340462699999,-5.88979995899997],[-36.329969094,-5.87700289899996],[-36.3319380819999,-5.87285475399991],[-36.351119782,-5.87062911399998],[-36.362182278,-5.87323454199998],[-36.3649628069999,-5.87522246199998],[-36.368214657,-5.87465865299995],[-36.377754148,-5.86678026899993],[-36.382653439,-5.85944339699996],[-36.383549337,-5.85414270099996],[-36.3877104019999,-5.851910406],[-36.401134206,-5.8596178949999],[-36.41482371,-5.85842888399994],[-36.4267775269999,-5.90466088699998],[-36.429540328,-5.90430525099996],[-36.435473111,-5.91088677899997],[-36.4750083339999,-5.92657309899996],[-36.540382762,-5.98974146199996],[-36.547439141,-6.05627461499993],[-36.638715388,-6.0890082],[-36.6532703359999,-6.111835022],[-36.657399193,-6.10038763099998],[-36.6661042709999,-6.09107237299998],[-36.678399292,-6.09870458199989],[-36.684559317,-6.09590929499998],[-36.6873172379999,-6.100605795],[-36.6954557449999,-6.10541517999993],[-36.714907361,-6.09982397099996],[-36.726654204,-6.08958563299999],[-36.7272684069999,-6.08391244299998],[-36.722277869,-6.077742379],[-36.7198815109999,-6.07194787799991],[-36.730864109,-6.05659796399994],[-36.735345066,-6.05913177499998],[-36.736201826,-6.06253158499991],[-36.739746022,-6.06165600699994],[-36.7392852559999,-6.05994810099994],[-36.7482959119999,-6.06338512699992],[-36.775949332,-6.0618090789999],[-36.782126357,-6.05007661099994],[-36.783666463,-6.043609906],[-36.788047983,-6.03938503999994],[-36.7933636369999,-6.04011401299994],[-36.801324337,-6.05010137899995],[-36.8125086069999,-6.05323560700001],[-36.8209339839999,-6.05389019599991],[-36.829502205,-6.054238148],[-36.83610807,-6.05239786999997],[-36.8349081069999,-6.04150853699995],[-36.8437601939999,-6.04045440799995],[-36.855392174,-6.04428046599997],[-36.848064912,-6.03620985499995],[-36.847879451,-6.03465311699991],[-36.853150959,-6.03018456899995],[-36.854648262,-6.02527038799994],[-36.8489572889999,-6.01033154099999],[-36.854508261,-5.9962276369999],[-36.857261556,-5.99471564099996],[-36.856280328,-5.992911605],[-36.8579902129999,-5.99062864999993],[-36.8571533879999,-5.98944821599996],[-36.8587118359999,-5.98456149500001],[-36.8608469859999,-5.98394716999999],[-36.861626781,-5.98155400399994],[-36.866083838,-5.98233419199993],[-36.8682732,-5.97844823500001],[-36.8684762509999,-5.973546697],[-36.869492265,-5.97268920100003],[-36.8731092889999,-5.97642199599995],[-36.8770057799999,-5.97599775899994],[-36.879917589,-5.977710473],[-36.881783914,-5.97422683699997],[-36.8851222829999,-5.97495004399994],[-36.887839244,-5.9736580659999],[-36.88863,-5.97662249999996],[-36.89225379,-5.97715240500001],[-36.893728257,-5.97495622299991],[-36.901359956,-5.9740340439999],[-36.9034243409999,-5.97563060599996],[-36.906767804,-5.97545990499995],[-36.9143833849999,-5.97104999899994],[-36.913715263,-5.966839636],[-36.914828514,-5.96562086299997],[-36.918942171,-5.96569286399998],[-36.926620045,-5.97179252599999],[-36.93193052,-5.96822306999997],[-36.936598018,-5.96835477799996],[-36.9413042249999,-5.95829374799998],[-36.939507823,-5.95459881999998],[-36.9397595419999,-5.95170887899996],[-36.94207291,-5.94788785899989],[-36.9446342639999,-5.94652964399998],[-36.947363525,-5.93701847399994],[-36.950812541,-5.93510138899994],[-36.950509723,-5.93042034899997],[-36.959065648,-5.92826801999996],[-36.96477068,-5.92468829199989],[-36.9730970999999,-5.91280645099992],[-36.972250062,-5.90480735599994],[-36.9695759049999,-5.90241519399999],[-36.959493648,-5.899258227],[-36.955172219,-5.88432564100001],[-36.9504656819999,-5.87880537699995],[-36.9380124729999,-5.87070401899996],[-36.936803855,-5.86587916699999],[-36.942024234,-5.85835581199993],[-36.950458367,-5.85529517499999],[-36.9545668769999,-5.85599709199991],[-36.9567096979999,-5.85391490999993],[-36.9588862899999,-5.85384828299993],[-36.9605113339999,-5.84988449299995],[-36.966031691,-5.84629897899994],[-36.9667969379999,-5.84098421600004],[-36.9774003089999,-5.81362123899998],[-36.990038488,-5.8172003899999],[-37.0021088449999,-5.82710482899996],[-37.0096577529999,-5.83712466099997],[-37.011732555,-5.85839872899993],[-37.01535705,-5.87084645600001],[-37.0265141529999,-5.88479272399993],[-37.03546779,-5.89074356499998],[-37.066922611,-5.98460237199992],[-37.1221628799999,-5.95487142099996],[-37.128694675,-5.95640291499994],[-37.1318906629999,-5.96336276599991],[-37.131169912,-5.96809331499999],[-37.1432854639999,-5.97920566199999],[-37.1479439809999,-5.99086351299999],[-37.154490954,-5.99255176499997],[-37.162338245,-6.02117123799999],[-37.260453285,-5.90857044499999],[-37.1949587629999,-5.82374070399997],[-37.179488437,-5.81906090199991],[-37.225404268,-5.78983620599994],[-37.2190485489999,-5.72594414799992],[-37.2205789409999,-5.71749697899998],[-37.203500376,-5.72513009599997],[-37.1955123369999,-5.71810376099992],[-37.1854440949999,-5.71668123799998],[-37.1809991529999,-5.71801972699999],[-37.1785232819999,-5.72361777199998],[-37.176777869,-5.72369358299994],[-37.169754928,-5.71281266200001],[-37.1635669619999,-5.71330755099992],[-37.145084734,-5.69002160199997],[-37.130290045,-5.67931169499996],[-37.123485101,-5.66938214999994],[-37.106496434,-5.66273091799994],[-37.1045939509999,-5.65622150199993],[-37.17275933,-5.49049229899992],[-37.142949749,-5.37390390599997],[-37.139192618,-5.33557055599993],[-37.126135338,-5.29342446999992],[-36.928050393,-5.29377653699991],[-36.92907193,-5.13127339299994],[-36.972130198,-5.13169301999993],[-36.972243234,-5.10297906499993],[-36.954113128,-5.07607334799995],[-36.9111996299999,-5.07608122599989],[-36.9118920399999,-5.01618955599994],[-36.881428626,-5.01171707199999],[-36.871267794,-4.99909406199995],[-36.8621705199999,-4.992562682],[-36.857780885,-4.97351609299997],[-36.85567160717347,-4.972322009000437],[-36.85419646292868,-4.973465482697685],[-36.8490186809999,-4.98214677299999],[-36.814350765,-5.02434856799991]]]}},{"type":"Feature","properties":{"id":"240001","state":"RN","stateCode":"24"},"geometry":{"type":"Polygon","coordinates":[[[-35.7673908589999,-5.08347034399999],[-35.7631334929999,-5.0868465829999],[-35.7560298829999,-5.08949838299994],[-35.7502266519999,-5.0895054809999],[-35.741563066,-5.09289653599989],[-35.7338692559999,-5.09365905699993],[-35.72822173,-5.09713701699992],[-35.7189314189999,-5.0969554759999],[-35.7111614219999,-5.10244496499991],[-35.705199009,-5.10477034599997],[-35.7016711319999,-5.10468243799985],[-35.697457586,-5.10243856599993],[-35.6772813229999,-5.10977021999994],[-35.664065705,-5.11205487099995],[-35.6607188099999,-5.11409386999988],[-35.6366692299999,-5.12092151100001],[-35.6305644999999,-5.12134258599997],[-35.6194095389999,-5.11885176399994],[-35.6166560679999,-5.11572323899999],[-35.61681188637576,-5.11419150287764],[-35.547482396564654,-5.160273311188385],[-35.38480193502741,-5.268403485878666],[-35.3856431459999,-5.27000961599987],[-35.385099703,-5.26906491999991],[-35.38163117294716,-5.2715172065776725],[-35.368340830520204,-5.297744424877675],[-35.368416006,-5.30242875799985],[-35.36598821,-5.30719131099994],[-35.3649958349999,-5.31547691099992],[-35.362204365,-5.32083115199987],[-35.3595119679999,-5.34429464699992],[-35.354028973,-5.35858626100003],[-35.3413638019999,-5.37452853399992],[-35.3340741489999,-5.37967183499996],[-35.32601231898761,-5.381275689657431],[-35.326,-5.3813],[-35.28993392259627,-5.450966098232853],[-35.28993392228435,-5.450966098835368],[-35.2881267419999,-5.46024024900004],[-35.283038291249284,-5.464285864766341],[-35.25960116781175,-5.5095575732867],[-35.2584650119999,-5.51392536299995],[-35.25548707293119,-5.517938001984354],[-35.253710650641075,-5.523830524702785],[-35.24971528563848,-5.53708344276016],[-35.2483762759999,-5.54828334099996],[-35.243324523481114,-5.558282068452895],[-35.23316765710169,-5.591973137418788],[-35.227582373444605,-5.610499931988626],[-35.227450508,-5.61533908300004],[-35.225212569648484,-5.622629451875924],[-35.21787722035034,-5.663551336683876],[-35.2167082359999,-5.67569920999996],[-35.21485124487179,-5.6804324169067595],[-35.2025953799999,-5.75027934099983],[-35.20061746999354,-5.752515134121191],[-35.19351770656483,-5.774689344749018],[-35.191884489,-5.78217775799994],[-35.1910434414922,-5.782417049400127],[-35.18247038083514,-5.809192709553275],[-35.1795838809999,-5.84630079499989],[-35.177200985,-5.85913997699982],[-35.1790664319999,-5.86823204499992],[-35.1750030329999,-5.87688422099996],[-35.170224612,-5.88245070599989],[-35.1643274259999,-5.88381417699993],[-35.163467574,-5.88069439599991],[-35.1615714869999,-5.88022437299992],[-35.159075518100074,-5.882260301045018],[-35.15656645552391,-5.890096686383923],[-35.154832948635665,-5.8955108311298225],[-35.157486255,-5.92345948699995],[-35.1541823439999,-5.92820118699991],[-35.1534259599999,-5.94701103299996],[-35.1485700969999,-5.96004667699994],[-35.1442103449999,-5.96490559999995],[-35.137385573,-5.96720422999994],[-35.1335688769999,-5.96555310999998],[-35.132063311,-5.96726034499995],[-35.128896066,-5.96776507200004],[-35.122370745959735,-5.978225510996333],[-35.1217167799999,-5.982945674],[-35.12085049102461,-5.982718852112474],[-35.0978,-6.1398],[-35.0980145509999,-6.16362276500003],[-35.093900436786754,-6.183395116948066],[-35.0997120769999,-6.18850181599998],[-35.110788826,-6.18694513299988],[-35.1354924249999,-6.16711668999995],[-35.1374110969999,-6.16890128299986],[-35.146241069,-6.16383613899991],[-35.146434018,-6.15279376000001],[-35.1570258049999,-6.14816175599993],[-35.1569129289999,-6.15081022199998],[-35.1601605159999,-6.15434656899993],[-35.174511804,-6.16454232999992],[-35.1876329629999,-6.16517615599997],[-35.1960174039999,-6.16353848999989],[-35.2135283169999,-6.17434522099991],[-35.2247694049999,-6.16810640099994],[-35.2374726319999,-6.16465305099992],[-35.254599312,-6.16741158899993],[-35.259692623,-6.1703505779999],[-35.298084287,-6.16125348699996],[-35.2856763549999,-6.20532224999989],[-35.3189557179999,-6.19095864199989],[-35.320129354,-6.19272005699998],[-35.3206631309999,-6.19844672499989],[-35.3245779649999,-6.20638705199997],[-35.3259724459999,-6.22826092599984],[-35.324019419,-6.23399019299992],[-35.3232353519999,-6.27113124200004],[-35.333132989,-6.31379290599989],[-35.3422090089999,-6.315256326],[-35.3489289139999,-6.31450785399989],[-35.360666949,-6.30794464599989],[-35.3674560909999,-6.29988432499993],[-35.36739415,-6.2987208799999],[-35.3649745249999,-6.29858978699991],[-35.3657941529999,-6.29098426599991],[-35.362624243,-6.28849232299986],[-35.3622473739999,-6.28097705299984],[-35.3574764539999,-6.27422098999989],[-35.349931124,-6.22487930099988],[-35.358129602,-6.24981253499993],[-35.4013601539999,-6.24538999600003],[-35.4010915689999,-6.25244043199985],[-35.4051481699999,-6.26352609299988],[-35.4209384229999,-6.27323113499996],[-35.436425156,-6.25342645099999],[-35.4030200429999,-6.21032460799991],[-35.3813898449999,-6.15845969500003],[-35.4135104789999,-6.1324159969999],[-35.4233197479999,-6.13269376899997],[-35.432394092,-6.13541929999991],[-35.4358426089999,-6.14022015299992],[-35.441530507,-6.13908859399994],[-35.4470620739999,-6.14496881499998],[-35.4438194939999,-6.14786383899992],[-35.4454909999999,-6.15411221099987],[-35.4576556099999,-6.15822048599989],[-35.466286435,-6.16547349599984],[-35.4720952549999,-6.1674544269999],[-35.484423853,-6.17601147999984],[-35.4937386669999,-6.17749200899987],[-35.499787768,-6.18006016999993],[-35.5107537329999,-6.19025966499989],[-35.518361762,-6.19329973899988],[-35.5270377779999,-6.20131211599988],[-35.5504185479999,-6.1999016839999],[-35.535425968,-6.14203088399989],[-35.5366090539999,-6.13785233699992],[-35.5343697219999,-6.12924787799996],[-35.535927152,-6.12388740899991],[-35.5399583439999,-6.11998343799992],[-35.5417148679999,-6.09707547399991],[-35.5317207849999,-6.09164132799994],[-35.5364185779999,-6.08700745899989],[-35.536055011,-6.08312246699996],[-35.53793461,-6.08078068099998],[-35.536648089,-6.075355839],[-35.5424404239999,-6.06025041799995],[-35.5498230499999,-6.04931146999992],[-35.5577291869999,-6.04677659899994],[-35.5707786409999,-6.0795446669999],[-35.647482757,-6.01603792199997],[-35.6501928949999,-5.97643517899997],[-35.5722266919999,-5.93230810199997],[-35.529010211,-5.88180856299987],[-35.594525871,-5.86748505599992],[-35.6354406079999,-5.80354095399999],[-35.656277578,-5.7179828769999],[-35.7770999429999,-5.71638597299995],[-35.9396394319999,-5.7330119269999],[-35.9415991499999,-5.72779166100003],[-35.9340442349999,-5.71590434599996],[-35.9416652219999,-5.66877850999988],[-35.936043684,-5.66096886899995],[-35.9327822879999,-5.65342617599988],[-35.9242900339999,-5.64985491399989],[-35.9227864179999,-5.64503086699989],[-35.924379592,-5.63661375399989],[-35.9217861349999,-5.63375298599988],[-35.9151149529999,-5.63265413399989],[-35.9092937449999,-5.62798898899991],[-35.8983768319998,-5.62430336699986],[-35.892795811,-5.62893862699987],[-35.8853116079999,-5.63194274399991],[-35.8726677209999,-5.62463054199993],[-35.8704653309999,-5.62154681799991],[-35.869284895,-5.61539128099992],[-35.8734528539999,-5.60830622999999],[-35.868536586,-5.6053649569999],[-35.8638694789999,-5.61187932799988],[-35.8579768359999,-5.61202833699997],[-35.854458397,-5.60864069499985],[-35.8409983939999,-5.61146953399993],[-35.8312294269999,-5.6107566919999],[-35.8291332069999,-5.61180860799988],[-35.8258232049999,-5.6175154249999],[-35.8056090569999,-5.61940227299989],[-35.794712144,-5.62608091099999],[-35.7821104569999,-5.6275451869999],[-35.7782466909999,-5.6298857829999],[-35.7755107879999,-5.63502971999993],[-35.7641512169999,-5.63829111899993],[-35.7618848979999,-5.6382209329999],[-35.761503419,-5.63565777099989],[-35.765559417,-5.63102986299988],[-35.7671010769999,-5.62609265700001],[-35.7728112239999,-5.62207941299989],[-35.7728407129999,-5.6196739219999],[-35.7685547529999,-5.61953362299999],[-35.7617433359999,-5.62577731399996],[-35.757091536,-5.62796491799998],[-35.754123636,-5.62646331899999],[-35.753894682,-5.62193617700001],[-35.7468119099999,-5.61969221499993],[-35.7450602409999,-5.45827892399986],[-35.7509869539999,-5.45920804999992],[-35.7564916629999,-5.45561428899987],[-35.7610348539999,-5.45493858299989],[-35.7711614049999,-5.44326867599983],[-35.7772165509999,-5.44282551699986],[-35.7889709889999,-5.45339851699992],[-35.7919787499999,-5.45297445499988],[-35.7979250129999,-5.46118461899989],[-35.8103923949999,-5.46571078499988],[-35.8142132529999,-5.46477873499988],[-35.840224752,-5.23458626699984],[-35.790919914823164,-5.077396963583181],[-35.776831601084844,-5.080362620254861],[-35.7673908589999,-5.08347034399999]]]}},{"type":"Feature","properties":{"id":"240002","state":"RN","stateCode":"24"},"geometry":{"type":"Polygon","coordinates":[[[-35.768390085,-6.04852619699992],[-35.753360482,-6.06100204099994],[-35.7459562589999,-6.06222192999997],[-35.7471223749999,-6.06499987499994],[-35.7214537139999,-6.07459925699992],[-35.7106437479999,-6.07671240999996],[-35.7007978309999,-6.07171541099994],[-35.693970391,-6.07116064799998],[-35.681767554,-6.07531613999989],[-35.673678964,-6.0799084249999],[-35.6708959319999,-6.08831854099996],[-35.6691409649999,-6.08977616999995],[-35.6467845009999,-6.10656720399995],[-35.6400582739999,-6.1080050059999],[-35.6167469389999,-6.10073980499989],[-35.613256502,-6.10331431899994],[-35.612507802,-6.09770509699999],[-35.6105069849999,-6.09538261699993],[-35.602569074,-6.09188465899997],[-35.588872372,-6.09679872999995],[-35.573581785,-6.08038680199995],[-35.5707786409999,-6.07954466699991],[-35.557729187,-6.04677659899992],[-35.54982305,-6.04931146999994],[-35.5433751269999,-6.05816423199995],[-35.536648089,-6.07535583899998],[-35.53793461,-6.08078068099995],[-35.536055011,-6.08312246699999],[-35.5360136309999,-6.08810754000001],[-35.5317207849999,-6.09164132799999],[-35.5417148679999,-6.09707547399992],[-35.539958344,-6.11998343799996],[-35.535927152,-6.12388740899996],[-35.534369722,-6.12924787799994],[-35.5366090539999,-6.13785233699999],[-35.535425968,-6.14203088399997],[-35.5504185479999,-6.19990168399994],[-35.5270377779999,-6.20131211599995],[-35.518361762,-6.19329973899994],[-35.510753733,-6.19025966499993],[-35.499787768,-6.18006016999996],[-35.4937386669999,-6.17749200899993],[-35.484423853,-6.17601147999991],[-35.4720952549999,-6.16745442699994],[-35.466286435,-6.16547349599992],[-35.45765561,-6.15822048599995],[-35.445491,-6.15411221099992],[-35.443632717,-6.14921462799998],[-35.4470620739999,-6.14496881499995],[-35.4454765749999,-6.14198846799999],[-35.441530507,-6.13908859399996],[-35.435842609,-6.14022015299997],[-35.432394092,-6.13541929999995],[-35.4233197479999,-6.13269376899993],[-35.4135104789999,-6.13241599699996],[-35.381389845,-6.158459695],[-35.403020043,-6.21032460799992],[-35.436425156,-6.25342645099997],[-35.4209384229999,-6.27323113499993],[-35.4051481699999,-6.26352609299993],[-35.401091569,-6.25244043199992],[-35.401360154,-6.24538999600001],[-35.358129602,-6.24981253499993],[-35.349931124,-6.22487930099989],[-35.357476454,-6.27422098999995],[-35.3622473739999,-6.28097705299993],[-35.362624243,-6.28849232299991],[-35.3657941529999,-6.29098426599995],[-35.364974525,-6.29858978699997],[-35.36739415,-6.29872087999997],[-35.3674560909999,-6.29988432499996],[-35.360666949,-6.30794464599994],[-35.3489289139999,-6.31450785399995],[-35.3422090089999,-6.31525632599997],[-35.346214517,-6.33710100699998],[-35.3441461059999,-6.34135631899999],[-35.344198177,-6.34748651899995],[-35.34653546,-6.35841818999993],[-35.34492047,-6.36257626499999],[-35.3419612219999,-6.36405110799998],[-35.34126873,-6.37221942799991],[-35.3422740209999,-6.37556744299999],[-35.338892825,-6.38110592999996],[-35.309618801,-6.40311219299999],[-35.308198795,-6.40486263299998],[-35.3117779029999,-6.41050547299995],[-35.303906806,-6.41450487699991],[-35.300319348,-6.41886550699993],[-35.3032858,-6.42079365499997],[-35.3145811719999,-6.44159733799997],[-35.3143608509999,-6.44960549699992],[-35.341263989,-6.538617211],[-35.364512872,-6.512040683],[-35.39008948,-6.49652055099999],[-35.400749126,-6.49160322599989],[-35.4123940509999,-6.48824748599999],[-35.4348247989999,-6.4889120139999],[-35.441622111,-6.48772965699993],[-35.442648708,-6.47877419299997],[-35.4466974319999,-6.48684327799998],[-35.4515930799999,-6.48496664999996],[-35.4555389069999,-6.47853976199992],[-35.4600464129999,-6.47677829699993],[-35.464224283,-6.48271188],[-35.4715253019999,-6.48265410399993],[-35.477139349,-6.48685228499992],[-35.47932004,-6.48679298899998],[-35.4842819029999,-6.48600963799991],[-35.486067861,-6.48289144199994],[-35.4919825969999,-6.480084984],[-35.4957935689999,-6.48325986099994],[-35.501410127,-6.47780262499997],[-35.508039927,-6.47870164399993],[-35.512354697,-6.47681557299991],[-35.5152616609999,-6.47925722099997],[-35.517749539,-6.47939930900002],[-35.5252964889999,-6.47609776299994],[-35.5270966309999,-6.47927382399993],[-35.53139672,-6.47993976999994],[-35.5336369469999,-6.48303224099994],[-35.5379576719999,-6.47990524799994],[-35.5400990059999,-6.48055411999998],[-35.5407626209999,-6.48296915799996],[-35.5466943429999,-6.48186649999995],[-35.5498150249999,-6.48493113699995],[-35.5521000649999,-6.49082383299998],[-35.561668125,-6.49264476699993],[-35.564795584,-6.49177974899994],[-35.5630010159999,-6.4897280029999],[-35.564190599,-6.48746887699996],[-35.58053237,-6.48711142499994],[-35.582755567,-6.48278776699996],[-35.5864993169999,-6.48210545599992],[-35.5880994139999,-6.47902527599995],[-35.5917120209999,-6.47715830899994],[-35.592164326,-6.47163021399998],[-35.6001881229999,-6.4606105849999],[-35.604969282,-6.45927129399993],[-35.616874161,-6.46263299399991],[-35.617969156,-6.46201642599997],[-35.617023187,-6.45876281099996],[-35.619653328,-6.45722365699988],[-35.6231920359999,-6.45865707400002],[-35.6293108189999,-6.45487198699993],[-35.6367999179999,-6.45438857099998],[-35.646063647,-6.45060480199991],[-35.6514903789999,-6.44999434499994],[-35.6539281299999,-6.44724872599995],[-35.66016426,-6.44527871899993],[-35.663603892,-6.44682980399992],[-35.6651574529999,-6.45051484700001],[-35.669043912,-6.45026213499997],[-35.6713478529999,-6.45172380699993],[-35.6819729969999,-6.44792834999997],[-35.686421807,-6.452969794],[-35.6958475899999,-6.45971806499997],[-35.6977412319999,-6.46272804199996],[-35.7023722659999,-6.46444705299999],[-35.707166568,-6.46953642099993],[-35.711256337,-6.47109409599992],[-35.7186026929999,-6.47253255899991],[-35.7261916059999,-6.46961173700001],[-35.730309941,-6.47286114799993],[-35.735220495,-6.47307404599997],[-35.741155183,-6.47630397899996],[-35.743560907,-6.47388492499991],[-35.750227015,-6.47849150099994],[-35.7577578989999,-6.47903353899995],[-35.7633561149999,-6.48219196999996],[-35.77992606,-6.48327587599993],[-35.838695314,-6.45258293099996],[-35.848103528,-6.45165778199989],[-35.849956035,-6.44070637799998],[-35.847266049,-6.43912517899998],[-35.8545738239999,-6.43451779499997],[-35.8447895969999,-6.40270676200003],[-35.8474297689999,-6.39948546299995],[-35.8477256589999,-6.39385228499996],[-35.8431886129999,-6.37669577],[-35.8448052779999,-6.37792721099993],[-35.847578668,-6.37749369499995],[-35.850332948,-6.38002329999991],[-35.8602919149999,-6.37996868200001],[-35.8684690069999,-6.38417311999998],[-35.870545851,-6.36278219499997],[-35.85724569,-6.36068528299993],[-35.849914933,-6.36224730699993],[-35.8416051899999,-6.357561228],[-35.833233722,-6.34936352999993],[-35.830158776,-6.34372162700002],[-35.8264748489999,-6.3422345069999],[-35.8277760319999,-6.33861657499996],[-35.8204582069999,-6.33385971999992],[-35.804069816,-6.3189697629999],[-35.8014407809999,-6.31063168099996],[-35.7959279209999,-6.30015266099996],[-35.7964104979999,-6.29363123299996],[-35.793317396,-6.28454272399998],[-35.7994828879999,-6.27773656599993],[-35.793605473,-6.27558972099994],[-35.7844738219999,-6.26607972800002],[-35.7860725009999,-6.26269866799996],[-35.7848279409999,-6.25851807099998],[-35.7865556169999,-6.25665657999997],[-35.7858637269999,-6.25276993599993],[-35.7842795909999,-6.25203622399996],[-35.782718258,-6.24778241099999],[-35.785935137,-6.24368958299991],[-35.787439275,-6.23742006799996],[-35.7908568709999,-6.23410374500001],[-35.7905191,-6.22980577099994],[-35.783601779,-6.22317069499994],[-35.7775739999999,-6.22324229399989],[-35.772037431,-6.22112386699995],[-35.7700663629999,-6.21464933199999],[-35.766379077,-6.210412538],[-35.769207398,-6.20101781700002],[-35.7680391589999,-6.1965390419999],[-35.7654385749999,-6.197441915],[-35.7633663789999,-6.20156638000001],[-35.760759035,-6.20128368099999],[-35.7595823409999,-6.19775833199998],[-35.756580183,-6.19482012999997],[-35.7562001919999,-6.19019088899993],[-35.750235722,-6.18981481799997],[-35.7464640809999,-6.18534956099992],[-35.741011325,-6.18441410799997],[-35.740645367,-6.1826752879999],[-35.717455534,-6.17119232499995],[-35.731805486,-6.14163810199995],[-35.811657983,-6.11855616899993],[-35.8221694629999,-6.07339436199997],[-35.799077566,-6.0430848359999],[-35.781572723,-6.04151084099998],[-35.768390085,-6.04852619699992]]]}},{"type":"Feature","properties":{"id":"240010","state":"RN","stateCode":"24"},"geometry":{"type":"Polygon","coordinates":[[[-37.915444236,-5.88150966499996],[-37.913322325,-5.88530004799992],[-37.915822628,-5.88907765799997],[-37.9171218929999,-5.8964745539999],[-37.9125408189999,-5.90064995599988],[-37.9135949529999,-5.90239672299999],[-37.9127016859999,-5.91373326399992],[-37.907880209,-5.91783184999991],[-37.9063897039999,-5.92202237699996],[-37.9011836669999,-5.92719354599989],[-37.8974166419999,-5.92790379099991],[-37.900173007,-5.93179682199998],[-37.8955270369999,-5.9416547339999],[-37.7813787919999,-5.92535746999988],[-37.7337898709999,-5.91187051000003],[-37.6485763489999,-5.94131206199989],[-37.5930969839999,-5.98191984899995],[-37.557390577,-6.01598209899982],[-37.5773794509999,-6.03398962399984],[-37.5218768659999,-6.15179110200001],[-37.5363507809999,-6.15283598099997],[-37.539994959,-6.165930314],[-37.560652675,-6.16453185299993],[-37.569620459,-6.15543874399994],[-37.574714827,-6.15973782099991],[-37.584914763,-6.16262968799993],[-37.5999132389999,-6.17401100999996],[-37.604170526,-6.17533751999997],[-37.6206576,-6.17608715199994],[-37.6384755989999,-6.17983697799991],[-37.642818974,-6.1870591159999],[-37.6467119319999,-6.18939230399997],[-37.663082292,-6.19101841199984],[-37.673170075,-6.19058026299997],[-37.6889406469999,-6.18694346299994],[-37.6958804889999,-6.1872865819999],[-37.700069936,-6.18511776499998],[-37.7075242249999,-6.17685543299984],[-37.732122541,-6.18480986899988],[-37.745789639,-6.19103141599987],[-37.7545715619999,-6.20019330000003],[-37.751867906,-6.21156735899995],[-37.7530795299999,-6.21443028299996],[-37.756068211,-6.21715698799988],[-37.763845793,-6.21889959999987],[-37.7756165039999,-6.23134354299993],[-37.7749676539999,-6.23268238999997],[-37.7652339139999,-6.23413676699983],[-37.7616446409999,-6.23628879399991],[-37.7614211899999,-6.2395548479999],[-37.763066345,-6.24113557900002],[-37.7766132179999,-6.24587491599982],[-37.7605163559999,-6.25409061099988],[-37.7624358479999,-6.25868002599992],[-37.7704778699999,-6.26563616099992],[-37.7714219329999,-6.27306514599992],[-37.758079843,-6.28658551099999],[-37.757662517,-6.29077217499998],[-37.7648844029999,-6.29223641099999],[-37.794518035,-6.28903294399983],[-37.812123941,-6.29272684099987],[-37.8240301199999,-6.30603367699992],[-37.822752103,-6.30871662099991],[-37.8145359909999,-6.31231207099996],[-37.8147549769999,-6.31514316699991],[-37.8337316409999,-6.32177867799982],[-37.8425209869999,-6.32999148999994],[-37.8429325029999,-6.33579640099986],[-37.8342599909999,-6.34238537499988],[-37.8352945989999,-6.34571641699989],[-37.8441167499999,-6.35435685099993],[-37.8433979989999,-6.35768325699991],[-37.840922421,-6.35928064299994],[-37.841531033,-6.36303071500003],[-37.854242233,-6.36631647599983],[-37.8598275049999,-6.37487732899985],[-37.8720960699999,-6.36921470499987],[-37.883287324,-6.36702326599987],[-37.8882246749999,-6.36436948799992],[-37.888511153,-6.38720891399987],[-37.884261995,-6.39167608399986],[-37.8862495419999,-6.39700060499991],[-37.890256337,-6.4001350999999],[-37.8968370109999,-6.39862656699991],[-37.9015320829999,-6.39967872099988],[-37.9229324769999,-6.41466455099987],[-37.9260514379999,-6.42113784699995],[-37.9384312549999,-6.42404804899992],[-37.9454374589999,-6.42262006499995],[-37.9552056329999,-6.40806153299992],[-37.9553956249999,-6.39820773799993],[-37.9630769129999,-6.4007879149999],[-37.9680224539999,-6.40512246799995],[-37.9686783229999,-6.41874331099991],[-37.9710624299999,-6.42243076599993],[-37.9790841889999,-6.4266932029999],[-37.9890182289999,-6.42863595799987],[-37.997278314,-6.42648891999994],[-38.0028178849999,-6.42800915599992],[-38.0136957299999,-6.42742727499991],[-38.0143929799999,-6.43039221199997],[-38.0096272709999,-6.43003709699991],[-38.0082250569999,-6.43219233399998],[-38.0120776449999,-6.43828854899988],[-38.0199688829999,-6.44600491599999],[-38.0129466389999,-6.46885350799984],[-38.0218152579999,-6.46845564899993],[-38.0250693189999,-6.47334661199991],[-38.029477106,-6.47583716199989],[-38.037419069,-6.47523265699988],[-38.040644466,-6.47304360999989],[-38.0409231189999,-6.47028888099993],[-38.036430563,-6.46160414099989],[-38.0370127799999,-6.45705459699991],[-38.0439231399999,-6.45197545499991],[-38.0433975879999,-6.44334951999998],[-38.0463475849999,-6.44093036899988],[-38.049710944,-6.441049868],[-38.051870724,-6.44336501899989],[-38.053954753,-6.45368385699989],[-38.059242769,-6.45312971299996],[-38.0619361349999,-6.45944769799991],[-38.0671358319999,-6.46054884599989],[-38.0701511499999,-6.46275245999989],[-38.075636136,-6.47333445199992],[-38.07907377,-6.47683440899993],[-38.083017452,-6.48588760199989],[-38.095397625,-6.49358620599998],[-38.09798754,-6.50949076499991],[-38.1023444289999,-6.51191278099992],[-38.1061252399999,-6.51688098999983],[-38.1170573909999,-6.52266852499993],[-38.1249976459999,-6.52194470899987],[-38.135517576,-6.51847612299998],[-38.1381207159999,-6.51278298099988],[-38.1391152069999,-6.50594122199984],[-38.1450853279999,-6.49416773699983],[-38.1478821719999,-6.49148756700005],[-38.15847783,-6.49639229999991],[-38.161172866,-6.49911361099988],[-38.1643499669999,-6.4976352949999],[-38.1690394619999,-6.50002021199994],[-38.1874544689999,-6.49918562999988],[-38.1922641609999,-6.49832883699986],[-38.200551659,-6.48827937599993],[-38.227580415,-6.48387526500001],[-38.2392289949999,-6.48029732199991],[-38.2472740489999,-6.4849848699999],[-38.2528879349999,-6.48542236799983],[-38.25653111,-6.48320935599992],[-38.2614135259999,-6.48514559999991],[-38.263587973,-6.48941019400001],[-38.2698463089999,-6.49444071599987],[-38.2815258829999,-6.49954400899988],[-38.288719843,-6.5056173089999],[-38.2900200409999,-6.49727707199998],[-38.2940285719999,-6.48940140799993],[-38.2975109459999,-6.48720650799988],[-38.306316523,-6.48976495199999],[-38.314087392,-6.4873323699999],[-38.318255817,-6.47377519199995],[-38.3242750379999,-6.46868254499994],[-38.328437454,-6.46065599099995],[-38.3307028779999,-6.45891330999996],[-38.332790522,-6.45819022199988],[-38.3393247429999,-6.4601260209999],[-38.343801749,-6.4566518289999],[-38.3485588459999,-6.45574080099987],[-38.3552186859999,-6.4572213329999],[-38.3609756279999,-6.46198753899996],[-38.3614181849999,-6.45723572600003],[-38.3637904679999,-6.45364195299988],[-38.373663011,-6.45578097199996],[-38.3762863369999,-6.44135523799999],[-38.3751194349999,-6.43737916599997],[-38.377770943,-6.43686587000002],[-38.3819378829999,-6.43205765099992],[-38.3845344129999,-6.42221949599992],[-38.399319415,-6.40979245799997],[-38.4017394919999,-6.40955893399991],[-38.3917427289999,-6.39916140199989],[-38.4017435549999,-6.40955963799991],[-38.4260411919999,-6.41412383200003],[-38.4317050629999,-6.41043271299991],[-38.438344037,-6.40987483099992],[-38.4416110359999,-6.4047020579999],[-38.447958834,-6.40335253099984],[-38.447408045,-6.39985347799995],[-38.448837603,-6.3945752009999],[-38.4507917869999,-6.39276548399988],[-38.455550439,-6.39290688399995],[-38.4658091649999,-6.39640989999998],[-38.4744056059999,-6.39606000599991],[-38.485061393,-6.39941930499993],[-38.4864903179999,-6.39774839699987],[-38.483424521,-6.38949626699991],[-38.4830826489999,-6.38111317299991],[-38.4843202609999,-6.37499035899992],[-38.490210843,-6.36813826699996],[-38.4897545679999,-6.36344824899988],[-38.483060902,-6.35663124299994],[-38.4760395549999,-6.34572735299993],[-38.4645256279999,-6.33707347400002],[-38.4583864909999,-6.33021355099993],[-38.4661072939999,-6.33128126599985],[-38.471224693,-6.33433532499988],[-38.4765035189999,-6.3338304819999],[-38.4862983029999,-6.34117174400002],[-38.494175437,-6.34481731899996],[-38.5054211979999,-6.35650912199994],[-38.512085356,-6.35223313899998],[-38.516599308,-6.34623441199995],[-38.524783618,-6.34519324399998],[-38.532623015,-6.34170620299996],[-38.5386134869999,-6.34484442299989],[-38.545013226,-6.34458867799994],[-38.5452342339999,-6.34688685899987],[-38.5498495479999,-6.3507024579999],[-38.545066592,-6.35267138299993],[-38.5450650479999,-6.3537574429999],[-38.5603765959999,-6.35464222699995],[-38.5633081979999,-6.35603202299991],[-38.5626117979999,-6.35464461799996],[-38.5644276589999,-6.35182512799987],[-38.5770753539999,-6.34742753699993],[-38.5815422899999,-6.33104607499998],[-38.5807124629999,-6.32538136300003],[-38.582098522,-6.31927277099989],[-38.5812962349999,-6.3162101789999],[-38.578663766,-6.3147630939999],[-38.575296081,-6.30863482699988],[-38.5667178259999,-6.30441506499989],[-38.5660226849999,-6.30258866499994],[-38.5666287939999,-6.30081515099999],[-38.5702964209999,-6.29999344599985],[-38.571513039,-6.28444305099992],[-38.5760297059999,-6.28352207900004],[-38.579545663,-6.27962640399996],[-38.5753213039999,-6.27775029599997],[-38.572660464,-6.2741225819999],[-38.5650096769999,-6.26849336199991],[-38.5597871159999,-6.26716274999984],[-38.5544209659999,-6.26339563299991],[-38.5542785379999,-6.25974730099984],[-38.5501476969999,-6.257319844],[-38.5458511969999,-6.24542642899998],[-38.5384653289999,-6.24689674799982],[-38.5283479769999,-6.23917622799991],[-38.5282026149999,-6.2367321139999],[-38.5247080429999,-6.23286621699998],[-38.5234423859999,-6.22831888400003],[-38.519711764,-6.22303755799987],[-38.529285906,-6.21374039700003],[-38.5279558239999,-6.20186613499989],[-38.5258772489999,-6.19939641999993],[-38.527203937,-6.19337797999999],[-38.518543307,-6.19086193299996],[-38.5123273949999,-6.19211852999996],[-38.503087185,-6.19215327399986],[-38.501325272,-6.19094707099999],[-38.5019628339999,-6.18381969999996],[-38.5007583369999,-6.17968245499992],[-38.497428515,-6.17640026100003],[-38.4935553799999,-6.17506152199997],[-38.4870728189999,-6.16516047099992],[-38.4781193129999,-6.15937644599991],[-38.4736384319999,-6.15379766399997],[-38.4720657349999,-6.14874920099988],[-38.476415546,-6.14441305300001],[-38.4746293589999,-6.14332269699992],[-38.4734247619999,-6.13600323199989],[-38.470503653,-6.13285993800003],[-38.4620851999999,-6.1123210059999],[-38.4576707569999,-6.10801947199992],[-38.451499971,-6.10672518699993],[-38.4501967729999,-6.10268511899989],[-38.4453103239999,-6.1023386379999],[-38.440771172,-6.09687432399995],[-38.4432718699999,-6.09528336899991],[-38.443450394,-6.0907637819999],[-38.4457774649999,-6.089541388],[-38.447316578,-6.085277722],[-38.443507001,-6.08470411399992],[-38.4373469679999,-6.07844824299992],[-38.4330572019999,-6.07813186999982],[-38.4307047079999,-6.07469663899992],[-38.4281242259999,-6.07354125199988],[-38.427436138,-6.06937662399992],[-38.416134352,-6.0619684859999],[-38.413187059,-6.05832082599988],[-38.4121148589999,-6.05925694899999],[-38.4048780109999,-6.05728947499989],[-38.4015365279999,-6.05349497599993],[-38.394992556,-6.05541083499998],[-38.3904413239999,-6.05329808199992],[-38.3856475279999,-6.05427039899986],[-38.381955251,-6.05278869199992],[-38.3856916039999,-6.0646792419999],[-38.3841569489999,-6.06615539999996],[-38.37836226,-6.06683082499984],[-38.379773116,-6.07331688599989],[-38.3769820369999,-6.07944511799986],[-38.3748800439999,-6.07962466099991],[-38.3725149379999,-6.08332111999994],[-38.3662147919999,-6.08829806599988],[-38.361024366,-6.0856800619999],[-38.3559126179999,-6.08635456599995],[-38.3543796829999,-6.08306686899987],[-38.3504232569999,-6.08324330699999],[-38.347364381,-6.08070158799991],[-38.348323996,-6.06996138499989],[-38.3467829939999,-6.06727727099997],[-38.3415860659999,-6.07205954399996],[-38.3392626209999,-6.078586869],[-38.3367598,-6.08039740199995],[-38.3324290239999,-6.07814296999987],[-38.3270887629999,-6.07857106400003],[-38.3199214469999,-6.0770388769999],[-38.315768289,-6.08189466999988],[-38.3048022689999,-6.08696743699994],[-38.3004215889999,-6.08107768399999],[-38.2928456249999,-6.07678604899998],[-38.290789171,-6.07315142599999],[-38.2853876039999,-6.07086815099992],[-38.2808130069999,-6.07141236999987],[-38.277009231,-6.06995167799989],[-38.274396285,-6.06378529799999],[-38.2700337389999,-6.06266921399988],[-38.2686724779999,-6.05774657899998],[-38.2649743919999,-6.05424793500005],[-38.2591837919999,-6.05378001699989],[-38.2608319859999,-6.05143971900004],[-38.2601673849999,-6.04971572299996],[-38.2525690859999,-6.04310305099995],[-38.2528742569999,-6.03520902000003],[-38.2511794749999,-6.03305448799996],[-38.2524458669999,-6.02169984699997],[-38.2506882209999,-6.01410857899993],[-38.2526921249999,-6.01191401099993],[-38.2445036149999,-5.99945744999991],[-38.2144753429999,-5.97429916999988],[-38.20601561,-5.9643477589999],[-38.192368785,-5.95956447999993],[-38.1835821069999,-5.95022326499998],[-38.1754312599999,-5.95340151699987],[-38.163779769,-5.94544341099983],[-38.1634901019999,-5.93889577799985],[-38.1491448079999,-5.93878478699992],[-38.1431665309999,-5.94000956999992],[-38.1374685469999,-5.93639186399992],[-38.132108675,-5.93988085299992],[-38.121626153,-5.94169607899994],[-38.123094914,-5.94515057099985],[-38.1215406649999,-5.94583334899989],[-38.1197764619999,-5.94317840099991],[-38.1144318349999,-5.94119288499998],[-38.1020507849999,-5.92333380899988],[-38.0986223249999,-5.92043029099995],[-38.080397147,-5.9105236659999],[-38.0741038829999,-5.909221877],[-38.0573136849999,-5.90184212399992],[-38.0395160949999,-5.88447647599992],[-38.004292356,-5.85685976699991],[-37.95100387,-5.86350463699995],[-37.948583431,-5.8609879809999],[-37.9384031449999,-5.85695678299988],[-37.9317543429999,-5.85686395999989],[-37.9251639559999,-5.85327061299985],[-37.9169085939999,-5.85266860199988],[-37.915444236,-5.88150966499996]]]}},{"type":"Feature","properties":{"id":"240009","state":"RN","stateCode":"24"},"geometry":{"type":"Polygon","coordinates":[[[-37.2095324329999,-4.89589580600001],[-37.1989216439999,-4.90524430699992],[-37.1814413469999,-4.91696490099998],[-37.167130872,-4.93212993899989],[-37.1640920959999,-4.93415556299994],[-37.154296822062015,-4.935232055010627],[-37.1386,-4.9479],[-36.85567160717344,-4.9723220090004565],[-36.857780885,-4.97351609299996],[-36.8593926119999,-4.97721114599984],[-36.860890673,-4.988811661],[-36.863011838,-4.99385485999995],[-36.871267794,-4.99909406199994],[-36.881428626,-5.01171707199995],[-36.9118920399999,-5.01618955599986],[-36.9111996299999,-5.07608122599983],[-36.9541131279999,-5.07607334799996],[-36.972243234,-5.10297906499989],[-36.9721301979999,-5.1316930199999],[-36.92907193,-5.13127339299997],[-36.928050393,-5.29377653699993],[-37.126135338,-5.29342446999988],[-37.1391926179999,-5.33557055599989],[-37.142949749,-5.3739039059999],[-37.17275933,-5.49049229899988],[-37.1045939509999,-5.65622150199989],[-37.106496434,-5.66273091799986],[-37.123485101,-5.66938214999988],[-37.130290045,-5.67931169499999],[-37.145084734,-5.69002160199989],[-37.1635669619999,-5.71330755099985],[-37.169754928,-5.71281266199999],[-37.176777869,-5.72369358299989],[-37.1785232819999,-5.72361777199995],[-37.180999153,-5.71801972699996],[-37.1854440949999,-5.71668123799993],[-37.1955123369999,-5.7181037609999],[-37.203500376,-5.72513009599999],[-37.2205789409999,-5.71749697899993],[-37.2190485489999,-5.72594414799988],[-37.225404268,-5.78983620599985],[-37.179488437,-5.81906090199988],[-37.1949587629999,-5.82374070399993],[-37.260453285,-5.90857044500003],[-37.1623382449999,-6.02117123799993],[-37.1739313059999,-6.0480158609999],[-37.1793935699999,-6.04997639399984],[-37.1942948609999,-6.0480331629999],[-37.1963362459999,-6.0472417999999],[-37.2002642279999,-6.04028156899989],[-37.204397617,-6.03815176699989],[-37.20864964,-6.03846592399997],[-37.216420252,-6.04247707399993],[-37.2226872219999,-6.04214809399991],[-37.2276676499999,-6.03226596899988],[-37.2318602409999,-6.02759492799989],[-37.2537948149999,-6.0265688589999],[-37.256473967,-6.02847106400004],[-37.258422367,-6.03405730299994],[-37.262584325,-6.03845586],[-37.263579179,-6.04635559499996],[-37.2667974309999,-6.05109888699991],[-37.2724773569999,-6.05570251799998],[-37.282266589,-6.05822432499993],[-37.2869166259999,-6.05798951399983],[-37.2955718709999,-6.0500951819999],[-37.3005941979999,-6.05025991099984],[-37.3091996979999,-6.05776009799997],[-37.3197126849999,-6.06003495099998],[-37.33577948,-6.06745949399993],[-37.3471909509999,-6.0804338089999],[-37.3544341639999,-6.08648594699986],[-37.3715645489999,-6.08277893699985],[-37.3823387859999,-6.08555377999982],[-37.3854721379999,-6.08830524599989],[-37.3861781919999,-6.09476235499989],[-37.3900150159999,-6.10444271399996],[-37.393631925,-6.109387652],[-37.4078097189999,-6.11278221999988],[-37.4259540299999,-6.10899706799983],[-37.445693054,-6.11220227899993],[-37.453912489,-6.12007369199996],[-37.454931702,-6.13319262999989],[-37.458669855,-6.13320271499988],[-37.45894743,-6.14500222499994],[-37.4829911069999,-6.15168099599989],[-37.4893691149999,-6.14443784499992],[-37.5033963069999,-6.14439662999996],[-37.5028907659999,-6.15214048299988],[-37.5218768659999,-6.15179110200001],[-37.5773794509999,-6.03398962399984],[-37.557390577,-6.01598209899982],[-37.5930969839999,-5.98191984899995],[-37.6485763489999,-5.94131206199989],[-37.7337898709999,-5.91187051000003],[-37.7813787919999,-5.92535746999988],[-37.8955270369999,-5.9416547339999],[-37.900173007,-5.93179682199998],[-37.8974166419999,-5.92790379099991],[-37.9011836669999,-5.92719354599989],[-37.9063897039999,-5.92202237699996],[-37.907880209,-5.91783184999991],[-37.9127016859999,-5.91373326399992],[-37.9135949529999,-5.90239672299999],[-37.9125408189999,-5.90064995599988],[-37.9171218929999,-5.8964745539999],[-37.915822628,-5.88907765799997],[-37.913322325,-5.88530004799992],[-37.915444236,-5.88150966499996],[-37.9169085939999,-5.85266860199988],[-37.9251639559999,-5.85327061299985],[-37.9317543429999,-5.85686395999989],[-37.9384031449999,-5.85695678299988],[-37.948583431,-5.8609879809999],[-37.95100387,-5.86350463699995],[-38.004292356,-5.85685976699991],[-38.0395160949999,-5.88447647599992],[-38.0573136849999,-5.90184212399992],[-38.0741038829999,-5.909221877],[-38.080397147,-5.9105236659999],[-38.0986223249999,-5.92043029099995],[-38.1020507849999,-5.92333380899988],[-38.1144318349999,-5.94119288499998],[-38.1197764619999,-5.94317840099991],[-38.1215406649999,-5.94583334899989],[-38.123094914,-5.94515057099985],[-38.121626153,-5.94169607899994],[-38.132108675,-5.93988085299992],[-38.1374685469999,-5.93639186399992],[-38.1431665309999,-5.94000956999992],[-38.1491448079999,-5.93878478699992],[-38.1634901019999,-5.93889577799985],[-38.165437195,-5.93210392399994],[-38.164060487,-5.92746279699997],[-38.146720127,-5.91617777899989],[-38.1446253129999,-5.91375427499998],[-38.1425538829999,-5.90164066699998],[-38.127639218,-5.89156098399992],[-38.124937346,-5.88761209699998],[-38.1225154299999,-5.88174014699992],[-38.1205458209999,-5.85834754999991],[-38.116285654,-5.84798677399999],[-38.1161600629999,-5.84314601899991],[-38.118864317,-5.83283477499993],[-38.1158544139999,-5.82939160199988],[-38.1143609759999,-5.82225543999993],[-38.1004934039999,-5.8045297849999],[-38.0761553079999,-5.78105615300002],[-38.0657641709999,-5.76524358699988],[-38.0615092229999,-5.76205326599991],[-38.0575365029999,-5.74816314599991],[-38.04965398,-5.73982486999996],[-38.0468841839999,-5.73294204900002],[-38.0470083619999,-5.73026276999998],[-38.0505906999999,-5.72827976499993],[-38.057503203,-5.72974625599984],[-38.0617667089999,-5.72524487],[-38.0683520269999,-5.72544899299994],[-38.0732425729999,-5.72357113099993],[-38.0801569119999,-5.7255147769999],[-38.0848449089999,-5.72930757499989],[-38.0882362629999,-5.73003770999992],[-38.0901382609999,-5.720233274],[-38.089693909,-5.71484643899993],[-38.0828419929999,-5.69840335899996],[-38.084529666,-5.68426120799995],[-38.081985388,-5.67012267599989],[-38.0758499139999,-5.6630594649999],[-38.0642545159999,-5.65632346799987],[-38.0533835799999,-5.64610402099988],[-38.0366829279999,-5.63948872199991],[-38.034269696,-5.63715278399992],[-38.0240616259999,-5.61356231299993],[-38.013964092,-5.59439805799998],[-37.9983274339999,-5.58531754099988],[-37.9996701649999,-5.57482703599987],[-37.997893447,-5.56809058499994],[-37.99003715,-5.55579792899987],[-37.9756854829999,-5.55077399799984],[-37.9601701499999,-5.54020921099988],[-37.948056476,-5.53464486399992],[-37.9416507929999,-5.52355123999998],[-37.934699522,-5.50528436699996],[-37.9326343429999,-5.50310770999989],[-37.9272725649999,-5.50222962199991],[-37.9174904009999,-5.50536083999988],[-37.9106207259999,-5.5039360279999],[-37.901577269,-5.49979237999993],[-37.9004202769999,-5.49044449199995],[-37.8984181669999,-5.48587905999994],[-37.8922253419999,-5.48075961799999],[-37.8895409219999,-5.45228823299988],[-37.8864846429999,-5.44382963399989],[-37.8769850589999,-5.42738929300005],[-37.8604815729999,-5.40668558700004],[-37.859315868,-5.39573445899987],[-37.8642752399999,-5.37835327599994],[-37.863736057,-5.37409139899991],[-37.8586404439999,-5.3671955339999],[-37.857657436,-5.35672366599982],[-37.8474704349999,-5.34002305299987],[-37.8357124949999,-5.33538659399994],[-37.822874639,-5.32294018699997],[-37.810210094,-5.31492913999995],[-37.8042858979999,-5.31278665699989],[-37.7831098669999,-5.29481554799992],[-37.7826056979999,-5.2867370179999],[-37.788984361,-5.27840855199993],[-37.7918589589999,-5.26877136799984],[-37.7904582839999,-5.25495618999998],[-37.7835202009999,-5.24282897299994],[-37.7829641749999,-5.23226517499991],[-37.789965904,-5.21449899299991],[-37.790028912,-5.21094031999996],[-37.787416026,-5.20393352499991],[-37.7763098149999,-5.18712071399989],[-37.7649556059999,-5.13961617199988],[-37.7556363969999,-5.12879361200005],[-37.7482916519999,-5.11755915199992],[-37.7400257889999,-5.11018058100002],[-37.7334224679999,-5.10064118599985],[-37.7316272629999,-5.08452691599991],[-37.7250893519999,-5.07062427700004],[-37.7146559289999,-5.06271488899985],[-37.7104914569999,-5.06114997799994],[-37.677620379,-5.0540857129999],[-37.660265832,-4.99791004399992],[-37.6577678619999,-5.00047362699991],[-37.6602637999999,-4.997902754],[-37.6403383809999,-4.92640460599996],[-37.4464459229999,-4.88096141299991],[-37.2532552679999,-4.83157324599989],[-37.2406374292591,-4.850426136815295],[-37.24063742925902,-4.850426136815421],[-37.2245776979999,-4.87769210799991],[-37.2095324329999,-4.89589580600001]]]}},{"type":"Feature","properties":{"id":"240007","state":"RN","stateCode":"24"},"geometry":{"type":"Polygon","coordinates":[[[-36.950458367,-5.85529517499999],[-36.942024234,-5.85835581199993],[-36.9376291899999,-5.86384205599992],[-36.9369687709999,-5.86843210699991],[-36.9409187959999,-5.87298447],[-36.9504656819999,-5.87880537699995],[-36.955172219,-5.88432564100001],[-36.959493648,-5.899258227],[-36.9695759049999,-5.90241519399999],[-36.972250062,-5.90480735599994],[-36.9730970999999,-5.91280645099992],[-36.96477068,-5.92468829199989],[-36.959065648,-5.92826801999996],[-36.950509723,-5.93042034899997],[-36.950812541,-5.93510138899994],[-36.947363525,-5.93701847399994],[-36.9446342639999,-5.94652964399998],[-36.94207291,-5.94788785899989],[-36.9397595419999,-5.95170887899996],[-36.939507823,-5.95459881999998],[-36.9413042249999,-5.95829374799998],[-36.936598018,-5.96835477799996],[-36.93193052,-5.96822306999997],[-36.926620045,-5.97179252599999],[-36.918942171,-5.96569286399998],[-36.914828514,-5.96562086299997],[-36.913715263,-5.966839636],[-36.9143833849999,-5.97104999899994],[-36.906767804,-5.97545990499995],[-36.9034243409999,-5.97563060599996],[-36.901359956,-5.9740340439999],[-36.893728257,-5.97495622299991],[-36.89225379,-5.97715240500001],[-36.88863,-5.97662249999996],[-36.887839244,-5.9736580659999],[-36.8851222829999,-5.97495004399994],[-36.881783914,-5.97422683699997],[-36.879917589,-5.977710473],[-36.8770057799999,-5.97599775899994],[-36.8731092889999,-5.97642199599995],[-36.869492265,-5.97268920100003],[-36.8684762509999,-5.973546697],[-36.8682732,-5.97844823500001],[-36.866083838,-5.98233419199993],[-36.861626781,-5.98155400399994],[-36.8608469859999,-5.98394716999999],[-36.8587118359999,-5.98456149500001],[-36.8571533879999,-5.98944821599996],[-36.8579902129999,-5.99062864999993],[-36.856280328,-5.992911605],[-36.857261556,-5.99471564099996],[-36.854508261,-5.9962276369999],[-36.8489572889999,-6.01033154099999],[-36.854648262,-6.02527038799994],[-36.853150959,-6.03018456899995],[-36.847879451,-6.03465311699991],[-36.8488952959999,-6.03783283099994],[-36.855392174,-6.04428046599997],[-36.867787549,-6.04848058199995],[-36.87141531,-6.05363564399998],[-36.869744246,-6.06095801199993],[-36.8750903389999,-6.06331732299999],[-36.885310387,-6.07113602199997],[-36.8987267869999,-6.0857738629999],[-36.911811643,-6.08187875399995],[-36.9211643179999,-6.08204768599998],[-36.9340489049999,-6.08895695199994],[-36.924463784,-6.13199442699998],[-36.9018605639999,-6.13428084099997],[-36.89847244,-6.14141792599994],[-36.8941960119999,-6.14529277299992],[-36.892150753,-6.17661684899999],[-36.901867229,-6.18158470999999],[-36.9043162149999,-6.18480933399999],[-36.911477006,-6.18633646399994],[-36.9144863889999,-6.182920275],[-36.9216781069999,-6.18145906499996],[-36.9255087229999,-6.18210545199999],[-36.934578377,-6.18835449399994],[-36.939731147,-6.18430534899993],[-36.9460439909999,-6.18432789400002],[-36.9573171169999,-6.19076382699999],[-36.926930511,-6.21575281699998],[-36.923821561,-6.220892571],[-36.9228605829999,-6.22559531999999],[-36.9240543019999,-6.23894615300002],[-36.8944208959999,-6.23892726399997],[-36.895322765,-6.23940060199996],[-36.89044716,-6.241692815],[-36.888096994,-6.24600401600002],[-36.880091792,-6.25081451999995],[-36.875945998,-6.2510135499999],[-36.875356302,-6.25271985499995],[-36.871778512,-6.25132014299996],[-36.8698961169999,-6.25237191499993],[-36.8684943469999,-6.25764068699997],[-36.86535723,-6.25924912399999],[-36.8625112519999,-6.25824375999993],[-36.860049121,-6.26387497499993],[-36.85411099,-6.26434749799995],[-36.851716106,-6.26939496799995],[-36.850268889,-6.26941113799996],[-36.848626339,-6.26467042499993],[-36.847373553,-6.26457837699996],[-36.8458500979999,-6.26764094099996],[-36.84354439,-6.26648781099995],[-36.839824819,-6.26841703799996],[-36.8368125349999,-6.27106294399994],[-36.8384366609999,-6.27556472199992],[-36.835723422,-6.27899070499998],[-36.834506432,-6.2857139879999],[-36.8326917489999,-6.286355009],[-36.8299659289999,-6.28414920099993],[-36.827872423,-6.28466625699999],[-36.8253679659999,-6.28923644399994],[-36.8221640269999,-6.28889834599994],[-36.821242668,-6.29007399799995],[-36.822409813,-6.2925659269999],[-36.819852839,-6.29419148399993],[-36.818926892,-6.29667636999992],[-36.8168355609999,-6.29640522899997],[-36.816216851,-6.30367058299988],[-36.772873555,-6.29838741600001],[-36.739151214,-6.33642313400001],[-36.748428652,-6.34156825499993],[-36.748585264,-6.35032317699992],[-36.752430049,-6.35389492199995],[-36.7417530039999,-6.37762343099993],[-36.742258352,-6.39293763999998],[-36.7535070539999,-6.44825356499996],[-36.7612285989999,-6.47854635499995],[-36.774315626,-6.47296243399996],[-36.7683134469999,-6.50052593799992],[-36.7657248209999,-6.50878742199993],[-36.7611107559999,-6.51567075799997],[-36.757765658,-6.51283322800001],[-36.7536874679999,-6.51327223399992],[-36.7516811139999,-6.51596764299993],[-36.7503936929999,-6.51303988399998],[-36.7491573249999,-6.51341763299997],[-36.747423433,-6.51821444300001],[-36.742869237,-6.5167295429999],[-36.740647861,-6.52167208799994],[-36.736736219,-6.52502937299999],[-36.7241747909999,-6.528107065],[-36.712408364,-6.53688696199991],[-36.708717982,-6.53558752799997],[-36.704789873,-6.53934142399995],[-36.703515803,-6.53819933999998],[-36.6950618079999,-6.55789296299997],[-36.678976189,-6.55133882699991],[-36.679747983,-6.57934915599997],[-36.65156393,-6.58580819199997],[-36.647226362,-6.58502455799988],[-36.636405751,-6.59240167900001],[-36.631140095,-6.590828943],[-36.626706488,-6.59279780799992],[-36.6240271579999,-6.59217297299993],[-36.6121353529999,-6.58508786099997],[-36.587507299,-6.58479866199994],[-36.5754923299999,-6.597927491],[-36.569836169,-6.59740367499998],[-36.569649135,-6.59872697399996],[-36.5665427119999,-6.59996128999996],[-36.5623083799999,-6.59784659799995],[-36.557210832,-6.600248547],[-36.555354682,-6.60439450999993],[-36.5521003659999,-6.60508560999992],[-36.550025295,-6.608023524],[-36.5324546189999,-6.60705992599995],[-36.520742654,-6.61060143099997],[-36.5230071119999,-6.61900113099996],[-36.5313056899999,-6.63488580999993],[-36.541745696,-6.66606325899994],[-36.543281474,-6.67870348999997],[-36.547415672,-6.69514974399996],[-36.5588803809999,-6.70910749199992],[-36.557942246,-6.71259964699994],[-36.5492196889999,-6.72204937099995],[-36.5442044549999,-6.73120350399992],[-36.527765803,-6.73494490299998],[-36.523936016,-6.73831323399996],[-36.520565629,-6.74568154599995],[-36.504753385,-6.75393898800001],[-36.502560318,-6.75762466299995],[-36.503262306,-6.76654227299998],[-36.5013047899999,-6.77756927199994],[-36.506937806,-6.81300537799997],[-36.511979131,-6.81957104799993],[-36.531310384,-6.82707845699999],[-36.540990967,-6.84071873399998],[-36.544346384,-6.84295867599995],[-36.54710326,-6.84053543699999],[-36.5502051459999,-6.84355117899996],[-36.5601562019999,-6.84077342299999],[-36.569795176,-6.84800829799995],[-36.5739639709999,-6.85940372700002],[-36.566793785,-6.86659190599996],[-36.566995305,-6.87070205799995],[-36.5692465669999,-6.87290680999995],[-36.567939738,-6.87479656099989],[-36.573119767,-6.87898065399995],[-36.5743417899999,-6.88553763699998],[-36.5767123599999,-6.88983955199995],[-36.579152263,-6.891648878],[-36.5899185559999,-6.90869497099997],[-36.597322177,-6.91652876099995],[-36.6036081199999,-6.93045695299997],[-36.609794162,-6.93683708399993],[-36.6114646349999,-6.93765622399992],[-36.616530907,-6.9340159239999],[-36.6374531519999,-6.93380661499999],[-36.648330643,-6.92961041899999],[-36.660810735,-6.92699622699998],[-36.6872181359999,-6.92596268999999],[-36.691096217,-6.92885661999998],[-36.6946711749999,-6.934490267],[-36.7092715199999,-6.97468859099997],[-36.712438774,-6.98001917999994],[-36.715870931,-6.98255847],[-36.7243661469999,-6.98038277300002],[-36.7441125989999,-6.96777367699998],[-36.7567632579999,-6.95298997199998],[-36.7665439159999,-6.93586763100001],[-36.765268496,-6.93116444099998],[-36.7621014449999,-6.92687279299998],[-36.757408039,-6.89936405199994],[-36.7449889229999,-6.87951397499996],[-36.730517636,-6.83543997199994],[-36.7339798629999,-6.83479255500002],[-36.7694650809999,-6.83874805299998],[-36.7727287099999,-6.78706516099997],[-36.8350296239999,-6.73107093499998],[-36.903428435,-6.75361478499999],[-36.9315220519999,-6.76857491599996],[-36.9571354679999,-6.79047819700001],[-36.9590977129999,-6.78330338300002],[-36.9526628149999,-6.77515309699995],[-36.958144386,-6.77567973299992],[-36.9692313929999,-6.77049625799995],[-36.970708213,-6.76829912399997],[-36.97333235,-6.75819948499999],[-36.971797957,-6.74064535199992],[-36.9776217619999,-6.72185520599995],[-36.989941101,-6.70915005799998],[-36.9935336729999,-6.70753744299995],[-36.99983354,-6.707712876],[-37.0352607111971,-6.73416575320551],[-37.041288115,-6.740062467],[-37.0594232289999,-6.74942503999999],[-37.12006022,-6.767291653],[-37.128935761,-6.76597698899993],[-37.1330834779999,-6.77148887899991],[-37.1370037299999,-6.78052492599998],[-37.1436920749999,-6.78325308899994],[-37.153707738,-6.79978921399991],[-37.1663321289999,-6.80707327899996],[-37.1728104049999,-6.81526059299998],[-37.182896437,-6.81831254399997],[-37.190671875,-6.82536568499993],[-37.2232378379999,-6.82538957499997],[-37.234599266,-6.82463601899995],[-37.255143909,-6.81106148899999],[-37.2563971529999,-6.80411669200001],[-37.2554170219999,-6.79846914300001],[-37.2605923399999,-6.78735940599995],[-37.257491157,-6.78394876999995],[-37.2573267689999,-6.78039585799996],[-37.2650726209999,-6.77328527799995],[-37.272310504,-6.76943852300001],[-37.2739492849999,-6.76679037400001],[-37.269362953,-6.76198548099999],[-37.2669878869999,-6.75261842999989],[-37.267976021,-6.74396032799992],[-37.264217494,-6.73800191899994],[-37.263920754163,-6.73217058991287],[-37.279917809,-6.72423385199995],[-37.285635589,-6.71632807799999],[-37.290167258,-6.71304391599992],[-37.283715994,-6.69391482699992],[-37.3142989239999,-6.68897442999998],[-37.331982531,-6.69813709099995],[-37.3427128989999,-6.70124683699995],[-37.3956997349999,-6.70037466999999],[-37.4073341009999,-6.69719536599993],[-37.4846995419999,-6.71003737399995],[-37.4709816339999,-6.68033670099991],[-37.4752015459999,-6.67282236699999],[-37.468151048,-6.66563430399998],[-37.466190907,-6.65995952899993],[-37.477215905,-6.64191126299991],[-37.474532891,-6.61791372999997],[-37.476000272,-6.60811390399993],[-37.480384083,-6.60521782399995],[-37.4801186319999,-6.59415133999992],[-37.478608959,-6.57822501299995],[-37.4748149919999,-6.56445086799989],[-37.4819075259999,-6.55724497699993],[-37.482357458,-6.547710422],[-37.4736669269999,-6.53759560899993],[-37.464724524,-6.53266368599999],[-37.4211871769999,-6.53329801499998],[-37.415709619,-6.53188010899989],[-37.3999866329999,-6.51948924899999],[-37.396891399,-6.51420737999995],[-37.3909523119999,-6.45284241199994],[-37.388001687,-6.44863364199996],[-37.3858353349999,-6.44152720699996],[-37.3812467889999,-6.43709645199989],[-37.3851544279999,-6.43161536399999],[-37.3865950409999,-6.42603718599995],[-37.397520062,-6.41809927399995],[-37.3954811799999,-6.40990001899995],[-37.397161354,-6.40506272100002],[-37.3961239349999,-6.40114410799996],[-37.3888310099999,-6.39097934299994],[-37.3885489009999,-6.37973393999995],[-37.377540958,-6.36933209499995],[-37.3763169479999,-6.35577188600001],[-37.3781180499999,-6.34700642699995],[-37.3665278899999,-6.32558271199995],[-37.3633532659999,-6.32216560399994],[-37.3511056439999,-6.31436916499994],[-37.3304244069999,-6.30632760699999],[-37.328192312,-6.30320402699991],[-37.321450168,-6.28281218199998],[-37.316975565,-6.27866546099998],[-37.304200287,-6.27826248099994],[-37.286849211,-6.28226562299995],[-37.2747265229999,-6.28142612399994],[-37.2731386099999,-6.279972249],[-37.2730127799999,-6.26315232799992],[-37.2705524779999,-6.25171437599999],[-37.251527379,-6.2264582789999],[-37.234271501,-6.21327833699996],[-37.2015813369999,-6.20570355599994],[-37.1942384989999,-6.19824709900002],[-37.192943575,-6.18307988199998],[-37.1885074379999,-6.18066626499993],[-37.174221023,-6.18010361799999],[-37.165683499,-6.17037448899997],[-37.161339059,-6.15752795000002],[-37.15692297,-6.15248822999995],[-37.166380973,-6.15390880799996],[-37.170587996,-6.15027463699992],[-37.1750962019999,-6.14218269599998],[-37.174984084,-6.13826435699997],[-37.171739863,-6.13061870900003],[-37.170971744,-6.12006369899995],[-37.1667862139999,-6.10864548099996],[-37.1726518979999,-6.09882915699998],[-37.1705605109999,-6.08305517499993],[-37.175546176,-6.05293465099988],[-37.16261621,-6.02218131699999],[-37.154490954,-5.99255176499997],[-37.1479439809999,-5.99086351299999],[-37.1432854639999,-5.97920566199999],[-37.131169912,-5.96809331499999],[-37.1318906629999,-5.96336276599991],[-37.128694675,-5.95640291499994],[-37.1221628799999,-5.95487142099996],[-37.066922611,-5.98460237199992],[-37.03546779,-5.89074356499998],[-37.0265141529999,-5.88479272399993],[-37.01535705,-5.87084645600001],[-37.011732555,-5.85839872899993],[-37.0096577529999,-5.83712466099997],[-37.0062153229999,-5.83148767199997],[-36.990038488,-5.8172003899999],[-36.9774003089999,-5.81362123899998],[-36.9667969379999,-5.84098421600004],[-36.966031691,-5.84629897899994],[-36.9605113339999,-5.84988449299995],[-36.9588862899999,-5.85384828299993],[-36.9567096979999,-5.85391490999993],[-36.9545668769999,-5.85599709199991],[-36.950458367,-5.85529517499999]]]}},{"type":"Feature","properties":{"id":"240008","state":"RN","stateCode":"24"},"geometry":{"type":"Polygon","coordinates":[[[-36.2241793659999,-5.89995339799994],[-36.252893503,-5.98200703499994],[-36.281357126,-6.04404199899997],[-36.302216861,-6.11537166899997],[-36.2568488969999,-6.15801517400001],[-36.2576677149999,-6.19879088299996],[-36.2671193589999,-6.2272784799999],[-36.267023264,-6.22929625799996],[-36.25978197,-6.23959787299993],[-36.258672807,-6.24581368599998],[-36.265619365,-6.25102115099999],[-36.2690792349999,-6.25612952299998],[-36.278645592,-6.26215694699997],[-36.2818164099999,-6.27348367899994],[-36.2910948009999,-6.27700492199997],[-36.2918839969999,-6.282585968],[-36.2937724399999,-6.28348137499992],[-36.293419085,-6.28541942999997],[-36.2953965829999,-6.28583576999993],[-36.294979618,-6.29210696499995],[-36.303523881,-6.283033733],[-36.307591268,-6.28149794999993],[-36.313640001,-6.28335609199993],[-36.3294921679999,-6.29409719099996],[-36.357576744,-6.30998726299992],[-36.362604812,-6.30997880199994],[-36.394561408,-6.29397477599995],[-36.4303060469999,-6.36225501799997],[-36.432603458,-6.363098081],[-36.499848179,-6.35816500999993],[-36.5002210089999,-6.37038948099995],[-36.5036399879999,-6.38002910899996],[-36.50749188,-6.40011668999996],[-36.5107319049999,-6.40747802700001],[-36.5186723399999,-6.41807919699999],[-36.5289271279999,-6.44333826799995],[-36.530971554,-6.45207155699993],[-36.5295302549999,-6.46566598199997],[-36.530825267,-6.47183148399992],[-36.5266512359999,-6.48446556699997],[-36.5273090499999,-6.49324290199994],[-36.5258467969999,-6.50116133699991],[-36.516474101,-6.50290733099997],[-36.500433734,-6.51350754799994],[-36.4885902689999,-6.51643278099996],[-36.482630476,-6.51953800599992],[-36.4809565519999,-6.52308275099994],[-36.480745364,-6.53533183199993],[-36.475621763,-6.54493401099995],[-36.4715442899999,-6.54835157799992],[-36.449173378,-6.55391416100002],[-36.4443902849999,-6.55831960199993],[-36.4412275209999,-6.573757776],[-36.4411475419999,-6.60001862099998],[-36.436279242,-6.62822451799997],[-36.4382222999999,-6.62928349599992],[-36.4493487939999,-6.62419762699994],[-36.453993872,-6.62659709399997],[-36.458285635,-6.63397060899997],[-36.4605179749999,-6.63439362599997],[-36.466404751,-6.62844964899995],[-36.473480615,-6.61440668899996],[-36.484995553,-6.61080136699999],[-36.4937731439999,-6.60354945099993],[-36.5020231459999,-6.601483936],[-36.5056685499999,-6.59703778700001],[-36.5116574539999,-6.59441337199994],[-36.5187685459999,-6.59568682499994],[-36.524542718,-6.59965354599998],[-36.520742706,-6.61060104800001],[-36.5324546189999,-6.60705992599995],[-36.550025295,-6.608023524],[-36.5521003659999,-6.60508560999992],[-36.555354682,-6.60439450999993],[-36.557210832,-6.600248547],[-36.5623083799999,-6.59784659799995],[-36.5665427119999,-6.59996128999996],[-36.569649135,-6.59872697399996],[-36.569836169,-6.59740367499998],[-36.5754923299999,-6.597927491],[-36.587507299,-6.58479866199994],[-36.6121353529999,-6.58508786099997],[-36.6240271579999,-6.59217297299993],[-36.626706488,-6.59279780799992],[-36.631140095,-6.590828943],[-36.636405751,-6.59240167900001],[-36.647226362,-6.58502455799988],[-36.65156393,-6.58580819199997],[-36.679747983,-6.57934915599997],[-36.678976189,-6.55133882699991],[-36.6950618079999,-6.55789296299997],[-36.703515803,-6.53819933999998],[-36.704789873,-6.53934142399995],[-36.708717982,-6.53558752799997],[-36.712408364,-6.53688696199991],[-36.7241747909999,-6.528107065],[-36.736736219,-6.52502937299999],[-36.740647861,-6.52167208799994],[-36.742869237,-6.5167295429999],[-36.747423433,-6.51821444300001],[-36.7491573249999,-6.51341763299997],[-36.7503936929999,-6.51303988399998],[-36.7516811139999,-6.51596764299993],[-36.7536874679999,-6.51327223399992],[-36.757765658,-6.51283322800001],[-36.7611107559999,-6.51567075799997],[-36.7657248209999,-6.50878742199993],[-36.7683134469999,-6.50052593799992],[-36.774315626,-6.47296243399996],[-36.7612285989999,-6.47854635499995],[-36.7535070539999,-6.44825356499996],[-36.742258352,-6.39293763999998],[-36.7417530039999,-6.37762343099993],[-36.752430049,-6.35389492199995],[-36.748585264,-6.35032317699992],[-36.748428652,-6.34156825499993],[-36.739151214,-6.33642313400001],[-36.772873555,-6.29838741600001],[-36.816216851,-6.30367058299988],[-36.8168355609999,-6.29640522899997],[-36.818926892,-6.29667636999992],[-36.819852839,-6.29419148399993],[-36.822409813,-6.2925659269999],[-36.821242668,-6.29007399799995],[-36.8221640269999,-6.28889834599994],[-36.8253679659999,-6.28923644399994],[-36.827872423,-6.28466625699999],[-36.8299659289999,-6.28414920099993],[-36.8326917489999,-6.286355009],[-36.834506432,-6.2857139879999],[-36.835723422,-6.27899070499998],[-36.8384366609999,-6.27556472199992],[-36.8368125349999,-6.27106294399994],[-36.839824819,-6.26841703799996],[-36.84354439,-6.26648781099995],[-36.8458500979999,-6.26764094099996],[-36.847373553,-6.26457837699996],[-36.848626339,-6.26467042499993],[-36.850268889,-6.26941113799996],[-36.851716106,-6.26939496799995],[-36.85411099,-6.26434749799995],[-36.860049121,-6.26387497499993],[-36.8625112519999,-6.25824375999993],[-36.86535723,-6.25924912399999],[-36.8684943469999,-6.25764068699997],[-36.8698961169999,-6.25237191499993],[-36.871778512,-6.25132014299996],[-36.875356302,-6.25271985499995],[-36.875945998,-6.2510135499999],[-36.880091792,-6.25081451999995],[-36.888096994,-6.24600401600002],[-36.89044716,-6.241692815],[-36.895322765,-6.23940060199996],[-36.8944208959999,-6.23892726399997],[-36.9240543019999,-6.23894615300002],[-36.9228605829999,-6.22559531999999],[-36.923821561,-6.220892571],[-36.926930511,-6.21575281699998],[-36.9573171169999,-6.19076382699999],[-36.9460439909999,-6.18432789400002],[-36.939731147,-6.18430534899993],[-36.934578377,-6.18835449399994],[-36.9255087229999,-6.18210545199999],[-36.9216781069999,-6.18145906499996],[-36.9144863889999,-6.182920275],[-36.911477006,-6.18633646399994],[-36.9043162149999,-6.18480933399999],[-36.901867229,-6.18158470999999],[-36.892150753,-6.17661684899999],[-36.8941960119999,-6.14529277299992],[-36.89847244,-6.14141792599994],[-36.9018605639999,-6.13428084099997],[-36.924463784,-6.13199442699998],[-36.9340489049999,-6.08895695199994],[-36.9211643179999,-6.08204768599998],[-36.911811643,-6.08187875399995],[-36.8987267869999,-6.0857738629999],[-36.885310387,-6.07113602199997],[-36.8750903389999,-6.06331732299999],[-36.869744246,-6.06095801199993],[-36.87141531,-6.05363564399998],[-36.867787549,-6.04848058199995],[-36.849110197,-6.04140844099993],[-36.8437601939999,-6.04045440799995],[-36.8349081069999,-6.04150853699995],[-36.83610807,-6.05239786999997],[-36.829502205,-6.054238148],[-36.8125086069999,-6.05323560700001],[-36.801324337,-6.05010137899995],[-36.7933636369999,-6.04011401299994],[-36.788047983,-6.03938503999994],[-36.783666463,-6.043609906],[-36.782126357,-6.05007661099994],[-36.775949332,-6.0618090789999],[-36.7482959119999,-6.06338512699992],[-36.7392852559999,-6.05994810099994],[-36.739746022,-6.06165600699994],[-36.736201826,-6.06253158499991],[-36.735345066,-6.05913177499998],[-36.730864109,-6.05659796399994],[-36.7198815109999,-6.07194787799991],[-36.722277869,-6.077742379],[-36.7272684069999,-6.08391244299998],[-36.726654204,-6.08958563299999],[-36.714907361,-6.09982397099996],[-36.6954557449999,-6.10541517999993],[-36.6873172379999,-6.100605795],[-36.684559317,-6.09590929499998],[-36.678399292,-6.09870458199989],[-36.6661042709999,-6.09107237299998],[-36.657399193,-6.10038763099998],[-36.6532703359999,-6.111835022],[-36.638715388,-6.0890082],[-36.547439141,-6.05627461499993],[-36.540382762,-5.98974146199996],[-36.4750083339999,-5.92657309899996],[-36.435473111,-5.91088677899997],[-36.429540328,-5.90430525099996],[-36.4267775269999,-5.90466088699998],[-36.41482371,-5.85842888399994],[-36.401134206,-5.8596178949999],[-36.3877104019999,-5.851910406],[-36.383549337,-5.85414270099996],[-36.382653439,-5.85944339699996],[-36.377754148,-5.86678026899993],[-36.368214657,-5.87465865299995],[-36.3649628069999,-5.87522246199998],[-36.362182278,-5.87323454199998],[-36.351119782,-5.87062911399998],[-36.3319380819999,-5.87285475399991],[-36.329969094,-5.87700289899996],[-36.3340462699999,-5.88979995899997],[-36.332341185,-5.89409852800003],[-36.3206708469999,-5.86557353099992],[-36.2847520299999,-5.8592914889999],[-36.2760911079999,-5.84554648299994],[-36.2694640709999,-5.84322082799999],[-36.2636200429999,-5.83321902799996],[-36.256210753,-5.83036255799997],[-36.253963578,-5.83104358299991],[-36.2529630169999,-5.83412190299996],[-36.2598971629999,-5.85540390899994],[-36.257956244,-5.86484011099998],[-36.2241793659999,-5.89995339799994]],[[-36.428267849,-6.08812914933324],[-36.4281922379999,-6.08790496899993],[-36.4282705998207,-6.08812106793894],[-36.428267849,-6.08812914933324]]]}},{"type":"Feature","properties":{"id":"240006","state":"RN","stateCode":"24"},"geometry":{"type":"Polygon","coordinates":[[[-35.9396394319999,-5.7330119269999],[-35.7770999429999,-5.71638597299995],[-35.656277578,-5.7179828769999],[-35.6354406079999,-5.80354095399999],[-35.594525871,-5.86748505599992],[-35.529010211,-5.88180856299987],[-35.5722266919999,-5.93230810199997],[-35.6501928949999,-5.97643517899997],[-35.647482757,-6.01603792199997],[-35.5707786409999,-6.0795446669999],[-35.5735817849999,-6.08038680199992],[-35.588872372,-6.09679872999987],[-35.6025690739999,-6.09188465899991],[-35.6105069849999,-6.09538261699987],[-35.612507802,-6.0977050969999],[-35.613256502,-6.10331431899987],[-35.6167469389999,-6.10073980499981],[-35.6352877279999,-6.10714593299991],[-35.6420468119999,-6.10790603599992],[-35.6467845009999,-6.10656720399987],[-35.6691409649999,-6.08977616999988],[-35.6708959319999,-6.08831854099992],[-35.6736789639999,-6.07990842499988],[-35.681767554,-6.07531613999983],[-35.6939703909999,-6.07116064799994],[-35.7007978309999,-6.0717154109999],[-35.7106437479999,-6.07671240999993],[-35.7214537139999,-6.07459925699995],[-35.7471223749999,-6.0649998749999],[-35.7459562589999,-6.0622219299999],[-35.753360482,-6.06100204099988],[-35.768390085,-6.04852619699983],[-35.783337635,-6.04077898799996],[-35.799077566,-6.04308483599989],[-35.8221694629999,-6.07339436199993],[-35.9248041279999,-6.01063251499988],[-36.0318319959999,-6.06938944799993],[-36.0451567459999,-6.08002681799998],[-36.0497185629999,-6.08535655399987],[-36.0625697849999,-6.09023946499997],[-36.0718720149999,-6.10043237699989],[-36.0803515319999,-6.10201292499994],[-36.086071412,-6.09668644400001],[-36.0902644629999,-6.09930165899993],[-36.107064392,-6.09861238399994],[-36.114080224,-6.10408456099993],[-36.11638055,-6.10443101899989],[-36.117691575,-6.10288910399988],[-36.117152448,-6.0917213489999],[-36.1210711939999,-6.08885089799993],[-36.128644196,-6.09024488699986],[-36.134927474,-6.09502509600003],[-36.144560101,-6.09794030099983],[-36.1528647989999,-6.10572888799993],[-36.1629062129999,-6.10647209099995],[-36.166506333,-6.11306298],[-36.1726871099999,-6.11782826299992],[-36.1737672299999,-6.1217407289999],[-36.1921771299999,-6.12918167199992],[-36.2030420909999,-6.13056975299992],[-36.208298363,-6.13290067799988],[-36.21508792,-6.13868711099991],[-36.2233805299999,-6.1404670309999],[-36.2251737899999,-6.14335155300001],[-36.2253476,-6.15141787100005],[-36.228164571,-6.15626394199989],[-36.2261988179999,-6.16412419199998],[-36.2339509089999,-6.16480257399997],[-36.2568488969999,-6.15801517399997],[-36.302216861,-6.1153716689999],[-36.2813571259999,-6.0440419989999],[-36.2528935029999,-5.98200703499993],[-36.2241793659999,-5.89995339799994],[-36.212878748,-5.8737257659999],[-36.1968192969999,-5.88311658400001],[-36.1881549559999,-5.86255610800005],[-36.182086844,-5.85464593199989],[-36.178084843,-5.85339390699993],[-36.1679796669999,-5.8559356749999],[-36.1577275719999,-5.84966180699984],[-36.1533862709999,-5.8513252109999],[-36.1509381979999,-5.85873405899993],[-36.1418433619999,-5.85709935799993],[-36.1374129769999,-5.8639476869999],[-36.1272159609999,-5.85942288599989],[-36.11783937,-5.85905126699988],[-36.1124963479999,-5.84220051699988],[-36.1156033789999,-5.80917891299987],[-36.0918281509999,-5.74903029299993],[-36.0625348399999,-5.65528679399991],[-36.023987323,-5.6980121679999],[-35.9706321279999,-5.71430686599997],[-35.934210355,-5.71487491399989],[-35.9415991499999,-5.72779166100003],[-35.9396394319999,-5.7330119269999]]]}},{"type":"Feature","properties":{"id":"240005","state":"RN","stateCode":"24"},"geometry":{"type":"Polygon","coordinates":[[[-36.038001033,-5.052462134],[-36.0428147652871,-5.06272848786532],[-36.0380000339999,-5.05246000499999],[-36.034614713785864,-5.051678655493135],[-35.909733185635815,-5.059411257855367],[-35.882576034,-5.06768385699999],[-35.867454564,-5.06859671799994],[-35.862241119,-5.06730560899997],[-35.828951106,-5.07491600299992],[-35.813740907846736,-5.0739174425003695],[-35.80533859229532,-5.0751985451270345],[-35.79091991482324,-5.077396963583169],[-35.840224752,-5.2345862669999],[-35.814213253,-5.46477873499993],[-35.8103923949999,-5.46571078499996],[-35.7979250129999,-5.46118461899991],[-35.7919787499999,-5.45297445499997],[-35.788970989,-5.45339851699996],[-35.7772165509999,-5.44282551699994],[-35.771161405,-5.44326867599992],[-35.7610348539999,-5.45493858299995],[-35.7564916629999,-5.45561428899989],[-35.750986954,-5.45920804999996],[-35.745060241,-5.45827892399991],[-35.7468119099999,-5.61969221499996],[-35.7538946819999,-5.62193617699998],[-35.754123636,-5.62646331900003],[-35.757091536,-5.627964918],[-35.7617433359999,-5.62577731399993],[-35.7685547529999,-5.61953362299997],[-35.7728407129999,-5.61967392199994],[-35.7728112239999,-5.62207941299995],[-35.766242889,-5.62713849299993],[-35.765559417,-5.63102986299994],[-35.761503419,-5.63565777099997],[-35.761884898,-5.63822093299994],[-35.7755107879999,-5.63502971999996],[-35.7782466909999,-5.62988578299997],[-35.782110457,-5.62754518699992],[-35.794712144,-5.626080911],[-35.8056090569999,-5.61940227299994],[-35.8258232049999,-5.61751542499996],[-35.829133207,-5.61180860799994],[-35.831229427,-5.61075669199994],[-35.8409983939999,-5.61146953399996],[-35.854458397,-5.60864069499992],[-35.8579768359999,-5.61202833699999],[-35.8638694789999,-5.61187932799993],[-35.868536586,-5.60536495699997],[-35.873452854,-5.60830622999997],[-35.869284895,-5.61539128099998],[-35.870465331,-5.62154681799994],[-35.8726677209999,-5.62463054199998],[-35.883454187,-5.63094841399995],[-35.887983208,-5.63136949099998],[-35.8983768319999,-5.62430336699992],[-35.9070578959999,-5.62693778299993],[-35.9138088439999,-5.63212508599997],[-35.921786135,-5.63375298599992],[-35.924187662,-5.63569613899994],[-35.922786418,-5.64503086699995],[-35.9242900339999,-5.64985491399994],[-35.9327822879999,-5.65342617599993],[-35.936043684,-5.66096886899998],[-35.941665222,-5.6687785099999],[-35.934210355,-5.71487491399992],[-35.9706321279999,-5.71430686599999],[-36.023987323,-5.69801216799994],[-36.0625348399999,-5.65528679399996],[-36.1431649509999,-5.59152595199996],[-36.1436943959999,-5.56693643599997],[-36.171978847,-5.54467945299998],[-36.1409006319999,-5.50023949299996],[-36.1285468539999,-5.456816633],[-36.159943333,-5.43411245999993],[-36.2232316339999,-5.43387422199994],[-36.1797284519999,-5.47753262999994],[-36.195486854,-5.51613482799994],[-36.1971999999999,-5.51541999999994],[-36.2001,-5.51670999999991],[-36.2003999999999,-5.51813999999992],[-36.196992266,-5.51982256899997],[-36.2622375619999,-5.67988356900003],[-36.2696077209999,-5.68006839299993],[-36.2794955619999,-5.67046018899996],[-36.285621995,-5.66935338499997],[-36.2884759299999,-5.66303255099992],[-36.2956335579999,-5.65976882399997],[-36.2992252189999,-5.65524973699999],[-36.306954041,-5.65026094299996],[-36.469907264,-5.59837241999996],[-36.43986854,-5.36988139299994],[-36.421276411,-5.34796224699991],[-36.4192415949999,-5.34263661899999],[-36.414506265,-5.33773756299999],[-36.4014794199999,-5.328522058],[-36.386290259,-5.32025239899993],[-36.381268525,-5.31486635199998],[-36.380341151,-5.27126784999995],[-36.3681851049999,-5.25078173199993],[-36.2758400079999,-5.28947749899991],[-36.277152564,-5.23123255299996],[-36.2783552879999,-5.22461411400002],[-36.276237614,-5.21949920099991],[-36.276306865,-5.20722000300002],[-36.286386339,-5.15693019599996],[-36.288989421,-5.15563776899996],[-36.2891060259999,-5.130195149],[-36.2879899289999,-5.12502385599996],[-36.293574263,-5.11468127099995],[-36.298378068,-5.11237724499993],[-36.3083429,-5.11107939999992],[-36.3095971929999,-5.10711861399994],[-36.3084230299999,-5.102856464],[-36.30734529915556,-5.101986149180907],[-36.24921599659029,-5.095054062811773],[-36.243697405,-5.09576306299989],[-36.2363524079999,-5.09398643899998],[-36.221233785,-5.09533847399995],[-36.2030932649999,-5.09428770599995],[-36.1855943459999,-5.09580454899996],[-36.1571724139999,-5.09563815699997],[-36.137640906,-5.09337924599993],[-36.124347623,-5.09050813599995],[-36.1140871589999,-5.08584807799995],[-36.108071627,-5.08070888699998],[-36.10174867992353,-5.077468161542606],[-36.0995,-5.0772],[-36.06790024000726,-5.064101389809462],[-36.0586127789999,-5.06290065699992],[-36.038001033,-5.052462134]]]}},{"type":"Feature","properties":{"id":"240004","state":"RN","stateCode":"24"},"geometry":{"type":"Polygon","coordinates":[[[-35.811657983,-6.11855616899993],[-35.731805486,-6.14163810199995],[-35.717455534,-6.17119232499995],[-35.740645367,-6.1826752879999],[-35.741011325,-6.18441410799997],[-35.7464640809999,-6.18534956099992],[-35.750235722,-6.18981481799997],[-35.7562001919999,-6.19019088899993],[-35.756580183,-6.19482012999997],[-35.7595823409999,-6.19775833199998],[-35.760759035,-6.20128368099999],[-35.7633663789999,-6.20156638000001],[-35.7654385749999,-6.197441915],[-35.7680391589999,-6.1965390419999],[-35.769207398,-6.20101781700002],[-35.766379077,-6.210412538],[-35.7700663629999,-6.21464933199999],[-35.772037431,-6.22112386699995],[-35.7775739999999,-6.22324229399989],[-35.783601779,-6.22317069499994],[-35.7905191,-6.22980577099994],[-35.7908568709999,-6.23410374500001],[-35.787439275,-6.23742006799996],[-35.785935137,-6.24368958299991],[-35.782718258,-6.24778241099999],[-35.7842795909999,-6.25203622399996],[-35.7858637269999,-6.25276993599993],[-35.7865556169999,-6.25665657999997],[-35.7848279409999,-6.25851807099998],[-35.7860725009999,-6.26269866799996],[-35.7844738219999,-6.26607972800002],[-35.793605473,-6.27558972099994],[-35.7994828879999,-6.27773656599993],[-35.793317396,-6.28454272399998],[-35.7964104979999,-6.29363123299996],[-35.7959279209999,-6.30015266099996],[-35.8014407809999,-6.31063168099996],[-35.804069816,-6.3189697629999],[-35.8204582069999,-6.33385971999992],[-35.8277760319999,-6.33861657499996],[-35.8264748489999,-6.3422345069999],[-35.830158776,-6.34372162700002],[-35.833233722,-6.34936352999993],[-35.8416051899999,-6.357561228],[-35.849914933,-6.36224730699993],[-35.85724569,-6.36068528299993],[-35.870545851,-6.36278219499997],[-35.8684690069999,-6.38417311999998],[-35.8602919149999,-6.37996868200001],[-35.850332948,-6.38002329999991],[-35.847578668,-6.37749369499995],[-35.8448052779999,-6.37792721099993],[-35.8431886129999,-6.37669577],[-35.8477256589999,-6.39385228499996],[-35.8474297689999,-6.39948546299995],[-35.8447895969999,-6.40270676200003],[-35.8545738239999,-6.43451779499997],[-35.847266049,-6.43912517899998],[-35.849956035,-6.44070637799998],[-35.848103528,-6.45165778199989],[-35.838695314,-6.45258293099996],[-35.77992606,-6.48327587599993],[-35.944183731,-6.4930061919999],[-35.950154226,-6.49234846400003],[-35.957769573,-6.48924917199998],[-35.965241534,-6.48435958799999],[-35.9746742689999,-6.48881706999994],[-35.97764729,-6.48890578899991],[-35.987221476,-6.48522245099998],[-35.9919775819999,-6.48543266099997],[-36.005348381,-6.48105330699999],[-36.0073559179999,-6.47452186899995],[-36.012912935,-6.47279032799993],[-36.0083372619999,-6.46511963599997],[-36.0132848729999,-6.45504094399994],[-36.0168212689999,-6.45202538199993],[-36.0367108599999,-6.44426515499992],[-36.0512485419999,-6.43220296399994],[-36.0556818869999,-6.42620090499998],[-36.0617380029999,-6.41024554699993],[-36.067225327,-6.4150876049999],[-36.0737626649999,-6.41487171999999],[-36.0727075559999,-6.41042237400001],[-36.077720625,-6.40509063299991],[-36.0800135279999,-6.40518941800001],[-36.0806298169999,-6.408016776],[-36.084617044,-6.41142242399996],[-36.086744449,-6.41583615699993],[-36.0993785869999,-6.42202768600001],[-36.1031143359999,-6.42154733599998],[-36.1101889999999,-6.42918065599996],[-36.1274132319999,-6.42520513700001],[-36.131812279,-6.42815583200001],[-36.136953968,-6.42570852300002],[-36.141175104,-6.42666905899999],[-36.1437507149999,-6.42532462499997],[-36.171755579,-6.43059766599989],[-36.180345371,-6.43035766099993],[-36.1885158529999,-6.43232144599996],[-36.1948482399999,-6.43093140799996],[-36.249772072,-6.43735991299995],[-36.2511628689999,-6.40442347999997],[-36.259007265,-6.40477905399997],[-36.2615923649999,-6.40231228299999],[-36.2690945839999,-6.40188769199993],[-36.2770910529999,-6.39837422399992],[-36.2952214099999,-6.39456050799996],[-36.295431315,-6.39012410299996],[-36.2988575749999,-6.38460643299996],[-36.2988131289999,-6.37654057499997],[-36.29283924,-6.36481342099999],[-36.281552422,-6.35460443899996],[-36.2784774149999,-6.34935709599992],[-36.2767474529999,-6.34043046799994],[-36.2798727009999,-6.30886151999997],[-36.294979632,-6.29210676599993],[-36.2953965829999,-6.28583576999993],[-36.293419085,-6.28541942999997],[-36.2937724399999,-6.28348137499992],[-36.2918839969999,-6.282585968],[-36.2910948009999,-6.27700492199997],[-36.2818164099999,-6.27348367899994],[-36.278645592,-6.26215694699997],[-36.2690792349999,-6.25612952299998],[-36.265619365,-6.25102115099999],[-36.258672807,-6.24581368599998],[-36.25978197,-6.23959787299993],[-36.267023264,-6.22929625799996],[-36.2671193589999,-6.2272784799999],[-36.2576677149999,-6.19879088299996],[-36.2568488969999,-6.15801517400001],[-36.2339509089999,-6.16480257400001],[-36.2261988179999,-6.164124192],[-36.228164571,-6.15626394199996],[-36.2253476,-6.15141787100001],[-36.22517379,-6.14335155299998],[-36.2233805299999,-6.14046703099997],[-36.21508792,-6.13868711099996],[-36.208298363,-6.13290067799991],[-36.2030420909999,-6.13056975299998],[-36.19217713,-6.12918167199996],[-36.17376723,-6.12174072899998],[-36.17268711,-6.117828263],[-36.166506333,-6.11306297999998],[-36.1629062129999,-6.10647209099998],[-36.1528647989999,-6.10572888799996],[-36.144560101,-6.0979403009999],[-36.134927474,-6.09502509600003],[-36.128644196,-6.09024488699992],[-36.121071194,-6.08885089799994],[-36.117152448,-6.09172134899994],[-36.117691575,-6.10288910399991],[-36.11638055,-6.10443101899995],[-36.114080224,-6.10408456099998],[-36.107064392,-6.098612384],[-36.090264463,-6.09930165899992],[-36.086071412,-6.09668644399998],[-36.0803515319999,-6.10201292499999],[-36.071872015,-6.10043237699995],[-36.0625697849999,-6.09023946499998],[-36.0497185629999,-6.08535655399993],[-36.045156746,-6.08002681800001],[-36.031831996,-6.06938944799996],[-35.9248041279999,-6.01063251499994],[-35.8221694629999,-6.07339436199997],[-35.811657983,-6.11855616899993]]]}}]}