{"type":"FeatureCollection","features":[{"type":"Feature","properties":{"id":"280005","state":"SE","stateCode":"28"},"geometry":{"type":"Polygon","coordinates":[[[-37.8249638949999,-10.5870952409999],[-37.818623543,-10.5854692769999],[-37.814546965,-10.593354669],[-37.815061155,-10.595121279],[-37.807729015,-10.6006681989999],[-37.805120124,-10.599075808],[-37.8047767939999,-10.5939906689999],[-37.8004727649999,-10.5914412549999],[-37.795891053,-10.5948026049999],[-37.7899641419999,-10.596112106],[-37.785287882,-10.6009470299999],[-37.7784171229999,-10.600533734],[-37.77182892,-10.603270973],[-37.767340662,-10.605838701],[-37.768431248,-10.613447713],[-37.7669066289999,-10.618245792],[-37.754853246,-10.6234326499999],[-37.750122062,-10.6210712339999],[-37.747154184,-10.6250519979999],[-37.7427313339999,-10.627444231],[-37.738807374,-10.632963425],[-37.731069642,-10.6305240089999],[-37.7284272869999,-10.6321613919999],[-37.7251424309999,-10.631982589],[-37.7212458659999,-10.6353246849999],[-37.72443578,-10.6405425799999],[-37.717084546,-10.645202219],[-37.714648391,-10.6446291579999],[-37.706584029,-10.6332723479999],[-37.704096149,-10.6348255879999],[-37.702187576,-10.6414971619999],[-37.694296096,-10.6385066479999],[-37.693653559,-10.639447391],[-37.697927831,-10.6474751549999],[-37.706805186,-10.656316516],[-37.7087673109999,-10.6632238789999],[-37.713445892,-10.665842469],[-37.7146056219999,-10.668387538],[-37.7084493959999,-10.6718706649999],[-37.7068789679999,-10.6688032979999],[-37.704973627,-10.6689655779999],[-37.702694984,-10.671903421],[-37.702849849,-10.677654853],[-37.696902909,-10.6804658349999],[-37.6946937669999,-10.683832831],[-37.6918282709999,-10.6851948],[-37.6863629819999,-10.6822356919999],[-37.683856874,-10.6845885029999],[-37.682632182,-10.68642389],[-37.6864048269999,-10.6905870469999],[-37.686097592,-10.69239979],[-37.6826367639999,-10.695598929],[-37.677508807,-10.6963162419999],[-37.67391251,-10.702626255],[-37.675916658,-10.704385531],[-37.682996029,-10.705308363],[-37.68465039,-10.7082197919999],[-37.683274116,-10.7112415539999],[-37.677791865,-10.7152982129999],[-37.6698116559999,-10.707817582],[-37.668247129,-10.7085512529999],[-37.6642199729999,-10.71686995],[-37.6620656159999,-10.7169919709999],[-37.654030361,-10.7096706159999],[-37.647121387,-10.6959091539999],[-37.6423986599999,-10.6996888629999],[-37.6469982589999,-10.70930163],[-37.6407712059999,-10.7120811209999],[-37.6366167909999,-10.7126818909999],[-37.63214599,-10.708977119],[-37.619828852,-10.7064901689999],[-37.618542601,-10.711832345],[-37.616755804,-10.71348774],[-37.630782483,-10.726068637],[-37.6324819919999,-10.7321596309999],[-37.629850401,-10.734651752],[-37.6286169799999,-10.740697768],[-37.633326752,-10.7484366879999],[-37.631725923,-10.7494039339999],[-37.626810382,-10.7474347849999],[-37.620235615,-10.7484465009999],[-37.6184964179999,-10.754685051],[-37.6142388539999,-10.7560578819999],[-37.6116110999999,-10.762032469],[-37.6087468159999,-10.764907335],[-37.6047461909999,-10.7769580359999],[-37.600670501,-10.77875477],[-37.6009332429999,-10.782277891],[-37.6040296249999,-10.7880116379999],[-37.6092289999999,-10.790165253],[-37.613761585,-10.795810535],[-37.614057917,-10.801063173],[-37.6107455279999,-10.807442989],[-37.610441212,-10.812687565],[-37.6006621419999,-10.8149446389999],[-37.5947448699999,-10.827082408],[-37.5903102299999,-10.8288884089999],[-37.585301578,-10.834060391],[-37.5730870689999,-10.8396982789999],[-37.5681244149999,-10.8385965809999],[-37.5633362059999,-10.835511095],[-37.5583384839999,-10.838628846],[-37.551125277,-10.840438226],[-37.544676447,-10.835449796],[-37.536660941,-10.8418406239999],[-37.5305903809999,-10.840246302],[-37.5253536289999,-10.8433376259999],[-37.518776337,-10.845199474],[-37.517410758,-10.844418064],[-37.516502051,-10.845755185],[-37.512440512,-10.844657384],[-37.5105496349999,-10.842583422],[-37.5095350559999,-10.835385596],[-37.499641132,-10.8342775009999],[-37.4969504279999,-10.8316237879999],[-37.49226699,-10.8307090389999],[-37.4886442099999,-10.8331759109999],[-37.489665027,-10.836076894],[-37.488509291,-10.8379449839999],[-37.4809861689999,-10.8409371929999],[-37.480524855,-10.8453168069999],[-37.4842780509999,-10.8563085669999],[-37.4834289919999,-10.858482137],[-37.4778987299999,-10.8593060329999],[-37.474559571,-10.8534300779999],[-37.471344682,-10.853024715],[-37.4644178359999,-10.859890206],[-37.462324349,-10.869225092],[-37.457595257,-10.872426136],[-37.459605246,-10.8797778529999],[-37.4565594169999,-10.882607288],[-37.465256033,-10.8932731909999],[-37.475545396,-10.894626383],[-37.4901741959999,-10.90349727],[-37.4981974679999,-10.9048355859999],[-37.5036059449999,-10.9011008399999],[-37.455642638,-10.977549827],[-37.4398285339999,-10.9820446609999],[-37.435695531,-10.9852148409999],[-37.434349046,-10.988033985],[-37.4278552609999,-10.989509678],[-37.426231171,-11.0010715349999],[-37.41705985,-11.005165027],[-37.413094635,-11.0088102099999],[-37.4090693979999,-11.019701996],[-37.405643834,-11.02400761],[-37.404725389,-11.034419465],[-37.3943475469999,-11.045746997],[-37.392766579,-11.050390163],[-37.388756431,-11.052197652],[-37.4382073319999,-11.0870033249999],[-37.4368260939999,-11.0923689089999],[-37.438596762,-11.097016101],[-37.4300615299999,-11.106796854],[-37.4330979579999,-11.1114275699999],[-37.4372757149999,-11.111444234],[-37.437364439,-11.113660922],[-37.4391384589999,-11.113976731],[-37.439073393,-11.1160469389999],[-37.435218805,-11.1161160689999],[-37.4343229099999,-11.1202106229999],[-37.437296148,-11.124175172],[-37.437288608,-11.126831441],[-37.4589770019999,-11.146329984],[-37.546948699,-11.166798124],[-37.5538441249999,-11.1594746389999],[-37.5550542109999,-11.1543389679999],[-37.5525676,-11.15394131],[-37.5485565179999,-11.1562657269999],[-37.544409403,-11.1547573409999],[-37.543770884,-11.153018963],[-37.546352001,-11.15113105],[-37.5466567599999,-11.148110411],[-37.5414219309999,-11.143672655],[-37.5534404159999,-11.141257648],[-37.5380676979999,-11.09264798],[-37.528722935,-11.053887891],[-37.531007964,-10.996222324],[-37.568513289,-11.025457502],[-37.5677743869999,-11.0309058299999],[-37.570005585,-11.034783524],[-37.565151428,-11.0400517949999],[-37.622418967,-11.0674752939999],[-37.6151351379999,-11.0702920279999],[-37.616759828,-11.072691619],[-37.6121799009999,-11.079258946],[-37.6176342899999,-11.0819153759999],[-37.61700395,-11.0842825459999],[-37.6190038709999,-11.082731552],[-37.62129695,-11.083957414],[-37.6209671989999,-11.0867749119999],[-37.623951858,-11.0886352729999],[-37.6339981099999,-11.082322588],[-37.6495456739999,-11.108879154],[-37.6464650199999,-11.117376619],[-37.646719754,-11.1261992459999],[-37.6725338389999,-11.148605051],[-37.706905535,-11.175649881],[-37.712742596,-11.1678285429999],[-37.716688866,-11.1674156889999],[-37.719196419,-11.162533507],[-37.725337472,-11.162829512],[-37.7280206269999,-11.16545402],[-37.732085496,-11.1594208149999],[-37.7331545829999,-11.155168744],[-37.737997542,-11.1509620999999],[-37.7395727899999,-11.1513946419999],[-37.741462403,-11.154929153],[-37.745503176,-11.1544299669999],[-37.751693671,-11.148744683],[-37.7608082309999,-11.1446727989999],[-37.761800106,-11.141778106],[-37.7641271149999,-11.1434993539999],[-37.7657265659999,-11.1426214599999],[-37.770234902,-11.1360761409999],[-37.778729645,-11.132568515],[-37.780192373,-11.133480383],[-37.786436339,-11.132228471],[-37.7897107569999,-11.134430293],[-37.792966055,-11.133676524],[-37.8463332229999,-11.1611100379999],[-37.8763799649999,-11.186590201],[-37.876207343,-11.191003576],[-37.87382702,-11.196327504],[-37.8696686759999,-11.2012265849999],[-37.870960929,-11.20743114],[-37.8662331129999,-11.2102591889999],[-37.868824748,-11.2151233519999],[-37.867430317,-11.215808357],[-37.8684395619999,-11.2222563089999],[-37.874985011,-11.2176790469999],[-37.8787772849999,-11.2175470279999],[-37.883765617,-11.211478213],[-37.9047925729999,-11.221955144],[-37.916643738,-11.236918267],[-37.922123126,-11.2414585229999],[-37.923932578,-11.2491497559999],[-37.9273964649999,-11.2524585379999],[-37.9824847259999,-11.348177104],[-37.9882220659999,-11.3413202419999],[-37.992501265,-11.341334668],[-37.99330089,-11.343461569],[-37.9999874069999,-11.3405552479999],[-37.998286435,-11.3358144959999],[-37.995605777,-11.335635156],[-37.9947914599999,-11.33352321],[-37.992474276,-11.3342091069999],[-37.9915215779999,-11.333187449],[-37.99065199,-11.334261301],[-37.9878678459999,-11.33157273],[-37.9985725909999,-11.3229828269999],[-37.9982640709999,-11.321507144],[-37.9955719909999,-11.322560108],[-37.993786257,-11.320814531],[-37.9927512539999,-11.3219757699999],[-37.9909018539999,-11.320880308],[-37.9923133479999,-11.3127603489999],[-37.995767004,-11.312346389],[-38.0011930399999,-11.303471375],[-38.0031046949999,-11.293149659],[-38.0107573119999,-11.29404608],[-38.011011286,-11.290980351],[-38.014894711,-11.285656032],[-38.0119533979999,-11.284404685],[-38.0053330349999,-11.286365459],[-37.9989810829999,-11.283971738],[-37.991656856,-11.277720318],[-37.9936741659999,-11.274808499],[-37.993324638,-11.272935614],[-37.9866710739999,-11.271060362],[-37.9862908959999,-11.2671428599999],[-37.990908581,-11.266214771],[-37.995966934,-11.2594888139999],[-37.9941676829999,-11.2569439639999],[-37.9872196429999,-11.2538770899999],[-37.9846001779999,-11.25133773],[-37.983969377,-11.248567543],[-37.9874441669999,-11.245918842],[-37.990089687,-11.248662757],[-37.99055837,-11.244032095],[-37.993659399,-11.2404652449999],[-37.9924612579999,-11.238414101],[-37.9866258949999,-11.237501758],[-37.9865411939999,-11.234850643],[-37.9909133189999,-11.2285886059999],[-37.9871702549999,-11.2272178769999],[-37.982769606,-11.222767754],[-37.977819872,-11.221913774],[-37.977450659,-11.214691087],[-37.9819094689999,-11.210323041],[-37.979291485,-11.205190926],[-37.9812340759999,-11.1988659089999],[-37.9755513509999,-11.1977311599999],[-37.9743778639999,-11.194250214],[-37.978359014,-11.191753623],[-37.981834775,-11.192054485],[-37.984057601,-11.193288529],[-37.984950102,-11.1960310209999],[-37.98655123,-11.1961434209999],[-37.9892566459999,-11.1936495909999],[-37.9963888239999,-11.1910789039999],[-38.000826068,-11.1950819069999],[-38.0104630529999,-11.1887202739999],[-38.01461669,-11.184207563],[-38.0224888209999,-11.1801243289999],[-38.023197525,-11.1779386379999],[-38.029383222,-11.1772981809999],[-38.0364793249999,-11.179811449],[-38.042211822,-11.1782111919999],[-38.046787972,-11.1786716299999],[-38.050722143,-11.175913242],[-38.0586776809999,-11.1747260189999],[-38.0617365229999,-11.172089004],[-38.062262595,-11.164313078],[-38.066751895,-11.160880953],[-38.067864072,-11.15212177],[-38.066327364,-11.14908832],[-38.0694600189999,-11.1468900539999],[-38.0708436779999,-11.1426823539999],[-38.06975685,-11.1384520379999],[-38.06512454,-11.1314338749999],[-38.0661375839999,-11.1287866929999],[-38.0654539639999,-11.123043101],[-38.0691335069999,-11.1190478089999],[-38.074597151,-11.1202318329999],[-38.0791136469999,-11.1186368889999],[-38.083813541,-11.1197084879999],[-38.0845238609999,-11.116728758],[-38.0891192369999,-11.115229193],[-38.088924385,-11.1063003],[-38.0939755319999,-11.10206851],[-38.092201673,-11.0983564209999],[-38.088650561,-11.099678319],[-38.0863904239999,-11.0977252989999],[-38.080258367,-11.083472185],[-38.074880697,-11.076540295],[-38.0791188279999,-11.0720052039999],[-38.0813430939999,-11.0643813839999],[-38.08448236,-11.0652058549999],[-38.0852675419999,-11.060227057],[-38.0908945309999,-11.058046566],[-38.091075702,-11.051587435],[-38.0963113349999,-11.0495176429999],[-38.100287997,-11.041465119],[-38.09802669,-11.038749903],[-38.1024982939999,-11.03449059],[-38.1020683749999,-11.029273548],[-38.1058684879999,-11.025834381],[-38.1009594339999,-11.020643938],[-38.1017263539999,-11.015053738],[-38.1068317419999,-11.0129152019999],[-38.108458398,-11.010647095],[-38.114139495,-11.0102174019999],[-38.1210775719999,-11.0073566059999],[-38.124944921,-11.0101674439999],[-38.12383326,-11.0183225929999],[-38.129347363,-11.018866271],[-38.1358804929999,-11.014338603],[-38.1410700519999,-11.006519385],[-38.1437505899999,-11.004726271],[-38.144090123,-11.002277528],[-38.149420913,-11.001496718],[-38.153051099,-10.9965659969999],[-38.1726916979999,-10.986643106],[-38.180529984,-10.974729918],[-38.180041568,-10.969457018],[-38.181941267,-10.966508065],[-38.187308055,-10.963350254],[-38.1803122199999,-10.9502631309999],[-38.1800329939999,-10.9461522629999],[-38.18170839,-10.942871549],[-38.190459147,-10.940070833],[-38.194241306,-10.941983089],[-38.1977688399999,-10.940455069],[-38.2028002369999,-10.935321186],[-38.1991512199999,-10.9273759779999],[-38.203789289,-10.924924312],[-38.203850439,-10.923289495],[-38.206046468,-10.922084084],[-38.209228427,-10.929897804],[-38.2111304,-10.931228035],[-38.2156192289999,-10.9230603249999],[-38.220846071,-10.921504481],[-38.223129689,-10.91808632],[-38.226344263,-10.916574178],[-38.228213544,-10.911887522],[-38.230117447,-10.8942422929999],[-38.2371394409999,-10.87807464],[-38.235961682,-10.863253698],[-38.2377781069999,-10.859500757],[-38.23638969,-10.856878088],[-38.2367444169999,-10.8530895169999],[-38.232045485,-10.8471241519999],[-38.2321951499999,-10.839903691],[-38.239571044,-10.8263714899999],[-38.2409675099999,-10.8257732449999],[-38.24291634,-10.8279570829999],[-38.2431723859999,-10.824152183],[-38.2450317499999,-10.8227410779999],[-38.234795946,-10.8118016419999],[-38.2376722619999,-10.8035314049999],[-38.2363495559999,-10.7962288439999],[-38.231354022,-10.790849155],[-38.218444836,-10.7825293409999],[-38.215642992,-10.76885572],[-38.210551616,-10.7625641879999],[-38.2113317309999,-10.7522815369999],[-38.2181202649999,-10.736305098],[-38.215204079,-10.724233975],[-38.2108027489999,-10.7172282619999],[-38.207475351,-10.7167642979999],[-38.194106642,-10.7086707409999],[-38.1883982249999,-10.709658891],[-38.1836816479999,-10.7061275319999],[-38.178046657,-10.705150754],[-38.174014617,-10.706888486],[-38.170364118,-10.712323897],[-38.156733409,-10.712516179],[-38.1488113669999,-10.7180344659999],[-38.145899965,-10.716997796],[-38.144137028,-10.7186942779999],[-38.1356735959999,-10.7178002479999],[-38.133952747,-10.719101573],[-38.126817921,-10.716915581],[-38.1229033299999,-10.718345443],[-38.1146297449999,-10.714449658],[-38.112930725,-10.715427226],[-38.112430474,-10.7132445829999],[-38.102736829,-10.7137223299999],[-38.097987448,-10.712294006],[-38.0888507069999,-10.714269001],[-38.082997688,-10.712477306],[-38.0780786249999,-10.7145078249999],[-38.0676264719999,-10.7156589429999],[-38.062381972,-10.7127637029999],[-38.056496262,-10.712079015],[-38.04987291,-10.707025523],[-38.047185944,-10.6987230669999],[-38.047087983,-10.693498774],[-38.021429824,-10.730928157],[-38.0168350289999,-10.731017223],[-37.9908290779999,-10.756933266],[-37.9851905789999,-10.7590766029999],[-37.813932436,-10.6910484229999],[-37.830471182,-10.5847503679999],[-37.8249638949999,-10.5870952409999]]]}},{"type":"Feature","properties":{"id":"280003","state":"SE","stateCode":"28"},"geometry":{"type":"Polygon","coordinates":[[[-36.50049168,-10.539105201],[-36.5556010609999,-10.5603839289999],[-36.6204351719999,-10.5894446329999],[-36.6431452269999,-10.60567971],[-36.6502685799999,-10.6128969069999],[-36.6736517309999,-10.6287726289999],[-36.7501040239999,-10.5949212469999],[-36.7515940069999,-10.5929676089999],[-36.7552526579999,-10.594179489],[-36.765007838,-10.5813303839999],[-36.7695973889999,-10.5791806309999],[-36.7863657759999,-10.5750331349999],[-36.7932217849999,-10.574493108],[-36.801728427,-10.5758234189999],[-36.8088896309999,-10.5746683799999],[-36.810307378,-10.573275608],[-36.8105353679999,-10.5711657609999],[-36.8076780089999,-10.56805861],[-36.8083803029999,-10.549732778],[-36.816420519,-10.541506787],[-36.8207974689999,-10.540361452],[-36.824401716,-10.536080636],[-36.8309198,-10.5323805309999],[-36.8317435879999,-10.526179037],[-36.836756987,-10.5183645339999],[-36.8363550779999,-10.51182513],[-36.8417783159999,-10.50347872],[-36.8491292859999,-10.49795489],[-36.8527103119999,-10.497402817],[-36.857147611,-10.498931244],[-36.8599398339999,-10.497237271],[-36.8592519929999,-10.495944524],[-36.8620990289999,-10.4951703859999],[-36.861918656,-10.4902026379999],[-36.8650807019999,-10.4888564229999],[-36.8679713669999,-10.485258481],[-36.867202638,-10.4769892849999],[-36.868831668,-10.472643224],[-36.868379046,-10.4667668279999],[-36.871847755,-10.460437495],[-36.870295228,-10.4548523519999],[-36.8724166429999,-10.45292092],[-36.874742104,-10.446349344],[-36.8753454209999,-10.438778049],[-36.8676524209999,-10.431256712],[-36.8606434259999,-10.4301528529999],[-36.857630232,-10.4281786189999],[-36.8573859909999,-10.419881657],[-36.859900585,-10.4181377439999],[-36.8652448839999,-10.419743094],[-36.8685072009999,-10.419160131],[-36.8768930139999,-10.4125435879999],[-36.87717269,-10.405953439],[-36.882116077,-10.4013400809999],[-36.883353536,-10.3972308699999],[-36.886709243,-10.397226523],[-36.9031559639999,-10.4033214],[-36.9052718199999,-10.417304241],[-36.9114786249999,-10.420787],[-36.917477858,-10.420260341],[-36.9249774959999,-10.4273076499999],[-36.9290521029999,-10.424928392],[-36.9327032099999,-10.4272294679999],[-36.9350113749999,-10.433644167],[-36.9330010999999,-10.437650595],[-36.9343009729999,-10.4411019759999],[-36.9334637909999,-10.4427514339999],[-36.9366623999999,-10.4514790019999],[-36.942993475,-10.444957576],[-36.9472876349999,-10.4453538599999],[-36.949845672,-10.4429965269999],[-36.955994613,-10.445156816],[-36.9618638,-10.442862959],[-36.9629020639999,-10.439010093],[-36.965084587,-10.437538526],[-36.9651748959999,-10.433003447],[-36.967289155,-10.431442367],[-36.9675415469999,-10.425037146],[-36.9737152099999,-10.4195740089999],[-36.9747350159999,-10.414909129],[-36.976933885,-10.414021337],[-36.9787891829999,-10.41081824],[-36.9785622059999,-10.408216387],[-36.9813025379999,-10.408997602],[-36.9811016929999,-10.4064838639999],[-36.983771921,-10.4033247529999],[-36.980918026,-10.400677581],[-36.981107688,-10.3993920959999],[-36.9832896859999,-10.400131723],[-36.9837358009999,-10.3991179679999],[-36.981039774,-10.398609118],[-36.9824392099999,-10.396801034],[-36.9810703009999,-10.3954040579999],[-36.983028146,-10.394258072],[-36.982813627,-10.3916906969999],[-36.984867727,-10.391935003],[-36.98388399,-10.3891062459999],[-36.9868390349999,-10.3850932879999],[-36.98511618,-10.385519565],[-36.985347456,-10.383631985],[-36.9825091259999,-10.382855687],[-36.9824205579999,-10.3788112359999],[-36.9794713099999,-10.3786647599999],[-36.980772145,-10.3765529609999],[-36.977955261,-10.3735513089999],[-36.98234553,-10.370164186],[-36.9846324749999,-10.3720078009999],[-36.9874573619999,-10.368698094],[-36.9860311179999,-10.367458986],[-36.987231873,-10.365268173],[-36.989016576,-10.366589702],[-36.990471261,-10.3659508449999],[-36.991568464,-10.361803245],[-36.993637134,-10.3616008859999],[-36.992270157,-10.3582883539999],[-36.9952578379999,-10.3590405909999],[-36.9964090499999,-10.357211705],[-36.9956833519999,-10.3550958049999],[-37.000453599,-10.3526082129999],[-37.000535369,-10.342502241],[-36.998960114,-10.33889971],[-37.000600127,-10.3363948489999],[-37.000096083,-10.328682225],[-37.003136742,-10.3298125709999],[-37.0067386979999,-10.326727843],[-37.008512779,-10.3296163739999],[-37.0116596769999,-10.328626823],[-37.013097481,-10.3317935959999],[-37.01686123,-10.332927487],[-37.026114134,-10.330627046],[-37.029047716,-10.326246488],[-37.031428678,-10.3262607099999],[-37.0331769869999,-10.3285438409999],[-37.0358623299999,-10.3290900289999],[-37.038253281,-10.327100785],[-37.0470183329999,-10.335112675],[-37.0520287759999,-10.3423042339999],[-37.054332991,-10.337083756],[-37.0594269369999,-10.3341946489999],[-37.062617921,-10.329084549],[-37.076977568,-10.339367421],[-37.0768621399999,-10.3439998669999],[-37.0788307729999,-10.3462215709999],[-37.085434092,-10.3474185869999],[-37.0862958189999,-10.354012009],[-37.090083764,-10.358278847],[-37.0961480739999,-10.357547726],[-37.0994583789999,-10.3601143739999],[-37.0976830049999,-10.362478402],[-37.099491026,-10.362324681],[-37.098880255,-10.364909866],[-37.0999494569999,-10.3667781679999],[-37.1014703219999,-10.366459724],[-37.1022880929999,-10.369553899],[-37.104942806,-10.368208722],[-37.1080416559999,-10.3692718349999],[-37.10836585,-10.3706223059999],[-37.109712597,-10.3698633739999],[-37.1118738179999,-10.373436291],[-37.113057321,-10.370845955],[-37.11910754,-10.3686825149999],[-37.1193186039999,-10.3703278779999],[-37.1221545239999,-10.371450668],[-37.1229077469999,-10.370493202],[-37.1249067889999,-10.37561728],[-37.127907542,-10.3747957199999],[-37.1260941829999,-10.372125301],[-37.128760614,-10.372109438],[-37.128651118,-10.368486875],[-37.133075161,-10.365495719],[-37.132778749,-10.3633056629999],[-37.1348070449999,-10.3634190819999],[-37.1346990189999,-10.3592336159999],[-37.1404188189999,-10.360657693],[-37.1398974109999,-10.3633044109999],[-37.142638205,-10.361602449],[-37.1444004159999,-10.3621645619999],[-37.142601134,-10.3643543629999],[-37.1451132779999,-10.364532048],[-37.143316554,-10.3663423479999],[-37.1439950689999,-10.3673390299999],[-37.147215577,-10.36655858],[-37.1462277629999,-10.362390285],[-37.152916752,-10.367758522],[-37.1546382479999,-10.367132766],[-37.152556183,-10.365402595],[-37.1537289699999,-10.364345257],[-37.156691224,-10.366398566],[-37.158788459,-10.365940226],[-37.157017572,-10.363372588],[-37.159340501,-10.3619846899999],[-37.1534528519999,-10.358688013],[-37.156010739,-10.354752583],[-37.1539025169999,-10.3536979729999],[-37.1559895489999,-10.3508751559999],[-37.1575525529999,-10.3510683409999],[-37.1574955999999,-10.3493905209999],[-37.154959535,-10.3497340099999],[-37.154552866,-10.347930923],[-37.1521786539999,-10.3467917869999],[-37.157582051,-10.3459320079999],[-37.157000105,-10.343823002],[-37.1599767009999,-10.343481554],[-37.1608272779999,-10.3412758759999],[-37.1638377289999,-10.340282731],[-37.164631754,-10.337839588],[-37.162163345,-10.33449788],[-37.164608553,-10.334307711],[-37.165468519,-10.3324117029999],[-37.1607544189999,-10.3311928379999],[-37.1594645159999,-10.328335131],[-37.1580732159999,-10.329632812],[-37.1556265249999,-10.3287491439999],[-37.1550199969999,-10.324865896],[-37.151928974,-10.3264658029999],[-37.15190862,-10.3241331319999],[-37.1492824389999,-10.322854805],[-37.150602064,-10.320444233],[-37.1485388969999,-10.3184010319999],[-37.149770315,-10.31768436],[-37.1495703139999,-10.3155755389999],[-37.150970635,-10.3129743749999],[-37.1534808469999,-10.313163467],[-37.155599964,-10.3073795509999],[-37.1529054449999,-10.304491766],[-37.1507517,-10.305743552],[-37.150040087,-10.3039270969999],[-37.1469595499999,-10.304054425],[-37.147624453,-10.299131786],[-37.150561825,-10.2950133369999],[-37.1489156389999,-10.292028728],[-37.1507865669999,-10.2888871719999],[-37.148050638,-10.289068426],[-37.143965527,-10.28308413],[-37.142046042,-10.2836327999999],[-37.139727792,-10.2809188319999],[-37.1381665769999,-10.275052175],[-37.139526536,-10.2714526219999],[-37.1388636939999,-10.2666584849999],[-37.140075956,-10.265380366],[-37.13873318,-10.2621584729999],[-37.142758968,-10.256564372],[-37.140736385,-10.24765636],[-37.14162549,-10.2456775439999],[-37.149216763,-10.241130825],[-37.151044951,-10.2359436239999],[-37.150917779,-10.229596794],[-37.1486721,-10.217108427],[-37.1437042279999,-10.211267776],[-37.1431852739999,-10.204819298],[-37.1418465149999,-10.202741158],[-37.136522037,-10.200296057],[-37.136115249,-10.19651655],[-37.137757467,-10.193443139],[-37.146237809,-10.191421456],[-37.1498420179999,-10.188277273],[-37.1542915009999,-10.187398575],[-37.152155484,-10.1653052549999],[-37.064962818,-10.1364003489999],[-37.067965364,-10.0922994799999],[-37.0620240059999,-10.0615473129999],[-37.0297839009999,-10.056937487],[-37.0069410929999,-10.037745134],[-36.956401841,-10.0236953279999],[-36.956299609,-10.034149155],[-36.959100783,-10.050530334],[-36.9544303169999,-10.0706448789999],[-36.9434590939999,-10.092844842],[-36.930574671,-10.105770907],[-36.926978842,-10.1181013239999],[-36.921562077,-10.128313649],[-36.9141719519999,-10.1362924709999],[-36.910893893,-10.137943244],[-36.876982712,-10.146124028],[-36.867373374,-10.157552187],[-36.8643016719999,-10.1589597399999],[-36.8616682149999,-10.157541272],[-36.858584957,-10.1594087799999],[-36.85440811,-10.159139482],[-36.851329645,-10.1600025889999],[-36.848607106,-10.162787497],[-36.846917441,-10.1854916129999],[-36.8356563049999,-10.2040769299999],[-36.814311886,-10.2188537779999],[-36.8084133859999,-10.2208764709999],[-36.7885810609999,-10.2246392899999],[-36.778814648,-10.2247733199999],[-36.7685400269999,-10.227918822],[-36.747250655,-10.230904041],[-36.7435554589999,-10.233147553],[-36.733789583,-10.244761027],[-36.7212510459999,-10.264615208],[-36.701486992,-10.2711621359999],[-36.690415677,-10.272722604],[-36.685105509,-10.275259473],[-36.682533763,-10.27488693],[-36.6816628729999,-10.273463318],[-36.682748373,-10.2719248279999],[-36.679371954,-10.269812275],[-36.6704392759999,-10.26835074],[-36.660749455,-10.270129754],[-36.6503659299999,-10.262552587],[-36.649008523,-10.2561684239999],[-36.644468553,-10.2525424199999],[-36.6386341819999,-10.2519145859999],[-36.625529994,-10.256278415],[-36.606429668,-10.2780650959999],[-36.591181863,-10.2873854049999],[-36.5889512539999,-10.301849298],[-36.574178995,-10.315252677],[-36.5661214069999,-10.328165407],[-36.567972426,-10.3394018239999],[-36.566076466,-10.3416756599999],[-36.5657658379999,-10.3452713139999],[-36.5684920319999,-10.362579287],[-36.5679300839999,-10.3728519279999],[-36.5617749739999,-10.3840864209999],[-36.5607621089999,-10.3933901239999],[-36.5619686429999,-10.4044164929999],[-36.565581664,-10.4118717979999],[-36.565310374,-10.4158091299999],[-36.5632280939999,-10.419504679],[-36.559344815,-10.422687679],[-36.55520885,-10.422716028],[-36.544653606,-10.4300400599999],[-36.538575555,-10.4223633789999],[-36.5281855779999,-10.4227158869999],[-36.512760537,-10.420804614],[-36.510047697,-10.4222658679999],[-36.5193077049999,-10.424703671],[-36.519646661,-10.426762122],[-36.5221330269999,-10.4287779369999],[-36.522229351,-10.433097475],[-36.51002865,-10.432815305],[-36.483853729,-10.4211728409999],[-36.4635292029999,-10.406737058],[-36.458836527,-10.4067310219999],[-36.450717968,-10.4101768379999],[-36.4436056289999,-10.4180216079999],[-36.4379284519999,-10.418429154],[-36.4304583229999,-10.4253112439999],[-36.419296904,-10.450514575],[-36.408037474,-10.471238445],[-36.4012066489999,-10.4920283339999],[-36.39598790233192,-10.496938451186166],[-36.490321862,-10.5376417729999],[-36.50049168,-10.539105201]]]}},{"type":"Feature","properties":{"id":"280002","state":"SE","stateCode":"28"},"geometry":{"type":"Polygon","coordinates":[[[-37.3566411109999,-11.443518977],[-37.3639194889999,-11.446850624],[-37.371778887,-11.452569342],[-37.390832577,-11.477233245],[-37.400855296,-11.4867419819999],[-37.4363884829999,-11.513643145],[-37.450172667,-11.5203842289999],[-37.4640124399999,-11.523564942],[-37.5042446819999,-11.5245834529999],[-37.5160872879999,-11.5358492669999],[-37.517615835,-11.5415502989999],[-37.517326999,-11.5471903949999],[-37.5198962649999,-11.548844064],[-37.5280128189999,-11.5471926719999],[-37.535691127,-11.549693973],[-37.552875408,-11.5475232579999],[-37.5573257339999,-11.5512893719999],[-37.560509924,-11.5485353029999],[-37.562357455,-11.5430574069999],[-37.5688488749999,-11.539857994],[-37.5750555219999,-11.543863337],[-37.574417436,-11.5458429569999],[-37.5719953939999,-11.5465130859999],[-37.572546686,-11.5487490799999],[-37.578855183,-11.5519894679999],[-37.585660963,-11.542332286],[-37.582806335,-11.5368250829999],[-37.5791283189999,-11.5343736439999],[-37.5814477669999,-11.531127658],[-37.58937455,-11.528142863],[-37.5921379529999,-11.5300889589999],[-37.5948696799999,-11.535167969],[-37.6024513449999,-11.5399725249999],[-37.6040222579999,-11.5402835149999],[-37.6085838829999,-11.536343587],[-37.6143860509999,-11.538886904],[-37.6197498409999,-11.536783685],[-37.6281659219999,-11.529692511],[-37.632643492,-11.5226746399999],[-37.6315310859999,-11.519918284],[-37.6323328409999,-11.518524401],[-37.6390228049999,-11.518890269],[-37.643881659,-11.5242234899999],[-37.6508620529999,-11.5171477269999],[-37.653814302,-11.529234954],[-37.6562134209999,-11.530318848],[-37.6574665869999,-11.5332277259999],[-37.661925528,-11.5314932799999],[-37.664905213,-11.5332228299999],[-37.6621822549999,-11.537605778],[-37.662527628,-11.5466879219999],[-37.672571793,-11.559438859],[-37.670976534,-11.5607385289999],[-37.671712182,-11.562048756],[-37.67028081,-11.5654387609999],[-37.6735192549999,-11.568639601],[-37.6759197059999,-11.568655737],[-37.6846940949999,-11.562003456],[-37.687905026,-11.5627508489999],[-37.6881718529999,-11.5662018809999],[-37.694045198,-11.5622026699999],[-37.697166889,-11.563262344],[-37.7004029359999,-11.5623353459999],[-37.7000998199999,-11.55921331],[-37.696468137,-11.553968788],[-37.6957998439999,-11.549417193],[-37.6965092769999,-11.545028176],[-37.6997996009999,-11.543892997],[-37.702835873,-11.5403511819999],[-37.706476684,-11.543556932],[-37.7069854769999,-11.5482638869999],[-37.712263427,-11.5526798539999],[-37.7136395559999,-11.5531037229999],[-37.718507442,-11.549831471],[-37.7243880889999,-11.550014207],[-37.727289076,-11.552955349],[-37.728671364,-11.552019985],[-37.7288856559999,-11.54785886],[-37.7307986889999,-11.546612231],[-37.7296565979999,-11.541535988],[-37.731052277,-11.5375161659999],[-37.7372047229999,-11.5360789109999],[-37.74853233,-11.5384284369999],[-37.7522664529999,-11.532850301],[-37.7542836249999,-11.5319182969999],[-37.754703927,-11.52907517],[-37.758853189,-11.525276154],[-37.7633384349999,-11.524667695],[-37.763215316,-11.528483971],[-37.770673524,-11.531443571],[-37.7727449079999,-11.530197864],[-37.7749948779999,-11.524456116],[-37.788590851,-11.5244084189999],[-37.792570807,-11.522960706],[-37.795079798,-11.518578987],[-37.797873639,-11.521780052],[-37.7994631229999,-11.521839226],[-37.801325134,-11.519964639],[-37.8123090199999,-11.5160353849999],[-37.815857128,-11.5114280179999],[-37.819556451,-11.5007772609999],[-37.817126177,-11.499355151],[-37.8131970129999,-11.501326051],[-37.8092879669999,-11.4985545509999],[-37.8089772799999,-11.496932971],[-37.816255709,-11.491994982],[-37.824871174,-11.491685063],[-37.8335441829999,-11.482464842],[-37.840116623,-11.481654393],[-37.8427292439999,-11.4750060949999],[-37.846549543,-11.4734538149999],[-37.8484179649999,-11.469907942],[-37.850904584,-11.470649074],[-37.8540930469999,-11.467997392],[-37.856891498,-11.4704117919999],[-37.8636874849999,-11.466624053],[-37.864704756,-11.4639105479999],[-37.8628836179999,-11.4567864119999],[-37.863568104,-11.453132646],[-37.8540877879999,-11.452461825],[-37.852341782,-11.449564811],[-37.852550256,-11.4463305959999],[-37.8494845559999,-11.4457952329999],[-37.848435547,-11.4431760249999],[-37.8502789529999,-11.4404568999999],[-37.856057035,-11.4392686679999],[-37.858662471,-11.4431878709999],[-37.861869642,-11.4434211],[-37.864207267,-11.4418606749999],[-37.867439815,-11.4425887199999],[-37.870111228,-11.43578784],[-37.8728202199999,-11.43486256],[-37.877389596,-11.4360084359999],[-37.881053077,-11.43340708],[-37.8801429259999,-11.430870919],[-37.873961868,-11.4281764749999],[-37.869996824,-11.4293177349999],[-37.866095264,-11.4286695019999],[-37.867917856,-11.4262531749999],[-37.87598572,-11.424219387],[-37.8792789079999,-11.426352509],[-37.8831336469999,-11.4248799179999],[-37.891260838,-11.4363369329999],[-37.893724869,-11.4337309879999],[-37.8993538729999,-11.437909259],[-37.901401181,-11.435081379],[-37.902292668,-11.4280749939999],[-37.9074016869999,-11.426717219],[-37.9039300929999,-11.4230013989999],[-37.9064789309999,-11.420175431],[-37.9049706449999,-11.413361175],[-37.9062447249999,-11.408547309],[-37.90768457,-11.408167286],[-37.9107996329999,-11.410464256],[-37.914910206,-11.4075879519999],[-37.916292926,-11.4032705719999],[-37.9229935879999,-11.404231327],[-37.9261818089999,-11.401875478],[-37.929305076,-11.401996644],[-37.9302730299999,-11.404147974],[-37.9283545969999,-11.4098957189999],[-37.9313282719999,-11.4128324279999],[-37.935271167,-11.413590073],[-37.936688097,-11.4225712559999],[-37.941150884,-11.4224493319999],[-37.9435153579999,-11.424192233],[-37.945111641,-11.422216225],[-37.9428387139999,-11.4186010779999],[-37.945917956,-11.4132848769999],[-37.9559230709999,-11.407519713],[-37.9511655349999,-11.404432305],[-37.953206607,-11.3952988079999],[-37.9603856039999,-11.3967008139999],[-37.961008588,-11.401741595],[-37.9638651939999,-11.402908266],[-37.9668816619999,-11.401680048],[-37.9671735329999,-11.3980743109999],[-37.965128214,-11.3931252229999],[-37.967897969,-11.3905186699999],[-37.974504784,-11.3912577199999],[-37.9779268659999,-11.393554867],[-37.9782186739999,-11.389976861],[-37.9813230719999,-11.3872759189999],[-37.9810792989999,-11.3853202969999],[-37.9776794269999,-11.3847299499999],[-37.9750661029999,-11.38249113],[-37.971049489,-11.3828619819999],[-37.968352958,-11.3803632249999],[-37.969746258,-11.372939494],[-37.972921791,-11.3737752979999],[-37.978764603,-11.365763865],[-37.9785150909999,-11.3602539579999],[-37.9815291339999,-11.355832806],[-37.980277859,-11.354899233],[-37.982481341,-11.352694126],[-37.9824847259999,-11.348177104],[-37.9273964649999,-11.2524585379999],[-37.923932578,-11.2491497559999],[-37.922123126,-11.2414585229999],[-37.916643738,-11.236918267],[-37.9047925729999,-11.221955144],[-37.883765617,-11.211478213],[-37.8787772849999,-11.2175470279999],[-37.874985011,-11.2176790469999],[-37.8684395619999,-11.2222563089999],[-37.867430317,-11.215808357],[-37.868824748,-11.2151233519999],[-37.8662331129999,-11.2102591889999],[-37.870960929,-11.20743114],[-37.8696686759999,-11.2012265849999],[-37.87382702,-11.196327504],[-37.876207343,-11.191003576],[-37.8763799649999,-11.186590201],[-37.8463332229999,-11.1611100379999],[-37.792966055,-11.133676524],[-37.7897107569999,-11.134430293],[-37.786436339,-11.132228471],[-37.780192373,-11.133480383],[-37.778729645,-11.132568515],[-37.770234902,-11.1360761409999],[-37.7657265659999,-11.1426214599999],[-37.7641271149999,-11.1434993539999],[-37.761800106,-11.141778106],[-37.7608082309999,-11.1446727989999],[-37.751693671,-11.148744683],[-37.745503176,-11.1544299669999],[-37.741462403,-11.154929153],[-37.7395727899999,-11.1513946419999],[-37.737997542,-11.1509620999999],[-37.7331545829999,-11.155168744],[-37.732085496,-11.1594208149999],[-37.7280206269999,-11.16545402],[-37.725337472,-11.162829512],[-37.719196419,-11.162533507],[-37.716688866,-11.1674156889999],[-37.712742596,-11.1678285429999],[-37.706905535,-11.175649881],[-37.6725338389999,-11.148605051],[-37.646719754,-11.1261992459999],[-37.6464650199999,-11.117376619],[-37.6495456739999,-11.108879154],[-37.6339981099999,-11.082322588],[-37.623951858,-11.0886352729999],[-37.6209671989999,-11.0867749119999],[-37.62129695,-11.083957414],[-37.6190038709999,-11.082731552],[-37.61700395,-11.0842825459999],[-37.6176342899999,-11.0819153759999],[-37.6121799009999,-11.079258946],[-37.616759828,-11.072691619],[-37.6151351379999,-11.0702920279999],[-37.622418967,-11.0674752939999],[-37.565151428,-11.0400517949999],[-37.570005585,-11.034783524],[-37.5677743869999,-11.0309058299999],[-37.568513289,-11.025457502],[-37.531007964,-10.996222324],[-37.528722935,-11.053887891],[-37.5380676979999,-11.09264798],[-37.5534404159999,-11.141257648],[-37.541471249,-11.1431999109999],[-37.5466567599999,-11.148110411],[-37.546352001,-11.15113105],[-37.543770884,-11.153018963],[-37.544409403,-11.1547573409999],[-37.5485565179999,-11.1562657269999],[-37.554985813,-11.153856498],[-37.5538441249999,-11.1594746389999],[-37.546948699,-11.166798124],[-37.4589770019999,-11.146329984],[-37.437288608,-11.126831441],[-37.437296148,-11.124175172],[-37.4343229099999,-11.1202106229999],[-37.435218805,-11.1161160689999],[-37.439073393,-11.1160469389999],[-37.4391384589999,-11.113976731],[-37.437364439,-11.113660922],[-37.4372757149999,-11.111444234],[-37.4330979579999,-11.1114275699999],[-37.4300615299999,-11.106796854],[-37.438596762,-11.097016101],[-37.4368260939999,-11.0923689089999],[-37.4382073319999,-11.0870033249999],[-37.3893183629999,-11.053559238],[-37.384907128,-11.0553741189999],[-37.385079631,-11.059487652],[-37.381910031,-11.061053049],[-37.382609744,-11.0627089989999],[-37.378125908,-11.0670050919999],[-37.378788412,-11.0692227899999],[-37.3744188159999,-11.0720814959999],[-37.370259804,-11.071988316],[-37.360516079,-11.085534448],[-37.3576911399999,-11.088365594],[-37.351227776,-11.0905790199999],[-37.346684692,-11.098776729],[-37.341591006,-11.1038439519999],[-37.3421444239999,-11.1064123249999],[-37.336833833,-11.115313842],[-37.336745348,-11.1183994689999],[-37.339900252,-11.1228094799999],[-37.3396541679999,-11.128747529],[-37.337766294,-11.1323557009999],[-37.3323571269999,-11.136611811],[-37.3319307959999,-11.1428305579999],[-37.3324896299999,-11.1476459079999],[-37.338074316,-11.150313453],[-37.339056846,-11.1524969449999],[-37.3394502039999,-11.161495264],[-37.337855867,-11.166791543],[-37.3410647759999,-11.1703658709999],[-37.3421871689999,-11.175539616],[-37.3459431979999,-11.1764164259999],[-37.345424267,-11.1842259549999],[-37.347271608,-11.1857653209999],[-37.3477405969999,-11.1889288679999],[-37.3462170979999,-11.190587855],[-37.348934889,-11.193373443],[-37.3496822989999,-11.197134766],[-37.348119796,-11.199704993],[-37.3452924869999,-11.20054508],[-37.34477936,-11.203811695],[-37.339218751,-11.209516164],[-37.332624262,-11.211980368],[-37.330599912,-11.214582822],[-37.331335279,-11.215488645],[-37.329905303,-11.2169687639999],[-37.3324994499999,-11.218875587],[-37.3285920439999,-11.2203573699999],[-37.327881975,-11.2224127929999],[-37.3310073049999,-11.229664496],[-37.331039271,-11.2337377879999],[-37.327859299,-11.238815045],[-37.317133918,-11.2450981379999],[-37.275112024,-11.2792106449999],[-37.2604533259999,-11.289382811],[-37.276555211,-11.3153867139999],[-37.2937982829999,-11.349291458],[-37.29850928690388,-11.361909370954546],[-37.3411,-11.4423],[-37.3476727179999,-11.441825309],[-37.3566411109999,-11.443518977]]]}},{"type":"Feature","properties":{"id":"280006","state":"SE","stateCode":"28"},"geometry":{"type":"Polygon","coordinates":[[[-37.9893301749999,-9.5273587],[-37.9852926649999,-9.52722883099993],[-37.977797149,-9.53145429199996],[-37.9562951519999,-9.5340827229999],[-37.948187186,-9.53881913799995],[-37.935399005,-9.54191240399998],[-37.926700887,-9.54641046899992],[-37.9171436419999,-9.548954206],[-37.9100351749999,-9.54715001399993],[-37.895920275,-9.54006489299998],[-37.89246553,-9.53979682499992],[-37.8861698709999,-9.55016684299996],[-37.868454348,-9.56173090799994],[-37.863795609,-9.56655242299999],[-37.8438609469999,-9.57806834799989],[-37.8375369419999,-9.58328263999994],[-37.833110618,-9.59488640599992],[-37.823775136,-9.591296574],[-37.8182482979999,-9.59289389299991],[-37.816442603,-9.59772390999996],[-37.811316038,-9.601713499],[-37.80976386,-9.60702246999999],[-37.807067963,-9.61010473200002],[-37.793100167,-9.62060793999996],[-37.790527055,-9.62515940799997],[-37.788363518,-9.63447275599997],[-37.785232716,-9.63857540299996],[-37.7819142069999,-9.63960269399997],[-37.7786766389999,-9.63871920799997],[-37.7602619119999,-9.62933340699991],[-37.747277682,-9.62572145499995],[-37.7370501579999,-9.62698984799991],[-37.7254476489999,-9.63039843299993],[-37.7117682589999,-9.63129919899994],[-37.7060910669999,-9.63393360199995],[-37.6933630649999,-9.64209587199993],[-37.684144689,-9.64562940299992],[-37.6708517149999,-9.65664254899997],[-37.655604088,-9.68588488699991],[-37.6391848219999,-9.69470508399997],[-37.6347641409999,-9.69955138299994],[-37.621643192,-9.70876693199994],[-37.5943164189999,-9.72324535899999],[-37.5781889619999,-9.73641255799992],[-37.5662693349999,-9.73967312899998],[-37.5290411349999,-9.74379224899999],[-37.519248573,-9.74603618599995],[-37.469693142,-9.74755185000001],[-37.46638436,-9.7487440589999],[-37.4668576569999,-9.7495245559999],[-37.4344935409999,-9.75698594099988],[-37.417758345,-9.76295667399999],[-37.3953661579999,-9.77868312799993],[-37.354622911,-9.78908038799991],[-37.3415521459999,-9.79908820500002],[-37.321122201,-9.82046177300001],[-37.3087491689999,-9.82546131299996],[-37.28542132,-9.83096299799998],[-37.2642011909999,-9.85043471999994],[-37.2569380309999,-9.86026877699994],[-37.2489206729999,-9.88221383499997],[-37.239883453,-9.89313492399997],[-37.235542551,-9.89603772799997],[-37.226592315,-9.89947622599991],[-37.1798629209999,-9.89803271099992],[-37.15296599,-9.90085286199993],[-37.1425391669999,-9.90625414499991],[-37.121992774,-9.92192280599996],[-37.067923736,-9.97359399299993],[-37.049686969,-9.9866135309999],[-37.04421172,-9.98869285199989],[-37.0378592989999,-9.98908315199994],[-37.0133419339999,-9.97868094199992],[-37.000345926,-9.97527331099997],[-36.9948813939999,-9.97537238999998],[-36.9726246279999,-9.98789483799994],[-36.963958361,-9.99747769799998],[-36.9575132919999,-10.01552579],[-36.956401841,-10.0236953279999],[-37.0069410929999,-10.037745134],[-37.0297839009999,-10.056937487],[-37.0620240059999,-10.0615473129999],[-37.067965364,-10.0922994799999],[-37.064962818,-10.1364003489999],[-37.152155484,-10.1653052549999],[-37.1542915009999,-10.187398575],[-37.1498420179999,-10.188277273],[-37.146237809,-10.191421456],[-37.137757467,-10.193443139],[-37.136115249,-10.19651655],[-37.136522037,-10.200296057],[-37.1418465149999,-10.202741158],[-37.1431852739999,-10.204819298],[-37.1437042279999,-10.211267776],[-37.1486721,-10.217108427],[-37.150917779,-10.229596794],[-37.151044951,-10.2359436239999],[-37.149216763,-10.241130825],[-37.14162549,-10.2456775439999],[-37.140736385,-10.24765636],[-37.142758968,-10.256564372],[-37.13873318,-10.2621584729999],[-37.140075956,-10.265380366],[-37.1388636939999,-10.2666584849999],[-37.139526536,-10.2714526219999],[-37.1381665769999,-10.275052175],[-37.139727792,-10.2809188319999],[-37.142046042,-10.2836327999999],[-37.143965527,-10.28308413],[-37.148050638,-10.289068426],[-37.1507865669999,-10.2888871719999],[-37.1489156389999,-10.292028728],[-37.150561825,-10.2950133369999],[-37.147624453,-10.299131786],[-37.1469595499999,-10.304054425],[-37.150040087,-10.3039270969999],[-37.1507517,-10.305743552],[-37.1529054449999,-10.304491766],[-37.155599964,-10.3073795509999],[-37.1534808469999,-10.313163467],[-37.150970635,-10.3129743749999],[-37.1495703139999,-10.3155755389999],[-37.149770315,-10.31768436],[-37.1485388969999,-10.3184010319999],[-37.150602064,-10.320444233],[-37.1492824389999,-10.322854805],[-37.15190862,-10.3241331319999],[-37.151928974,-10.3264658029999],[-37.1550199969999,-10.324865896],[-37.1556265249999,-10.3287491439999],[-37.1580732159999,-10.329632812],[-37.1594645159999,-10.328335131],[-37.1607544189999,-10.3311928379999],[-37.165468519,-10.3324117029999],[-37.164608553,-10.334307711],[-37.162163345,-10.33449788],[-37.164631754,-10.337839588],[-37.1638377289999,-10.340282731],[-37.1659335759999,-10.3424807579999],[-37.168525674,-10.3422476259999],[-37.1697225289999,-10.339994908],[-37.170862485,-10.341483858],[-37.173308197,-10.3399001439999],[-37.173535843,-10.338865503],[-37.171519576,-10.33820144],[-37.17476484,-10.3347046469999],[-37.1719274989999,-10.335310515],[-37.1718411469999,-10.332645903],[-37.1688397299999,-10.3337439679999],[-37.169715175,-10.331046786],[-37.168523675,-10.3289454289999],[-37.166549038,-10.328924695],[-37.168917074,-10.3249808579999],[-37.17265756,-10.3246764029999],[-37.1690941569999,-10.3212252549999],[-37.1705295179999,-10.3200721009999],[-37.1702264529999,-10.3165348439999],[-37.1719700859999,-10.3161303379999],[-37.17315924,-10.313140324],[-37.1722523979999,-10.3117665789999],[-37.1749543839999,-10.3096158439999],[-37.176285031,-10.311281845],[-37.1812799309999,-10.309950237],[-37.182028047,-10.30654442],[-37.18592654,-10.3019126779999],[-37.1875070419999,-10.3028543499999],[-37.1896896209999,-10.301589626],[-37.192175393,-10.3041543539999],[-37.194051479,-10.302038424],[-37.197613362,-10.30171653],[-37.2001189759999,-10.2970034539999],[-37.205153346,-10.297020694],[-37.2051299509999,-10.299415157],[-37.2071566179999,-10.299903741],[-37.206877933,-10.2983057819999],[-37.2099109329999,-10.2963619309999],[-37.210970554,-10.300442312],[-37.216234667,-10.301362485],[-37.220240566,-10.2975995209999],[-37.222992661,-10.2986846639999],[-37.2250973909999,-10.2974520839999],[-37.228796308,-10.2929409349999],[-37.228665788,-10.2898407359999],[-37.2315241159999,-10.283749389],[-37.2344708909999,-10.283807228],[-37.236846031,-10.279994577],[-37.236018111,-10.274358553],[-37.238538819,-10.2726621849999],[-37.242624123,-10.2627829469999],[-37.2498414989999,-10.2571396829999],[-37.253103482,-10.2506152679999],[-37.259509759,-10.2443530539999],[-37.2614794849999,-10.2376590769999],[-37.269279848,-10.2402460539999],[-37.293018584,-10.2557444869999],[-37.2873605029999,-10.255629141],[-37.280423405,-10.2591098469999],[-37.280871738,-10.260541021],[-37.270154033,-10.2624095879999],[-37.2631522769999,-10.2676514919999],[-37.25822899,-10.2681593009999],[-37.2561730009999,-10.2801181849999],[-37.2498329629999,-10.2811584149999],[-37.247928375,-10.283814522],[-37.241656209,-10.287325107],[-37.242689588,-10.293550366],[-37.2396512969999,-10.2979870549999],[-37.243721046,-10.297687201],[-37.244830157,-10.2995518069999],[-37.2506381109999,-10.3015693659999],[-37.254655665,-10.305177907],[-37.2651830829999,-10.3036033169999],[-37.274023769,-10.3064938699999],[-37.270421134,-10.314674693],[-37.279928965,-10.3117958299999],[-37.286548785,-10.3140545999999],[-37.284889232,-10.315373348],[-37.2876068279999,-10.3193401559999],[-37.2950144979999,-10.3200552739999],[-37.2974202739999,-10.3257262369999],[-37.3027454259999,-10.3282608199999],[-37.3013736059999,-10.3333885599999],[-37.3046317559999,-10.3417615629999],[-37.3086719509999,-10.344002182],[-37.308856126,-10.3477974149999],[-37.3149545119999,-10.35204024],[-37.317984905,-10.351681674],[-37.3165736439999,-10.3589890909999],[-37.317637098,-10.3606861169999],[-37.322156194,-10.3623953879999],[-37.3229080309999,-10.366140073],[-37.3261420759999,-10.366041293],[-37.3261937139999,-10.3682018109999],[-37.324672472,-10.3694736049999],[-37.3262371749999,-10.3749308349999],[-37.3274282679999,-10.373392197],[-37.3288596329999,-10.3740582729999],[-37.3316299639999,-10.378180281],[-37.3346205519999,-10.379163252],[-37.335699908,-10.3783336869999],[-37.3371442589999,-10.3793664879999],[-37.3409739109999,-10.3771802169999],[-37.3436959099999,-10.378528853],[-37.343827881,-10.38028837],[-37.3454510199999,-10.3806405709999],[-37.343783215,-10.382873817],[-37.342448847,-10.381785606],[-37.3412121929999,-10.3842281149999],[-37.3446770289999,-10.3856217169999],[-37.3489376139999,-10.384542051],[-37.349953252,-10.383017949],[-37.3507504799999,-10.3794899579999],[-37.3496167039999,-10.3716493869999],[-37.352298919,-10.369758641],[-37.356733252,-10.369699353],[-37.353972616,-10.36308295],[-37.351387299,-10.3650777499999],[-37.3488349839999,-10.363079517],[-37.345293582,-10.3628954639999],[-37.344880079,-10.3584029949999],[-37.350255137,-10.3557817709999],[-37.3493311449999,-10.353482019],[-37.351668893,-10.3496244569999],[-37.350221533,-10.3469256979999],[-37.354311558,-10.344878491],[-37.357925851,-10.346076206],[-37.359560762,-10.3449260809999],[-37.36094545,-10.3373182869999],[-37.3595723589999,-10.335862355],[-37.3568754079999,-10.336365949],[-37.3562929079999,-10.334374485],[-37.3617690829999,-10.332115651],[-37.3628792979999,-10.329235893],[-37.367278539,-10.328460839],[-37.369151928,-10.3304554599999],[-37.371687702,-10.327806193],[-37.3736555749999,-10.330404667],[-37.3746065709999,-10.328658628],[-37.373658181,-10.324263597],[-37.376935477,-10.3238788499999],[-37.3765336259999,-10.320517873],[-37.378196983,-10.3173425589999],[-37.3827662569999,-10.3157997],[-37.388296809,-10.319944883],[-37.3920308889999,-10.31713955],[-37.390246524,-10.313048244],[-37.3855088289999,-10.3090163379999],[-37.387672798,-10.305416757],[-37.387600097,-10.300807457],[-37.3855892569999,-10.2990862939999],[-37.3880627349999,-10.2964915699999],[-37.3869440579999,-10.2934795509999],[-37.389693688,-10.294314396],[-37.3911388759999,-10.2917149299999],[-37.3931781429999,-10.291871146],[-37.3956720939999,-10.28986077],[-37.3931303549999,-10.2881004869999],[-37.394695585,-10.284352783],[-37.3926913399999,-10.2835965589999],[-37.390762809,-10.274638814],[-37.3931475809999,-10.267211852],[-37.3924947279999,-10.264386376],[-37.394365157,-10.262659015],[-37.3943878,-10.26000242],[-37.40828656,-10.245739246],[-37.4051943499999,-10.257648666],[-37.4040086319999,-10.2813883159999],[-37.405720608,-10.2854611409999],[-37.4027973199999,-10.2897153129999],[-37.4034029919999,-10.292189928],[-37.4081532499999,-10.2911611409999],[-37.40753191,-10.296362851],[-37.409285143,-10.297827803],[-37.4086308549999,-10.302159911],[-37.410674953,-10.3054239869999],[-37.415190128,-10.3035861769999],[-37.4182821739999,-10.3068967819999],[-37.4203400379999,-10.307100011],[-37.4203188219999,-10.3033101629999],[-37.42437449,-10.3045616229999],[-37.427726941,-10.3024305],[-37.42933278,-10.3052286739999],[-37.428672644,-10.3079874099999],[-37.4353294589999,-10.3048595199999],[-37.435621145,-10.296562485],[-37.437716209,-10.297519781],[-37.4408816799999,-10.295478261],[-37.442285484,-10.2978368229999],[-37.443668851,-10.2948481289999],[-37.446229051,-10.2957064849999],[-37.448206227,-10.2945145309999],[-37.446772403,-10.2897631539999],[-37.447935847,-10.289153129],[-37.4515012509999,-10.2923556129999],[-37.455763478,-10.2909966039999],[-37.455480131,-10.2888618099999],[-37.4593855329999,-10.2879340259999],[-37.4619301619999,-10.2853760619999],[-37.458685585,-10.283623926],[-37.4601358699999,-10.2822640679999],[-37.459822639,-10.2798824659999],[-37.4627432939999,-10.278802625],[-37.4656803339999,-10.2835888049999],[-37.468690952,-10.282126207],[-37.470396777,-10.2854583889999],[-37.4683587229999,-10.2867329409999],[-37.4699153439999,-10.2906659549999],[-37.4727531359999,-10.2884371399999],[-37.4837233629999,-10.2953126799999],[-37.4848061209999,-10.2935265479999],[-37.4818163369999,-10.2903399669999],[-37.483986585,-10.288969107],[-37.482071607,-10.2834070609999],[-37.4859255979999,-10.286912585],[-37.4890484589999,-10.2835524079999],[-37.4981667539999,-10.295447835],[-37.499593517,-10.2927473979999],[-37.5055819429999,-10.29442527],[-37.5074667329999,-10.2908143669999],[-37.5091713479999,-10.2914521479999],[-37.5090630239999,-10.295553888],[-37.510797918,-10.2964638019999],[-37.515097625,-10.293078984],[-37.5143806359999,-10.289246501],[-37.51908315,-10.288160149],[-37.5228772179999,-10.28916207],[-37.522020127,-10.2867375539999],[-37.5251161049999,-10.284731811],[-37.5250798279999,-10.281088265],[-37.531301378,-10.2827995759999],[-37.53132635,-10.280132701],[-37.534896247,-10.2794377999999],[-37.5385468599999,-10.2758845379999],[-37.5396664109999,-10.270884796],[-37.545602745,-10.2690345039999],[-37.5416880669999,-10.2684980139999],[-37.5441604289999,-10.26507579],[-37.5432265109999,-10.2639528569999],[-37.5390696089999,-10.265000651],[-37.5411611549999,-10.261794851],[-37.539289999,-10.2587508629999],[-37.553484209,-10.258706383],[-37.5540374449999,-10.2598560239999],[-37.5509648469999,-10.2626061219999],[-37.5534089839999,-10.2667042629999],[-37.555848263,-10.2667439799999],[-37.557162373,-10.2593233219999],[-37.56170438,-10.2611624819999],[-37.5686438189999,-10.2562939179999],[-37.570411684,-10.253391112],[-37.5705001639999,-10.2513230789999],[-37.5691001709999,-10.2504037759999],[-37.569751184,-10.247411807],[-37.573181066,-10.249834563],[-37.5744554179999,-10.247843299],[-37.579270768,-10.247055496],[-37.5779336349999,-10.244152173],[-37.5811444239999,-10.2404339889999],[-37.5850497049999,-10.2431843699999],[-37.586892104,-10.242685424],[-37.5915644219999,-10.2450866169999],[-37.590812257,-10.2482681239999],[-37.5940805489999,-10.252004417],[-37.60087063,-10.247764149],[-37.6017838299999,-10.2458751229999],[-37.600304912,-10.243090942],[-37.604798526,-10.2429581239999],[-37.605388056,-10.239909509],[-37.608485085,-10.2417519389999],[-37.6105226049999,-10.248499759],[-37.6135537649999,-10.2495303919999],[-37.613466481,-10.246300836],[-37.6166518439999,-10.242779865],[-37.616686776,-10.2406443759999],[-37.622687844,-10.2441788809999],[-37.6255983039999,-10.241621993],[-37.627983815,-10.2418106719999],[-37.643152835,-10.231089158],[-37.653836543,-10.2188030049999],[-37.6687542769999,-10.2108239929999],[-37.673814645,-10.206418826],[-37.6804211469999,-10.209413653],[-37.6890118759999,-10.204037991],[-37.6917804839999,-10.204532536],[-37.692740852,-10.208098611],[-37.695449064,-10.2075992649999],[-37.696616223,-10.2041694109999],[-37.701097831,-10.201156572],[-37.700510852,-10.193147844],[-37.71090093,-10.1898826],[-37.713944893,-10.190247216],[-37.717334034,-10.1878989099999],[-37.721028895,-10.188064729],[-37.732392953,-10.1943900209999],[-37.740945708,-10.19529029],[-37.7468091139999,-10.198491787],[-37.752801763,-10.198158681],[-37.755228448,-10.20071129],[-37.7601822499999,-10.1968631409999],[-37.7676845029999,-10.1955967019999],[-37.77053003,-10.192308427],[-37.780164839,-10.187873117],[-37.7829340759999,-10.1806405049999],[-37.779199881,-10.167573487],[-37.780746364,-10.163117206],[-37.7743803769999,-10.144796166],[-37.7761204349999,-10.136953429],[-37.7794581429999,-10.130009726],[-37.7941734239999,-10.114736176],[-37.803841062,-10.099902588],[-37.8097568609999,-10.08286122],[-37.8174198,-10.066995613],[-37.8209729059999,-10.057291466],[-37.823750954,-10.041747818],[-37.823981185,-10.032482974],[-37.821963217,-10.028173001],[-37.8217899409999,-10.022356989],[-37.8248231229999,-10.010087937],[-37.8288080339999,-10.002472227],[-37.833222599,-9.99834758699999],[-37.8496008979999,-9.99311142700002],[-37.861896609,-9.98729986699992],[-37.866572593,-9.982463692],[-37.8754519419999,-9.97877293799999],[-37.881408904,-9.98072970499997],[-37.888905952,-9.97858711099996],[-37.8992705879999,-9.97833462999994],[-37.907754292,-9.97576050299995],[-37.9205325719999,-9.97446449099992],[-37.927337876,-9.96558442699996],[-37.939127169,-9.96624260999999],[-37.949546395,-9.97145725299998],[-37.960088539,-9.97027971199996],[-37.969501534,-9.96120569099997],[-37.983268223,-9.93051844599993],[-37.987334827,-9.92650332499999],[-37.9879225749999,-9.92183705399998],[-37.9961783739999,-9.91917481499997],[-37.9976556909999,-9.91671332199997],[-37.997768952,-9.91080520099997],[-37.9905483619999,-9.90042927399999],[-37.985706964,-9.88986142100002],[-37.982543509,-9.86879722599994],[-37.973970484,-9.85534486399994],[-37.9729341479999,-9.84812864799991],[-37.976189164,-9.84356711299995],[-37.976464961,-9.83880308399995],[-37.9733892739999,-9.82696660099998],[-37.9679595329999,-9.82348363999993],[-37.966671908,-9.81605238399997],[-37.9751079709999,-9.81418692199998],[-37.997734774,-9.80334947199997],[-38.006000151,-9.79413593799997],[-38.0102251819999,-9.79322650699995],[-38.0171489099999,-9.78741875199992],[-38.017080249,-9.78407433999996],[-38.0201179529999,-9.77796881399998],[-38.028203077,-9.77607823699998],[-38.029930272,-9.77153223699998],[-38.0315650759999,-9.77103590399995],[-38.0298474839999,-9.76550216799994],[-38.0336123729999,-9.7601238149999],[-38.033338143,-9.75643594499995],[-38.0379221519999,-9.74946450699999],[-38.0365114769999,-9.73986980799999],[-38.040387321,-9.73194693499993],[-38.0387557839999,-9.726705044],[-38.042072279,-9.72375864299992],[-38.043356086,-9.71223328699994],[-38.0422095309999,-9.70394555199998],[-38.043933879,-9.69802085099994],[-38.0419797779999,-9.69444859399997],[-38.0422514329999,-9.68991846699995],[-38.0399012609999,-9.68659276799994],[-38.034288035,-9.68720084099988],[-38.02920502,-9.68355300499998],[-38.0249867639999,-9.68287900399997],[-38.024286515,-9.68168704099995],[-38.026590272,-9.67987207799996],[-38.022173052,-9.66679473699999],[-38.012704591,-9.65658794299996],[-38.008792392,-9.65485474099991],[-38.007009013,-9.65172947399998],[-37.9970749209999,-9.65039366799993],[-37.993713053,-9.65647044699992],[-37.990366401,-9.65596212999996],[-37.990395854,-9.64942409299991],[-37.9878773729999,-9.64739246399996],[-37.9901121139999,-9.64166374299997],[-38.0002794249999,-9.639888582],[-38.008090436,-9.63641912199999],[-38.0094604069999,-9.6351158759999],[-38.008744981,-9.63178041899997],[-38.01591447,-9.62938642099994],[-38.018704793,-9.62355502699991],[-38.0279670239999,-9.61862400299996],[-38.035290135,-9.61264511699997],[-38.040507066,-9.60258361799998],[-38.0390802459999,-9.58347728399996],[-38.0368396009999,-9.58111948499994],[-38.0413065349999,-9.57528797799998],[-38.040274372,-9.57244843899995],[-38.031724872,-9.56806027499995],[-38.030392429,-9.5694538409999],[-38.0299997179999,-9.57447179899995],[-38.026787681,-9.57487773999995],[-38.025229533,-9.56779324399999],[-38.0189720069999,-9.56385732499993],[-38.0201690699999,-9.5610253359999],[-38.018046186,-9.55237902699994],[-38.023044585,-9.54906834400001],[-38.0218562539999,-9.54100399499999],[-38.0138883689999,-9.53496616199991],[-38.0131476329999,-9.52834921799998],[-38.004313482,-9.51841848999995],[-38.0032898979999,-9.51502990799998],[-37.9893301749999,-9.5273587]]]}},{"type":"Feature","properties":{"id":"280001","state":"SE","stateCode":"28"},"geometry":{"type":"Polygon","coordinates":[[[-37.2252579839999,-11.2437437649999],[-37.2401191779999,-11.263304343],[-37.2477868219999,-11.271154091],[-37.2604533259999,-11.289382811],[-37.275112024,-11.2792106449999],[-37.317133918,-11.2450981379999],[-37.325708149,-11.2405727609999],[-37.33047263,-11.2353964669999],[-37.3310073049999,-11.229664496],[-37.327881975,-11.2224127929999],[-37.3285920439999,-11.2203573699999],[-37.3324994499999,-11.218875587],[-37.329905303,-11.2169687639999],[-37.331335279,-11.215488645],[-37.330599912,-11.214582822],[-37.332624262,-11.211980368],[-37.339218751,-11.209516164],[-37.34477936,-11.203811695],[-37.3452924869999,-11.20054508],[-37.348119796,-11.199704993],[-37.349837545,-11.196724678],[-37.348934889,-11.193373443],[-37.3462170979999,-11.190587855],[-37.3477405969999,-11.1889288679999],[-37.347271608,-11.1857653209999],[-37.345424267,-11.1842259549999],[-37.3459431979999,-11.1764164259999],[-37.3421871689999,-11.175539616],[-37.3410647759999,-11.1703658709999],[-37.337855867,-11.166791543],[-37.3394502039999,-11.161495264],[-37.339056846,-11.1524969449999],[-37.338074316,-11.150313453],[-37.3324896299999,-11.1476459079999],[-37.3319307959999,-11.1428305579999],[-37.3323571269999,-11.136611811],[-37.337766294,-11.1323557009999],[-37.3396541679999,-11.128747529],[-37.339900252,-11.1228094799999],[-37.336745348,-11.1183994689999],[-37.336833833,-11.115313842],[-37.3421444239999,-11.1064123249999],[-37.341591006,-11.1038439519999],[-37.346684692,-11.098776729],[-37.351227776,-11.0905790199999],[-37.3576911399999,-11.088365594],[-37.360516079,-11.085534448],[-37.370259804,-11.071988316],[-37.3744188159999,-11.0720814959999],[-37.378788412,-11.0692227899999],[-37.378125908,-11.0670050919999],[-37.382609744,-11.0627089989999],[-37.381910031,-11.061053049],[-37.385079631,-11.059487652],[-37.384907128,-11.0553741189999],[-37.3888221939999,-11.054483035],[-37.388756431,-11.052197652],[-37.392766579,-11.050390163],[-37.3943475469999,-11.045746997],[-37.404725389,-11.034419465],[-37.405643834,-11.02400761],[-37.4090693979999,-11.019701996],[-37.4125607989999,-11.0095669389999],[-37.41705985,-11.005165027],[-37.426231171,-11.0010715349999],[-37.4278552609999,-10.989509678],[-37.434349046,-10.988033985],[-37.435695531,-10.9852148409999],[-37.4398285339999,-10.9820446609999],[-37.455642638,-10.977549827],[-37.5036059449999,-10.9011008399999],[-37.498723074,-10.904661772],[-37.4942326129999,-10.9047067209999],[-37.4784663869999,-10.897314556],[-37.475545396,-10.894626383],[-37.463977627,-10.8924585289999],[-37.459597447,-10.885329143],[-37.4046652919999,-10.8261374969999],[-37.4041994249999,-10.830032438],[-37.40693401,-10.8321713169999],[-37.402714337,-10.8398249219999],[-37.404847545,-10.8430236849999],[-37.39754184,-10.847909871],[-37.3877337859999,-10.851063415],[-37.3797273899999,-10.850890581],[-37.3755496249999,-10.85263515],[-37.3696652899999,-10.8518841889999],[-37.363595634,-10.847143425],[-37.356997326,-10.8475947379999],[-37.3513419939999,-10.8499204679999],[-37.3475098259999,-10.8478104589999],[-37.3414710119999,-10.848472252],[-37.33937887,-10.847268505],[-37.3371065119999,-10.8396076519999],[-37.3291010969999,-10.833435309],[-37.322745325,-10.832123988],[-37.3183707819999,-10.834542709],[-37.318358732,-10.832148092],[-37.245595721,-10.778356597],[-37.273290807,-10.752345557],[-37.270937495,-10.749843397],[-37.2725341079999,-10.7468240979999],[-37.2814811289999,-10.740598541],[-37.283820941,-10.732653894],[-37.2802147559999,-10.7262827399999],[-37.2830227119999,-10.721532049],[-37.282682434,-10.718282915],[-37.276603343,-10.711488092],[-37.272688676,-10.7149271],[-37.268249026,-10.714852765],[-37.26524923,-10.7124481159999],[-37.266423726,-10.7109578239999],[-37.265080245,-10.7072034169999],[-37.258559353,-10.7023857679999],[-37.257008552,-10.705077968],[-37.2538259199999,-10.704113147],[-37.2515372729999,-10.7052311629999],[-37.2517716889999,-10.7075155489999],[-37.2502487849999,-10.709225027],[-37.2481775729999,-10.7069796989999],[-37.2456980529999,-10.706646541],[-37.239141073,-10.7086600669999],[-37.237409323,-10.707471909],[-37.236984114,-10.7038357389999],[-37.2344688759999,-10.705171319],[-37.2308425229999,-10.702551111],[-37.2269379959999,-10.7081841879999],[-37.2261069969999,-10.705946567],[-37.2243984369999,-10.7057895949999],[-37.2245301149999,-10.703850337],[-37.2328339949999,-10.6967947109999],[-37.2292068329999,-10.6913854119999],[-37.230416033,-10.688274422],[-37.2282520759999,-10.684867739],[-37.231444355,-10.681521743],[-37.230487829,-10.675678474],[-37.2345728809999,-10.672192276],[-37.23914402,-10.665142825],[-37.2478203259999,-10.6616332669999],[-37.247567497,-10.6577147699999],[-37.24564048,-10.6551966459999],[-37.2473864089999,-10.651101864],[-37.2589979539999,-10.6500248029999],[-37.260739835,-10.648800718],[-37.262284328,-10.643639877],[-37.265236751,-10.642567324],[-37.2689909159999,-10.635633153],[-37.2757070819999,-10.6350105029999],[-37.280033998,-10.632973487],[-37.281594077,-10.620417159],[-37.283146495,-10.6180388359999],[-37.288750453,-10.614905078],[-37.2917795149999,-10.6106302249999],[-37.295460239,-10.610860739],[-37.2963995329999,-10.6010277999999],[-37.29324207,-10.5945323229999],[-37.287341781,-10.593984583],[-37.2842114429999,-10.589055639],[-37.2813429929999,-10.587292412],[-37.265732263,-10.586853547],[-37.2536629559999,-10.595769621],[-37.249062486,-10.5950521089999],[-37.263165014,-10.5773283369999],[-37.2721903199999,-10.5783942899999],[-37.275328007,-10.576358289],[-37.2847524049999,-10.574199816],[-37.2970831029999,-10.5768730779999],[-37.305268303,-10.573563107],[-37.3065184069999,-10.568883006],[-37.3111464809999,-10.566759357],[-37.3131233949999,-10.5627776479999],[-37.312951493,-10.561621229],[-37.3109961539999,-10.5615384669999],[-37.313921104,-10.558509082],[-37.311313208,-10.5491726859999],[-37.312270277,-10.547224092],[-37.3155675799999,-10.545988827],[-37.318209903,-10.5470635399999],[-37.317733302,-10.5451291439999],[-37.3257989189999,-10.532486591],[-37.346807309,-10.5068303649999],[-37.3597663649999,-10.483268983],[-37.3529252169999,-10.486628533],[-37.3515790079999,-10.490600897],[-37.349337271,-10.4915593689999],[-37.27484674,-10.465433628],[-37.275947537,-10.4631846949999],[-37.2808450889999,-10.461966844],[-37.28274356,-10.464134074],[-37.2904760589999,-10.466981377],[-37.292464927,-10.4585646739999],[-37.287735833,-10.4544450039999],[-37.2903882309999,-10.4512863909999],[-37.289947348,-10.448591026],[-37.293645672,-10.4501480389999],[-37.2947890839999,-10.44916409],[-37.2957435559999,-10.4416609529999],[-37.292227172,-10.4383398089999],[-37.2947462939999,-10.4336511439999],[-37.3028269959999,-10.4363816749999],[-37.3043436849999,-10.4302044179999],[-37.30843845,-10.425910814],[-37.3117756599999,-10.4305704039999],[-37.3194857729999,-10.4345748819999],[-37.332395774,-10.4313905069999],[-37.3343919219999,-10.426515294],[-37.3292048879999,-10.4231470769999],[-37.3253212749999,-10.423288143],[-37.3243873529999,-10.420966865],[-37.325499516,-10.4195105899999],[-37.331852835,-10.4178880449999],[-37.329502763,-10.4143012129999],[-37.3338050479999,-10.406573757],[-37.333707408,-10.4016762969999],[-37.3437525339999,-10.3995052879999],[-37.3474043969999,-10.401076291],[-37.348483668,-10.399764138],[-37.346501427,-10.3983313029999],[-37.347050149,-10.39640051],[-37.339725722,-10.3851278119999],[-37.342448847,-10.381785606],[-37.343783215,-10.382873817],[-37.345343901,-10.379937007],[-37.343827881,-10.38028837],[-37.3436959099999,-10.378528853],[-37.3409739109999,-10.3771802169999],[-37.3371442589999,-10.3793664879999],[-37.335699908,-10.3783336869999],[-37.3346205519999,-10.379163252],[-37.3316299639999,-10.378180281],[-37.3288596329999,-10.3740582729999],[-37.3274282679999,-10.373392197],[-37.3262371749999,-10.3749308349999],[-37.324672472,-10.3694736049999],[-37.3261937139999,-10.3682018109999],[-37.3261420759999,-10.366041293],[-37.3229080309999,-10.366140073],[-37.322156194,-10.3623953879999],[-37.317637098,-10.3606861169999],[-37.3165736439999,-10.3589890909999],[-37.317984905,-10.351681674],[-37.3149545119999,-10.35204024],[-37.308856126,-10.3477974149999],[-37.3086719509999,-10.344002182],[-37.3046317559999,-10.3417615629999],[-37.3013736059999,-10.3333885599999],[-37.3027454259999,-10.3282608199999],[-37.2974202739999,-10.3257262369999],[-37.2950144979999,-10.3200552739999],[-37.2876068279999,-10.3193401559999],[-37.284889232,-10.315373348],[-37.286548785,-10.3140545999999],[-37.279928965,-10.3117958299999],[-37.270421134,-10.314674693],[-37.274023769,-10.3064938699999],[-37.2651830829999,-10.3036033169999],[-37.254655665,-10.305177907],[-37.2506381109999,-10.3015693659999],[-37.244830157,-10.2995518069999],[-37.243721046,-10.297687201],[-37.2396512969999,-10.2979870549999],[-37.242689588,-10.293550366],[-37.241656209,-10.287325107],[-37.247928375,-10.283814522],[-37.2498329629999,-10.2811584149999],[-37.2561730009999,-10.2801181849999],[-37.25822899,-10.2681593009999],[-37.2631522769999,-10.2676514919999],[-37.270154033,-10.2624095879999],[-37.280871738,-10.260541021],[-37.280423405,-10.2591098469999],[-37.2873605029999,-10.255629141],[-37.293018584,-10.2557444869999],[-37.269279848,-10.2402460539999],[-37.2614794849999,-10.2376590769999],[-37.259509759,-10.2443530539999],[-37.253103482,-10.2506152679999],[-37.251145304,-10.25532355],[-37.242624123,-10.2627829469999],[-37.238538819,-10.2726621849999],[-37.236018111,-10.274358553],[-37.236846031,-10.279994577],[-37.2344708909999,-10.283807228],[-37.2315241159999,-10.283749389],[-37.228665788,-10.2898407359999],[-37.228796308,-10.2929409349999],[-37.2250973909999,-10.2974520839999],[-37.222992661,-10.2986846639999],[-37.220240566,-10.2975995209999],[-37.216234667,-10.301362485],[-37.210970554,-10.300442312],[-37.2099109329999,-10.2963619309999],[-37.206877933,-10.2983057819999],[-37.2071566179999,-10.299903741],[-37.2051299509999,-10.299415157],[-37.205153346,-10.297020694],[-37.2001189759999,-10.2970034539999],[-37.197613362,-10.30171653],[-37.194051479,-10.302038424],[-37.192175393,-10.3041543539999],[-37.1896896209999,-10.301589626],[-37.1875070419999,-10.3028543499999],[-37.18592654,-10.3019126779999],[-37.182028047,-10.30654442],[-37.1812799309999,-10.309950237],[-37.176285031,-10.311281845],[-37.1749543839999,-10.3096158439999],[-37.1722523979999,-10.3117665789999],[-37.17315924,-10.313140324],[-37.1719700859999,-10.3161303379999],[-37.1702264529999,-10.3165348439999],[-37.1705295179999,-10.3200721009999],[-37.1690941569999,-10.3212252549999],[-37.17265756,-10.3246764029999],[-37.168917074,-10.3249808579999],[-37.166549038,-10.328924695],[-37.168523675,-10.3289454289999],[-37.169715175,-10.331046786],[-37.1688397299999,-10.3337439679999],[-37.1718411469999,-10.332645903],[-37.1719274989999,-10.335310515],[-37.17476484,-10.3347046469999],[-37.171519576,-10.33820144],[-37.1737800229999,-10.3391983359999],[-37.170862485,-10.341483858],[-37.1697225289999,-10.339994908],[-37.167943516,-10.342576369],[-37.1659335759999,-10.3424807579999],[-37.164506888,-10.340368422],[-37.161955372,-10.3405453699999],[-37.1599767009999,-10.343481554],[-37.157000105,-10.343823002],[-37.157582051,-10.3459320079999],[-37.1521786539999,-10.3467917869999],[-37.154552866,-10.347930923],[-37.154959535,-10.3497340099999],[-37.157103258,-10.3486923209999],[-37.157797874,-10.350580259],[-37.1559895489999,-10.3508751559999],[-37.1539025169999,-10.3536979729999],[-37.156010739,-10.354752583],[-37.1534528519999,-10.358688013],[-37.159340501,-10.3619846899999],[-37.157017572,-10.363372588],[-37.1590997689999,-10.3654502599999],[-37.157902954,-10.3665290169999],[-37.1546984389999,-10.364391414],[-37.152644499,-10.3650769159999],[-37.154662175,-10.366847283],[-37.1540398559999,-10.3678046089999],[-37.1472835129999,-10.362313962],[-37.145801824,-10.3633183579999],[-37.147215577,-10.36655858],[-37.1439950689999,-10.3673390299999],[-37.143316554,-10.3663423479999],[-37.1451132779999,-10.364532048],[-37.142601134,-10.3643543629999],[-37.1444004159999,-10.3621645619999],[-37.142638205,-10.361602449],[-37.1398974109999,-10.3633044109999],[-37.1404188189999,-10.360657693],[-37.1346990189999,-10.3592336159999],[-37.1348070449999,-10.3634190819999],[-37.132778749,-10.3633056629999],[-37.133075161,-10.365495719],[-37.128651118,-10.368486875],[-37.128760614,-10.372109438],[-37.1260941829999,-10.372125301],[-37.127907542,-10.3747957199999],[-37.1249067889999,-10.37561728],[-37.1229077469999,-10.370493202],[-37.1221545239999,-10.371450668],[-37.1193186039999,-10.3703278779999],[-37.11910754,-10.3686825149999],[-37.113057321,-10.370845955],[-37.1118738179999,-10.373436291],[-37.109712597,-10.3698633739999],[-37.10836585,-10.3706223059999],[-37.1080416559999,-10.3692718349999],[-37.104942806,-10.368208722],[-37.1022880929999,-10.369553899],[-37.1014703219999,-10.366459724],[-37.0999494569999,-10.3667781679999],[-37.098880255,-10.364909866],[-37.099491026,-10.362324681],[-37.0976830049999,-10.362478402],[-37.0994583789999,-10.3601143739999],[-37.0961480739999,-10.357547726],[-37.090083764,-10.358278847],[-37.0862958189999,-10.354012009],[-37.085434092,-10.3474185869999],[-37.0788307729999,-10.3462215709999],[-37.0768621399999,-10.3439998669999],[-37.076977568,-10.339367421],[-37.062617921,-10.329084549],[-37.0594269369999,-10.3341946489999],[-37.054332991,-10.337083756],[-37.0520287759999,-10.3423042339999],[-37.0470183329999,-10.335112675],[-37.038253281,-10.327100785],[-37.0358623299999,-10.3290900289999],[-37.0331769869999,-10.3285438409999],[-37.031428678,-10.3262607099999],[-37.029047716,-10.326246488],[-37.026114134,-10.330627046],[-37.01686123,-10.332927487],[-37.013097481,-10.3317935959999],[-37.0116596769999,-10.328626823],[-37.008512779,-10.3296163739999],[-37.0067386979999,-10.326727843],[-37.003136742,-10.3298125709999],[-37.000096083,-10.328682225],[-37.000600127,-10.3363948489999],[-36.998960114,-10.33889971],[-37.000535369,-10.342502241],[-37.000453599,-10.3526082129999],[-36.9956833519999,-10.3550958049999],[-36.9964090499999,-10.357211705],[-36.9952578379999,-10.3590405909999],[-36.992270157,-10.3582883539999],[-36.993637134,-10.3616008859999],[-36.991568464,-10.361803245],[-36.990471261,-10.3659508449999],[-36.989016576,-10.366589702],[-36.987231873,-10.365268173],[-36.9860311179999,-10.367458986],[-36.9874573619999,-10.368698094],[-36.9846324749999,-10.3720078009999],[-36.98234553,-10.370164186],[-36.977955261,-10.3735513089999],[-36.980772145,-10.3765529609999],[-36.9794713099999,-10.3786647599999],[-36.9824205579999,-10.3788112359999],[-36.9825091259999,-10.382855687],[-36.985347456,-10.383631985],[-36.98511618,-10.385519565],[-36.9868390349999,-10.3850932879999],[-36.98388399,-10.3891062459999],[-36.984867727,-10.391935003],[-36.982813627,-10.3916906969999],[-36.983028146,-10.394258072],[-36.9810703009999,-10.3954040579999],[-36.9824392099999,-10.396801034],[-36.981039774,-10.398609118],[-36.9837358009999,-10.3991179679999],[-36.9832896859999,-10.400131723],[-36.981107688,-10.3993920959999],[-36.980918026,-10.400677581],[-36.983771921,-10.4033247529999],[-36.9811016929999,-10.4064838639999],[-36.9813025379999,-10.408997602],[-36.9785622059999,-10.408216387],[-36.9787891829999,-10.41081824],[-36.976933885,-10.414021337],[-36.9747350159999,-10.414909129],[-36.9737152099999,-10.4195740089999],[-36.9675415469999,-10.425037146],[-36.967289155,-10.431442367],[-36.9651748959999,-10.433003447],[-36.965084587,-10.437538526],[-36.9629020639999,-10.439010093],[-36.962042606,-10.4426429609999],[-36.955994613,-10.445156816],[-36.949845672,-10.4429965269999],[-36.9472876349999,-10.4453538599999],[-36.942993475,-10.444957576],[-36.9366623999999,-10.4514790019999],[-36.9334637909999,-10.4427514339999],[-36.9343009729999,-10.4411019759999],[-36.9330010999999,-10.437650595],[-36.9350113749999,-10.433644167],[-36.9327032099999,-10.4272294679999],[-36.9290521029999,-10.424928392],[-36.9249774959999,-10.4273076499999],[-36.917477858,-10.420260341],[-36.9114786249999,-10.420787],[-36.9052718199999,-10.417304241],[-36.9031559639999,-10.4033214],[-36.886709243,-10.397226523],[-36.883353536,-10.3972308699999],[-36.882116077,-10.4013400809999],[-36.87717269,-10.405953439],[-36.8768930139999,-10.4125435879999],[-36.8685072009999,-10.419160131],[-36.8652448839999,-10.419743094],[-36.859900585,-10.4181377439999],[-36.8573859909999,-10.419881657],[-36.857630232,-10.4281786189999],[-36.8606434259999,-10.4301528529999],[-36.8676524209999,-10.431256712],[-36.8753454209999,-10.438778049],[-36.874742104,-10.446349344],[-36.8724166429999,-10.45292092],[-36.870295228,-10.4548523519999],[-36.871847755,-10.460437495],[-36.868379046,-10.4667668279999],[-36.868831668,-10.472643224],[-36.867202638,-10.4769892849999],[-36.8679713669999,-10.485258481],[-36.8650807019999,-10.4888564229999],[-36.861918656,-10.4902026379999],[-36.8620990289999,-10.4951703859999],[-36.8592519929999,-10.495944524],[-36.8599398339999,-10.497237271],[-36.857147611,-10.498931244],[-36.8527103119999,-10.497402817],[-36.8491292859999,-10.49795489],[-36.8417783159999,-10.50347872],[-36.8363550779999,-10.51182513],[-36.836756987,-10.5183645339999],[-36.8317435879999,-10.526179037],[-36.8309198,-10.5323805309999],[-36.824401716,-10.536080636],[-36.8207974689999,-10.540361452],[-36.816420519,-10.541506787],[-36.8083803029999,-10.549732778],[-36.8076780089999,-10.56805861],[-36.8105353679999,-10.5711657609999],[-36.810307378,-10.573275608],[-36.8088896309999,-10.5746683799999],[-36.801728427,-10.5758234189999],[-36.7932217849999,-10.574493108],[-36.7863657759999,-10.5750331349999],[-36.7695973889999,-10.5791806309999],[-36.765007838,-10.5813303839999],[-36.7552526579999,-10.594179489],[-36.7515940069999,-10.5929676089999],[-36.7501040239999,-10.5949212469999],[-36.6736517309999,-10.6287726289999],[-36.680790309,-10.633845349],[-36.7290384419999,-10.652782759],[-36.800315519,-10.697214121],[-36.8059712619999,-10.7030092939999],[-36.8228402019999,-10.715486708],[-36.8647087049999,-10.753705355],[-36.937496724,-10.83154042],[-37.01033202,-10.9239386759999],[-37.02128426973287,-10.941700318197219],[-37.0346,-10.9573],[-37.077088034447705,-11.029696208821237],[-37.120374345,-11.093135461],[-37.1396413769999,-11.1259493599999],[-37.14628855781069,-11.14760835997268],[-37.1545,-11.1616],[-37.19174772654654,-11.206706045392211],[-37.196668317,-11.2111248129999],[-37.2252579839999,-11.2437437649999]]]}},{"type":"Feature","properties":{"id":"280004","state":"SE","stateCode":"28"},"geometry":{"type":"Polygon","coordinates":[[[-37.713944893,-10.190247216],[-37.71090093,-10.1898826],[-37.700510852,-10.193147844],[-37.701097831,-10.201156572],[-37.696616223,-10.2041694109999],[-37.695449064,-10.2075992649999],[-37.692740852,-10.208098611],[-37.6917804839999,-10.204532536],[-37.6890118759999,-10.204037991],[-37.6804211469999,-10.209413653],[-37.673814645,-10.206418826],[-37.6687542769999,-10.2108239929999],[-37.653836543,-10.2188030049999],[-37.643152835,-10.231089158],[-37.627983815,-10.2418106719999],[-37.6255983039999,-10.241621993],[-37.622687844,-10.2441788809999],[-37.616686776,-10.2406443759999],[-37.6166518439999,-10.242779865],[-37.613466481,-10.246300836],[-37.6135537649999,-10.2495303919999],[-37.6105226049999,-10.248499759],[-37.608485085,-10.2417519389999],[-37.605388056,-10.239909509],[-37.604798526,-10.2429581239999],[-37.600304912,-10.243090942],[-37.6017838299999,-10.2458751229999],[-37.60087063,-10.247764149],[-37.5940805489999,-10.252004417],[-37.590812257,-10.2482681239999],[-37.5915644219999,-10.2450866169999],[-37.586892104,-10.242685424],[-37.5850497049999,-10.2431843699999],[-37.5811444239999,-10.2404339889999],[-37.5779336349999,-10.244152173],[-37.579270768,-10.247055496],[-37.5744554179999,-10.247843299],[-37.573181066,-10.249834563],[-37.569751184,-10.247411807],[-37.5691001709999,-10.2504037759999],[-37.5705001639999,-10.2513230789999],[-37.570411684,-10.253391112],[-37.5686438189999,-10.2562939179999],[-37.56170438,-10.2611624819999],[-37.557162373,-10.2593233219999],[-37.555848263,-10.2667439799999],[-37.5534089839999,-10.2667042629999],[-37.5509648469999,-10.2626061219999],[-37.5540374449999,-10.2598560239999],[-37.553484209,-10.258706383],[-37.539289999,-10.2587508629999],[-37.5411611549999,-10.261794851],[-37.5390696089999,-10.265000651],[-37.5432265109999,-10.2639528569999],[-37.5441604289999,-10.26507579],[-37.5416880669999,-10.2684980139999],[-37.545602745,-10.2690345039999],[-37.5396664109999,-10.270884796],[-37.5385468599999,-10.2758845379999],[-37.534896247,-10.2794377999999],[-37.53132635,-10.280132701],[-37.531301378,-10.2827995759999],[-37.5250798279999,-10.281088265],[-37.5251161049999,-10.284731811],[-37.522020127,-10.2867375539999],[-37.5228772179999,-10.28916207],[-37.51908315,-10.288160149],[-37.5143806359999,-10.289246501],[-37.515097625,-10.293078984],[-37.510797918,-10.2964638019999],[-37.5090630239999,-10.295553888],[-37.5091713479999,-10.2914521479999],[-37.5074667329999,-10.2908143669999],[-37.5055819429999,-10.29442527],[-37.499593517,-10.2927473979999],[-37.4981667539999,-10.295447835],[-37.4890484589999,-10.2835524079999],[-37.4859255979999,-10.286912585],[-37.482071607,-10.2834070609999],[-37.483986585,-10.288969107],[-37.4818163369999,-10.2903399669999],[-37.4848061209999,-10.2935265479999],[-37.4837233629999,-10.2953126799999],[-37.4727531359999,-10.2884371399999],[-37.4699153439999,-10.2906659549999],[-37.4683587229999,-10.2867329409999],[-37.470396777,-10.2854583889999],[-37.468690952,-10.282126207],[-37.4656803339999,-10.2835888049999],[-37.4627432939999,-10.278802625],[-37.459822639,-10.2798824659999],[-37.4601358699999,-10.2822640679999],[-37.458685585,-10.283623926],[-37.4619301619999,-10.2853760619999],[-37.4593855329999,-10.2879340259999],[-37.455480131,-10.2888618099999],[-37.455763478,-10.2909966039999],[-37.4515012509999,-10.2923556129999],[-37.447935847,-10.289153129],[-37.446772403,-10.2897631539999],[-37.448206227,-10.2945145309999],[-37.446229051,-10.2957064849999],[-37.443668851,-10.2948481289999],[-37.442285484,-10.2978368229999],[-37.4408816799999,-10.295478261],[-37.437716209,-10.297519781],[-37.435621145,-10.296562485],[-37.4353294589999,-10.3048595199999],[-37.428672644,-10.3079874099999],[-37.42933278,-10.3052286739999],[-37.427726941,-10.3024305],[-37.42437449,-10.3045616229999],[-37.4203188219999,-10.3033101629999],[-37.4203400379999,-10.307100011],[-37.4182821739999,-10.3068967819999],[-37.415190128,-10.3035861769999],[-37.410674953,-10.3054239869999],[-37.4086308549999,-10.302159911],[-37.409285143,-10.297827803],[-37.40753191,-10.296362851],[-37.4081532499999,-10.2911611409999],[-37.4034029919999,-10.292189928],[-37.4027973199999,-10.2897153129999],[-37.405720608,-10.2854611409999],[-37.4040086319999,-10.2813883159999],[-37.4051943499999,-10.257648666],[-37.40828656,-10.245739246],[-37.3943878,-10.26000242],[-37.394365157,-10.262659015],[-37.3924947279999,-10.264386376],[-37.3931475809999,-10.267211852],[-37.390762809,-10.274638814],[-37.3926913399999,-10.2835965589999],[-37.394695585,-10.284352783],[-37.3931303549999,-10.2881004869999],[-37.3956720939999,-10.28986077],[-37.3931781429999,-10.291871146],[-37.3911388759999,-10.2917149299999],[-37.389693688,-10.294314396],[-37.3869440579999,-10.2934795509999],[-37.3880627349999,-10.2964915699999],[-37.3855892569999,-10.2990862939999],[-37.387600097,-10.300807457],[-37.387672798,-10.305416757],[-37.3855088289999,-10.3090163379999],[-37.390246524,-10.313048244],[-37.3920308889999,-10.31713955],[-37.388296809,-10.319944883],[-37.3827662569999,-10.3157997],[-37.378196983,-10.3173425589999],[-37.3765336259999,-10.320517873],[-37.376935477,-10.3238788499999],[-37.373658181,-10.324263597],[-37.3746065709999,-10.328658628],[-37.3736555749999,-10.330404667],[-37.371687702,-10.327806193],[-37.369151928,-10.3304554599999],[-37.367278539,-10.328460839],[-37.3628792979999,-10.329235893],[-37.3617690829999,-10.332115651],[-37.3562929079999,-10.334374485],[-37.3568754079999,-10.336365949],[-37.3595723589999,-10.335862355],[-37.36094545,-10.3373182869999],[-37.359560762,-10.3449260809999],[-37.357925851,-10.346076206],[-37.354311558,-10.344878491],[-37.350221533,-10.3469256979999],[-37.351668893,-10.3496244569999],[-37.3493311449999,-10.353482019],[-37.350255137,-10.3557817709999],[-37.344880079,-10.3584029949999],[-37.345293582,-10.3628954639999],[-37.3488349839999,-10.363079517],[-37.351387299,-10.3650777499999],[-37.353972616,-10.36308295],[-37.356733252,-10.369699353],[-37.352298919,-10.369758641],[-37.3496167039999,-10.3716493869999],[-37.3506839569999,-10.3809318209999],[-37.3489376139999,-10.384542051],[-37.339725722,-10.3851278119999],[-37.3483780589999,-10.400141462],[-37.346899264,-10.4011328029999],[-37.344661329,-10.3995089339999],[-37.334243434,-10.400936201],[-37.3338050479999,-10.406573757],[-37.3296365289999,-10.4131584689999],[-37.331852835,-10.4178880449999],[-37.325499516,-10.4195105899999],[-37.3243873529999,-10.420966865],[-37.3253212749999,-10.423288143],[-37.3292048879999,-10.4231470769999],[-37.3343919219999,-10.426515294],[-37.332395774,-10.4313905069999],[-37.3194857729999,-10.4345748819999],[-37.3117756599999,-10.4305704039999],[-37.308059565,-10.425982226],[-37.3043436849999,-10.4302044179999],[-37.3028269959999,-10.4363816749999],[-37.2947462939999,-10.4336511439999],[-37.2924591339999,-10.436363308],[-37.2928363029999,-10.439572712],[-37.2957435559999,-10.4416609529999],[-37.2942481579999,-10.450069683],[-37.2903430779999,-10.4482971099999],[-37.2903882309999,-10.4512863909999],[-37.287735833,-10.4544450039999],[-37.292464927,-10.4585646739999],[-37.2904760589999,-10.466981377],[-37.28274356,-10.464134074],[-37.2808450889999,-10.461966844],[-37.275008949,-10.4643821659999],[-37.27484674,-10.465433628],[-37.301418696,-10.4752067349999],[-37.349337271,-10.4915593689999],[-37.3515790079999,-10.490600897],[-37.3529252169999,-10.486628533],[-37.3597663649999,-10.483268983],[-37.346807309,-10.5068303649999],[-37.3257989189999,-10.532486591],[-37.317733302,-10.5451291439999],[-37.318209903,-10.5470635399999],[-37.3155675799999,-10.545988827],[-37.312270277,-10.547224092],[-37.311313208,-10.5491726859999],[-37.313921104,-10.558509082],[-37.3109961539999,-10.5615384669999],[-37.312951493,-10.561621229],[-37.3131233949999,-10.5627776479999],[-37.3111464809999,-10.566759357],[-37.3065184069999,-10.568883006],[-37.305268303,-10.573563107],[-37.2970831029999,-10.5768730779999],[-37.2847524049999,-10.574199816],[-37.275328007,-10.576358289],[-37.2721903199999,-10.5783942899999],[-37.263165014,-10.5773283369999],[-37.249062486,-10.5950521089999],[-37.2536629559999,-10.595769621],[-37.265732263,-10.586853547],[-37.2823499619999,-10.587614113],[-37.287341781,-10.593984583],[-37.29324207,-10.5945323229999],[-37.2963995329999,-10.6010277999999],[-37.295460239,-10.610860739],[-37.2917795149999,-10.6106302249999],[-37.288750453,-10.614905078],[-37.282602072,-10.6184952419999],[-37.2798968989999,-10.627345202],[-37.2811151,-10.629993885],[-37.2792060939999,-10.6337839409999],[-37.2689909159999,-10.635633153],[-37.265236751,-10.642567324],[-37.262284328,-10.643639877],[-37.260739835,-10.648800718],[-37.2589979539999,-10.6500248029999],[-37.2473864089999,-10.651101864],[-37.24564048,-10.6551966459999],[-37.247567497,-10.6577147699999],[-37.2478203259999,-10.6616332669999],[-37.23914402,-10.665142825],[-37.2345728809999,-10.672192276],[-37.230487829,-10.675678474],[-37.231444355,-10.681521743],[-37.2282520759999,-10.684867739],[-37.230416033,-10.688274422],[-37.2292068329999,-10.6913854119999],[-37.2328339949999,-10.6967947109999],[-37.2255814559999,-10.702678267],[-37.2243984369999,-10.7057895949999],[-37.2261069969999,-10.705946567],[-37.227322021,-10.708273573],[-37.2308425229999,-10.702551111],[-37.2344688759999,-10.705171319],[-37.236984114,-10.7038357389999],[-37.237409323,-10.707471909],[-37.239141073,-10.7086600669999],[-37.2456980529999,-10.706646541],[-37.2481775729999,-10.7069796989999],[-37.2502487849999,-10.709225027],[-37.2517716889999,-10.7075155489999],[-37.2515372729999,-10.7052311629999],[-37.2538259199999,-10.704113147],[-37.257008552,-10.705077968],[-37.258559353,-10.7023857679999],[-37.265080245,-10.7072034169999],[-37.266423726,-10.7109578239999],[-37.26524923,-10.7124481159999],[-37.268249026,-10.714852765],[-37.272688676,-10.7149271],[-37.276603343,-10.711488092],[-37.2819235269999,-10.716805781],[-37.2830227119999,-10.721532049],[-37.2802147559999,-10.7262827399999],[-37.283820941,-10.732653894],[-37.2814811289999,-10.740598541],[-37.2725341079999,-10.7468240979999],[-37.270937495,-10.749843397],[-37.273290807,-10.752345557],[-37.245595721,-10.778356597],[-37.318358732,-10.832148092],[-37.3183707819999,-10.834542709],[-37.322745325,-10.832123988],[-37.3291010969999,-10.833435309],[-37.3371065119999,-10.8396076519999],[-37.3400061779999,-10.847704665],[-37.3475098259999,-10.8478104589999],[-37.3513419939999,-10.8499204679999],[-37.356997326,-10.8475947379999],[-37.363595634,-10.847143425],[-37.3696652899999,-10.8518841889999],[-37.3755496249999,-10.85263515],[-37.3797273899999,-10.850890581],[-37.3877337859999,-10.851063415],[-37.39754184,-10.847909871],[-37.404847545,-10.8430236849999],[-37.402714337,-10.8398249219999],[-37.40693401,-10.8321713169999],[-37.4041994249999,-10.830032438],[-37.4046652919999,-10.8261374969999],[-37.4565594169999,-10.882607288],[-37.459605246,-10.8797778529999],[-37.457595257,-10.872426136],[-37.462324349,-10.869225092],[-37.4644178359999,-10.859890206],[-37.471344682,-10.853024715],[-37.474559571,-10.8534300779999],[-37.4778987299999,-10.8593060329999],[-37.4834289919999,-10.858482137],[-37.4842780509999,-10.8563085669999],[-37.480524855,-10.8453168069999],[-37.4809861689999,-10.8409371929999],[-37.488509291,-10.8379449839999],[-37.489665027,-10.836076894],[-37.4886442099999,-10.8331759109999],[-37.49226699,-10.8307090389999],[-37.4969504279999,-10.8316237879999],[-37.499641132,-10.8342775009999],[-37.5095350559999,-10.835385596],[-37.5105496349999,-10.842583422],[-37.512440512,-10.844657384],[-37.516502051,-10.845755185],[-37.517410758,-10.844418064],[-37.518776337,-10.845199474],[-37.5253536289999,-10.8433376259999],[-37.5305903809999,-10.840246302],[-37.536660941,-10.8418406239999],[-37.544676447,-10.835449796],[-37.551125277,-10.840438226],[-37.5583384839999,-10.838628846],[-37.5633362059999,-10.835511095],[-37.571140568,-10.839687216],[-37.5814620979999,-10.8365678169999],[-37.5903102299999,-10.8288884089999],[-37.5947448699999,-10.827082408],[-37.6006621419999,-10.8149446389999],[-37.609108105,-10.8136025339999],[-37.6109497839999,-10.811926391],[-37.6107455279999,-10.807442989],[-37.614057917,-10.801063173],[-37.6143664639999,-10.7973146759999],[-37.6092289999999,-10.790165253],[-37.6040296249999,-10.7880116379999],[-37.6003740479999,-10.7794092219999],[-37.6047461909999,-10.7769580359999],[-37.6087468159999,-10.764907335],[-37.6116110999999,-10.762032469],[-37.6142388539999,-10.7560578819999],[-37.6184964179999,-10.754685051],[-37.620235615,-10.7484465009999],[-37.626810382,-10.7474347849999],[-37.631725923,-10.7494039339999],[-37.633326752,-10.7484366879999],[-37.6286169799999,-10.740697768],[-37.629850401,-10.734651752],[-37.6324819919999,-10.7321596309999],[-37.630782483,-10.726068637],[-37.616755804,-10.71348774],[-37.618542601,-10.711832345],[-37.619828852,-10.7064901689999],[-37.63214599,-10.708977119],[-37.6366167909999,-10.7126818909999],[-37.6407712059999,-10.7120811209999],[-37.6469982589999,-10.70930163],[-37.6423986599999,-10.6996888629999],[-37.647121387,-10.6959091539999],[-37.654030361,-10.7096706159999],[-37.6620656159999,-10.7169919709999],[-37.6642199729999,-10.71686995],[-37.668247129,-10.7085512529999],[-37.6698116559999,-10.707817582],[-37.677791865,-10.7152982129999],[-37.683274116,-10.7112415539999],[-37.68465039,-10.7082197919999],[-37.682996029,-10.705308363],[-37.675916658,-10.704385531],[-37.67391251,-10.702626255],[-37.677508807,-10.6963162419999],[-37.6826367639999,-10.695598929],[-37.686097592,-10.69239979],[-37.6864048269999,-10.6905870469999],[-37.682632182,-10.68642389],[-37.683856874,-10.6845885029999],[-37.6863629819999,-10.6822356919999],[-37.6918282709999,-10.6851948],[-37.6946937669999,-10.683832831],[-37.696902909,-10.6804658349999],[-37.702849849,-10.677654853],[-37.702694984,-10.671903421],[-37.704973627,-10.6689655779999],[-37.7068789679999,-10.6688032979999],[-37.7084493959999,-10.6718706649999],[-37.7146056219999,-10.668387538],[-37.713445892,-10.665842469],[-37.7087673109999,-10.6632238789999],[-37.706805186,-10.656316516],[-37.697927831,-10.6474751549999],[-37.693653559,-10.639447391],[-37.694296096,-10.6385066479999],[-37.702187576,-10.6414971619999],[-37.704096149,-10.6348255879999],[-37.706584029,-10.6332723479999],[-37.714648391,-10.6446291579999],[-37.717084546,-10.645202219],[-37.72443578,-10.6405425799999],[-37.7212458659999,-10.6353246849999],[-37.7251424309999,-10.631982589],[-37.7284272869999,-10.6321613919999],[-37.731069642,-10.6305240089999],[-37.738807374,-10.632963425],[-37.7427313339999,-10.627444231],[-37.747154184,-10.6250519979999],[-37.750122062,-10.6210712339999],[-37.754853246,-10.6234326499999],[-37.7669066289999,-10.618245792],[-37.768431248,-10.613447713],[-37.767340662,-10.605838701],[-37.77182892,-10.603270973],[-37.7784171229999,-10.600533734],[-37.785287882,-10.6009470299999],[-37.7899641419999,-10.596112106],[-37.795891053,-10.5948026049999],[-37.8004727649999,-10.5914412549999],[-37.8047767939999,-10.5939906689999],[-37.805120124,-10.599075808],[-37.807729015,-10.6006681989999],[-37.815061155,-10.595121279],[-37.814546965,-10.593354669],[-37.818623543,-10.5854692769999],[-37.8249638949999,-10.5870952409999],[-37.830471182,-10.5847503679999],[-37.8286341539999,-10.580866821],[-37.8258840139999,-10.580350971],[-37.8315286859999,-10.5789696149999],[-37.830644283,-10.5730214979999],[-37.835333617,-10.571127319],[-37.833077548,-10.5680912009999],[-37.8354420749999,-10.5647958539999],[-37.8327336869999,-10.5627711119999],[-37.8331166369999,-10.5605964109999],[-37.839665748,-10.556072651],[-37.8405763909999,-10.549562708],[-37.8379539539999,-10.551908716],[-37.8371758399999,-10.5488444779999],[-37.831790656,-10.5513227599999],[-37.8310139309999,-10.548370214],[-37.8279467799999,-10.5476282689999],[-37.8295839039999,-10.5452992429999],[-37.8294102459999,-10.5412496079999],[-37.825701936,-10.540420413],[-37.824755058,-10.538303188],[-37.819525332,-10.539438285],[-37.8223100929999,-10.5309680419999],[-37.81622348,-10.5203107289999],[-37.8156440719999,-10.517393469],[-37.817030525,-10.513089667],[-37.813052393,-10.50848397],[-37.817314449,-10.50394318],[-37.8175635359999,-10.497051982],[-37.821393164,-10.4872836879999],[-37.821062344,-10.484653176],[-37.827983181,-10.477038412],[-37.8419867639999,-10.452813259],[-37.8584923539999,-10.4309611659999],[-37.8591194009999,-10.426470892],[-37.8537629899999,-10.424884769],[-37.852507927,-10.4167794919999],[-37.851175336,-10.4160915809999],[-37.851232333,-10.413818802],[-37.8539512849999,-10.410073466],[-37.8533824579999,-10.4065065549999],[-37.846712418,-10.4060083279999],[-37.839400191,-10.4033515249999],[-37.8372889739999,-10.4010284619999],[-37.8425330309999,-10.3985013839999],[-37.84063051,-10.389899928],[-37.83359699,-10.3853443099999],[-37.8349544769999,-10.383339603],[-37.8397868979999,-10.3813438759999],[-37.83850064,-10.3787891349999],[-37.8352404289999,-10.378800149],[-37.83407836,-10.380117204],[-37.830699604,-10.37497051],[-37.824087475,-10.3779987199999],[-37.8220609909999,-10.3723173769999],[-37.8155360199999,-10.370087402],[-37.813029638,-10.366207672],[-37.8077782839999,-10.366702362],[-37.787617092,-10.3544838619999],[-37.7839797279999,-10.3462214489999],[-37.776587332,-10.344240821],[-37.7625328039999,-10.3444284789999],[-37.735783199,-10.3346637259999],[-37.7348756229999,-10.332807018],[-37.7414623809999,-10.317662787],[-37.7657031459999,-10.196217082],[-37.7601822499999,-10.1968631409999],[-37.755228448,-10.20071129],[-37.752801763,-10.198158681],[-37.7468091139999,-10.198491787],[-37.740945708,-10.19529029],[-37.732392953,-10.1943900209999],[-37.725115176,-10.1895574389999],[-37.717334034,-10.1878989099999],[-37.713944893,-10.190247216]]]}}]}