{"type":"FeatureCollection","features":[{"type":"Feature","properties":{"id":"88","concentrationId":"2700300","name":"Arapiraca","state":"AL","municipality":"2700300","population2010":"214006","urbanPopulation2010":"185953","ruralPopulation2010":"28053"},"geometry":{"type":"Polygon","coordinates":[[[-36.7387867106381,-9.68577995967735],[-36.7367665959016,-9.67419467364523],[-36.7191099480656,-9.66323174005271],[-36.7030871984154,-9.65669614461133],[-36.6898881689038,-9.63455833060243],[-36.6547755713355,-9.64273828604304],[-36.6524965525738,-9.64085317123682],[-36.6375256167138,-9.63653520233765],[-36.6344172188795,-9.64256311789354],[-36.6288574867835,-9.64507567350347],[-36.6267450854173,-9.65066614802424],[-36.6229521317355,-9.65545884834712],[-36.6211881538102,-9.65605446843892],[-36.6127189251383,-9.65317525023755],[-36.6094713662105,-9.65422225895002],[-36.6079739716214,-9.6578494747734],[-36.6105196384705,-9.66310337801844],[-36.6081128584216,-9.66935797848787],[-36.6042802644226,-9.67145389887827],[-36.6019392958618,-9.67654460664823],[-36.5957337435174,-9.68373869918156],[-36.5948433976047,-9.69222131336289],[-36.5875654271027,-9.69222879752096],[-36.5858614636356,-9.69462228199268],[-36.5870838914085,-9.69706347639829],[-36.5812071383987,-9.70072561649398],[-36.5803748122477,-9.704430248657],[-36.5770026324655,-9.70692503006604],[-36.5728452528061,-9.70584862161656],[-36.5704059973389,-9.70881393371604],[-36.576687416491,-9.70958683896139],[-36.5815848176852,-9.70819794757717],[-36.5836615537377,-9.71448423026301],[-36.5756722752553,-9.72758895236819],[-36.5778178022497,-9.73713535211477],[-36.573534375411,-9.74382122067278],[-36.5729768074337,-9.74951638167562],[-36.5640036472505,-9.76118856559975],[-36.5583603798276,-9.7640367356068],[-36.5569172107606,-9.76620126167883],[-36.5587598865595,-9.76826189087353],[-36.5519144719752,-9.77142661864349],[-36.5627227068874,-9.79122136057732],[-36.5653445481124,-9.80098129265246],[-36.5641862339075,-9.80443894939794],[-36.5557885130294,-9.80517140043975],[-36.5486008353602,-9.80892072261321],[-36.553106759869,-9.82151439597254],[-36.5554440439075,-9.85092997543796],[-36.5538350074796,-9.85636471346073],[-36.5413969896793,-9.87167614253991],[-36.5425912506856,-9.87189299246757],[-36.5415400610249,-9.88180481553974],[-36.5632079226075,-9.87428432216371],[-36.5687473336225,-9.87508540047082],[-36.5847208310015,-9.8813163154955],[-36.5911648475796,-9.87851869458205],[-36.5911500492354,-9.87152048698084],[-36.5947202516383,-9.86891144760518],[-36.6190936993147,-9.86239687291731],[-36.6218342438552,-9.86038562999278],[-36.6311769723393,-9.83411457592689],[-36.6416333708833,-9.82732813528515],[-36.6908303661285,-9.80410867517521],[-36.7558617381287,-9.70526194977913],[-36.7387867106381,-9.68577995967735]]]}},{"type":"Feature","properties":{"id":"89","concentrationId":"2704302","name":"Maceió/AL","state":"AL","municipality":"2708907","population2010":"14603","urbanPopulation2010":"12792","ruralPopulation2010":"1811"},"geometry":{"type":"Polygon","coordinates":[[[-35.7965140652719,-9.53148034893889],[-35.8085206620988,-9.56715970735457],[-35.8158556451219,-9.5770965010027],[-35.825433895258,-9.57740953252386],[-35.8254385645381,-9.5824842854214],[-35.8284376839519,-9.58252203266563],[-35.845386141757,-9.60609922689775],[-35.852268168641,-9.606849302853],[-35.8502686546746,-9.61201344836191],[-35.8526291502151,-9.60875992063376],[-35.8550748439288,-9.61005516381472],[-35.8564126888944,-9.61564628944467],[-35.8676569798857,-9.6265919776376],[-35.8767102741598,-9.60830580077203],[-35.8773834931536,-9.60120246602094],[-35.8807703588649,-9.60149162144114],[-35.8806000380613,-9.59761636450356],[-35.8875747814509,-9.5902403067447],[-35.876990716948,-9.56394651601886],[-35.8341856288636,-9.554917793921],[-35.8302429848259,-9.5454531731254],[-35.8189604582585,-9.54415007166842],[-35.8176851764297,-9.53744285680233],[-35.806959564932,-9.53643424104735],[-35.7965140652719,-9.53148034893889]]]}},{"type":"Feature","properties":{"id":"90","concentrationId":"2704302","name":"Maceió/AL","state":"AL","municipality":"2707701","population2010":"68481","urbanPopulation2010":"64381","ruralPopulation2010":"4100"},"geometry":{"type":"Polygon","coordinates":[[[-35.7965140652719,-9.53148034893889],[-35.806959564932,-9.53643424104735],[-35.8176851764297,-9.53744285680233],[-35.8189604582585,-9.54415007166842],[-35.8302429848259,-9.5454531731254],[-35.8341856288636,-9.554917793921],[-35.876990716948,-9.56394651601886],[-35.8875747814509,-9.5902403067447],[-35.9334660550144,-9.55180783756164],[-35.9381064632427,-9.54967141260556],[-35.9404651745281,-9.54521338059301],[-35.9463510412675,-9.54230945082043],[-35.944772491857,-9.54097944794313],[-35.9450726594756,-9.53946787014605],[-35.9464956945206,-9.53964878766135],[-35.9454968588929,-9.53723460619211],[-35.9494105591499,-9.53619354199833],[-35.9498574430665,-9.53333970536306],[-35.9591622588312,-9.53011277058783],[-35.9597405561817,-9.5280104029577],[-35.9452107153022,-9.50263172727233],[-35.9404328349074,-9.4980018429107],[-35.9394895845766,-9.49243008957695],[-35.937242858671,-9.49249208344287],[-35.9330095060838,-9.48087944183272],[-35.9369684449377,-9.40141422078961],[-35.9287746327431,-9.37460454476388],[-35.8759274862645,-9.41365109352313],[-35.7696305854831,-9.38978788879997],[-35.784937548529,-9.51122361987409],[-35.7965140652719,-9.53148034893889]]]}},{"type":"Feature","properties":{"id":"91","concentrationId":"2704302","name":"Maceió/AL","state":"AL","municipality":"2704708","population2010":"45977","urbanPopulation2010":"43369","ruralPopulation2010":"2608"},"geometry":{"type":"Polygon","coordinates":[[[-35.9104960677393,-9.8092954134525],[-35.9147155833575,-9.8095689449508],[-35.9160221202246,-9.80532816756085],[-35.9219103584762,-9.80383967626],[-35.9223541568188,-9.79953066191046],[-35.9264927910095,-9.79571501743408],[-35.9334943827595,-9.79667595922809],[-35.9354942105893,-9.79437632170983],[-35.9373825818406,-9.79472433146271],[-35.9382709798218,-9.78960516914321],[-35.9414063231433,-9.78789142824679],[-35.956580238687,-9.78669125150003],[-35.9614615833853,-9.79000421991878],[-35.9676600751523,-9.78819399345798],[-35.9734930842384,-9.78442195440959],[-35.9777164570488,-9.78448981815052],[-35.9803225502454,-9.7863740255408],[-35.9887504047074,-9.78145281659414],[-35.9912442742038,-9.78182767920402],[-36.0007421177545,-9.77452849369496],[-36.0045628892659,-9.76709740731946],[-35.9879918832188,-9.73779173669925],[-35.9881562666983,-9.7005042258893],[-35.9926617271569,-9.69358020336364],[-36.0183570010747,-9.68748163796715],[-36.0298296398259,-9.6712971128714],[-36.0197941923481,-9.6597919321519],[-36.0243221169721,-9.64642144509355],[-35.9968306532121,-9.66159929067471],[-35.9801620302534,-9.6728562315298],[-35.986909952932,-9.66249394613868],[-35.9785466706923,-9.64380117498423],[-35.9722739758632,-9.64322119320343],[-35.9712940592734,-9.64426894025934],[-35.9696287702515,-9.64271002934436],[-35.9699408071225,-9.64101412020546],[-35.9676545344292,-9.64077908418734],[-35.9667937483327,-9.64233272327653],[-35.9614662832423,-9.64298280001617],[-35.957308473707,-9.6478341136534],[-35.9523982931466,-9.64120347066358],[-35.9442186012074,-9.63924917101241],[-35.8882397500644,-9.6479063427035],[-35.8682092355678,-9.62549420489358],[-35.8676819477636,-9.64085982172332],[-35.8644635637424,-9.65483704089667],[-35.8354313733591,-9.654633416399],[-35.8280161941919,-9.65527320129718],[-35.8262923071442,-9.65764912380798],[-35.8244660610598,-9.65785483293416],[-35.8150832363023,-9.65555541574981],[-35.810500596925,-9.65983798373595],[-35.8102437442533,-9.66361029707754],[-35.807641376948,-9.66691307977477],[-35.8046245399905,-9.67709392604383],[-35.8019802660764,-9.67927265151161],[-35.7911627078926,-9.6805798862527],[-35.7904587446753,-9.68379861471426],[-35.7844114181524,-9.69103467231224],[-35.7824859031019,-9.69770872827513],[-35.7855406536782,-9.70147844347536],[-35.7961817037226,-9.70820742553224],[-35.7964335840426,-9.71136164292546],[-35.7945054159921,-9.71313955944306],[-35.7968794751076,-9.71385186746966],[-35.8128283652368,-9.73221234362473],[-35.8199037634479,-9.74424762702631],[-35.8147480292981,-9.73780382628553],[-35.8163373049226,-9.74176242159843],[-35.8300460773645,-9.75596591469514],[-35.834436332980076,-9.76374139347731],[-35.83443633298013,-9.763741393477378],[-35.8435516488895,-9.77369901209966],[-35.85528919806654,-9.788287285052368],[-35.8553,-9.7883],[-35.85530565894706,-9.788307743822292],[-35.855305658947096,-9.788307743822337],[-35.905589199382,-9.81188670740557],[-35.9104960677393,-9.8092954134525]]]}},{"type":"Feature","properties":{"id":"92","concentrationId":"2704302","name":"Maceió/AL","state":"AL","municipality":"2705200","population2010":"15682","urbanPopulation2010":"14263","ruralPopulation2010":"1419"},"geometry":{"type":"Polygon","coordinates":[[[-35.8759274862645,-9.41365109352313],[-35.8300895802699,-9.32268157129744],[-35.8311531832728,-9.31314785379038],[-35.8346173313248,-9.31265708745457],[-35.8385138545307,-9.30932448503688],[-35.8363509643255,-9.26454246586206],[-35.8045494942637,-9.26654201400272],[-35.7690169510714,-9.30900661786109],[-35.7696055402634,-9.38959344817903],[-35.8759274862645,-9.41365109352313]]]}},{"type":"Feature","properties":{"id":"93","concentrationId":"2704302","name":"Maceió/AL","state":"AL","municipality":"2702207","population2010":"5526","urbanPopulation2010":"4973","ruralPopulation2010":"553"},"geometry":{"type":"Polygon","coordinates":[[[-35.8553160205179,-9.63617515785723],[-35.8504536757965,-9.63898871026071],[-35.8468484825714,-9.63878091200945],[-35.8451492567328,-9.64152786421949],[-35.8399999671248,-9.642084628203],[-35.8328525682913,-9.6396880050973],[-35.8261278930877,-9.64014037218038],[-35.8231274624624,-9.63795654665729],[-35.8201318216262,-9.63077096530776],[-35.8143045079466,-9.62351241206814],[-35.8125309720267,-9.61791503255268],[-35.8054950099867,-9.61413645003711],[-35.8042182829474,-9.60897413644722],[-35.7936892290746,-9.60025655099901],[-35.7913755963067,-9.60215841298032],[-35.787958427939,-9.61327989704955],[-35.7824056467032,-9.62233785071117],[-35.7715988507064,-9.63205022124066],[-35.769130843014,-9.63829911910904],[-35.7802894798755,-9.65569972726058],[-35.7802427403102,-9.66691082697304],[-35.7855240665823,-9.66951998685785],[-35.7911627078926,-9.6805798862527],[-35.8019802660764,-9.67927265151161],[-35.8046245399905,-9.67709392604383],[-35.807641376948,-9.66691307977477],[-35.8102437442533,-9.66361029707754],[-35.810500596925,-9.65983798373595],[-35.8150832363023,-9.65555541574981],[-35.8244660610598,-9.65785483293416],[-35.8262923071442,-9.65764912380798],[-35.8280161941919,-9.65527320129718],[-35.8354313733591,-9.654633416399],[-35.8644635637424,-9.65483704089667],[-35.8676819477636,-9.64085982172332],[-35.8676569798857,-9.6265919776376],[-35.8553160205179,-9.63617515785723]]]}},{"type":"Feature","properties":{"id":"94","concentrationId":"2704302","name":"Maceió/AL","state":"AL","municipality":"2707909","population2010":"6891","urbanPopulation2010":"6632","ruralPopulation2010":"259"},"geometry":{"type":"Polygon","coordinates":[[[-35.8564126888944,-9.61564628944467],[-35.8550748439288,-9.61005516381472],[-35.8526291502151,-9.60875992063376],[-35.8502686546746,-9.61201344836191],[-35.852268168641,-9.606849302853],[-35.845386141757,-9.60609922689775],[-35.8284376839519,-9.58252203266563],[-35.8254385645381,-9.5824842854214],[-35.825433895258,-9.57740953252386],[-35.8158556451219,-9.5770965010027],[-35.8140442216634,-9.58032606629491],[-35.8088838182336,-9.58196697919272],[-35.8091613679028,-9.58489539660525],[-35.8028482935139,-9.58785104458997],[-35.8011887223816,-9.5941101344751],[-35.7936892290746,-9.60025655099901],[-35.8042182829474,-9.60897413644722],[-35.8054950099867,-9.61413645003711],[-35.8125309720267,-9.61791503255268],[-35.8143045079466,-9.62351241206814],[-35.8201318216262,-9.63077096530776],[-35.8231274624624,-9.63795654665729],[-35.8261278930877,-9.64014037218038],[-35.8328525682913,-9.6396880050973],[-35.8399999671248,-9.642084628203],[-35.8451492567328,-9.64152786421949],[-35.8468484825714,-9.63878091200945],[-35.8504536757965,-9.63898871026071],[-35.8553160205179,-9.63617515785723],[-35.8676569798857,-9.6265919776376],[-35.8564126888944,-9.61564628944467]]]}},{"type":"Feature","properties":{"id":"95","concentrationId":"2704302","name":"Maceió/AL","state":"AL","municipality":"2700508","population2010":"14230","urbanPopulation2010":"13242","ruralPopulation2010":"988"},"geometry":{"type":"Polygon","coordinates":[[[-35.5278129156335,-9.4360998094586],[-35.5292590101951,-9.43621285154182],[-35.5292645005562,-9.43784344381981],[-35.5310910964769,-9.43551965141074],[-35.5312837582388,-9.43215773828893],[-35.5346027116458,-9.43025161082312],[-35.5372107446801,-9.42359977530936],[-35.5415167184217,-9.42160039983855],[-35.5460163260925,-9.41685435454479],[-35.5445175078767,-9.41047468715704],[-35.5468591077616,-9.4056346681054],[-35.5496252560007,-9.40359082115941],[-35.5596553309288,-9.40530302421513],[-35.5644938984746,-9.40470445794431],[-35.5686572307466,-9.40156821260291],[-35.5728811665326,-9.40261916124524],[-35.5733773377939,-9.4015331021709],[-35.575962516357,-9.40179168244016],[-35.5789086692996,-9.40361755170859],[-35.5808772115141,-9.40246586910451],[-35.5866843309171,-9.40445974342237],[-35.5891821943028,-9.40358159681319],[-35.5953474435296,-9.40859657986823],[-35.599487607467,-9.40691401486987],[-35.6005715270543,-9.40459872015476],[-35.6020313425723,-9.405446824911],[-35.6019344891853,-9.40721822314242],[-35.6032455640315,-9.40595094258191],[-35.6054579583181,-9.40844288033464],[-35.6069315865234,-9.40683718129083],[-35.6108013674891,-9.40761446353662],[-35.6109868436678,-9.40453735851225],[-35.6167719089964,-9.40645418970906],[-35.6210149256982,-9.40989595633329],[-35.6215777897831,-9.407787224201],[-35.6276836567753,-9.40483199440098],[-35.6335499434751,-9.40557964128738],[-35.6404385453026,-9.40180938019871],[-35.6506875466929,-9.40477974738741],[-35.6545198789892,-9.40274888755108],[-35.6574093170863,-9.40393328209523],[-35.6620451882348,-9.39983597085331],[-35.6660888288363,-9.39864284569075],[-35.6767931902535,-9.39844099825343],[-35.6876860594641,-9.37084708282658],[-35.5784468233622,-9.35914791384511],[-35.5676004724838,-9.35545246555882],[-35.5645504352543,-9.35549973482484],[-35.5612860464138,-9.35820824641337],[-35.5363196694171,-9.3468524089115],[-35.5321170637515,-9.34707421949959],[-35.5233561768461,-9.35479996514624],[-35.5186980528728,-9.35479728156924],[-35.5141849481768,-9.34683284685838],[-35.5150758147969,-9.3382758326635],[-35.5191135486513,-9.32905263487119],[-35.5199006317088,-9.3221149003823],[-35.5136051534551,-9.31427260259847],[-35.5136675538145,-9.30772913269329],[-35.4637636410791,-9.34773121382443],[-35.469521572381176,-9.355508129985186],[-35.4725,-9.358],[-35.47327712421662,-9.35926189460128],[-35.4832331207119,-9.36921315316444],[-35.4935119409233,-9.38695417719351],[-35.4958347341856,-9.3939408482915],[-35.49569473356324,-9.395663617263919],[-35.5245044465229,-9.44193963720443],[-35.5278129156335,-9.4360998094586]]]}},{"type":"Feature","properties":{"id":"96","concentrationId":"2704302","name":"Maceió/AL","state":"AL","municipality":"2704302","population2010":"932748","urbanPopulation2010":"932103","ruralPopulation2010":"645"},"geometry":{"type":"Polygon","coordinates":[[[-35.7945054159921,-9.71313955944306],[-35.7964335840426,-9.71136164292546],[-35.7961817037226,-9.70820742553224],[-35.7855406536782,-9.70147844347536],[-35.7824859031019,-9.69770872827513],[-35.7844114181524,-9.69103467231224],[-35.7894795178654,-9.6851504756139],[-35.7911627078926,-9.6805798862527],[-35.7855240665823,-9.66951998685785],[-35.7802427403102,-9.66691082697304],[-35.7802894798755,-9.65569972726058],[-35.769130843014,-9.63829911910904],[-35.7715988507064,-9.63205022124066],[-35.7824056467032,-9.62233785071117],[-35.787958427939,-9.61327989704955],[-35.7913755963067,-9.60215841298032],[-35.8011887223816,-9.5941101344751],[-35.8028482935139,-9.58785104458997],[-35.8091613679028,-9.58489539660525],[-35.8088838182336,-9.58196697919272],[-35.8140442216634,-9.58032606629491],[-35.8158556451219,-9.5770965010027],[-35.8085206620988,-9.56715970735457],[-35.7965140652719,-9.53148034893889],[-35.784937548529,-9.51122361987409],[-35.7696055402634,-9.38959344817903],[-35.6876860594641,-9.37084708282658],[-35.6657362496282,-9.42625311349037],[-35.665577125384,-9.42968502354495],[-35.6519870193854,-9.43595178104982],[-35.64187918008,-9.44435233569169],[-35.6391545211642,-9.44382112954146],[-35.6347106966413,-9.44704018175895],[-35.625796740627,-9.44796600232912],[-35.6243483312105,-9.45126402851208],[-35.6260112667065,-9.45783214883454],[-35.6250999018389,-9.46129309440073],[-35.6204608911572,-9.4637862453389],[-35.6176283369781,-9.46967742617221],[-35.6128233528154,-9.47117073154397],[-35.6091576729881,-9.47048684928859],[-35.6078481117009,-9.47303892830387],[-35.6044110080615,-9.47255945835229],[-35.6019038609743,-9.474054411282],[-35.5959045510542,-9.47206267555197],[-35.5946600161468,-9.46977351873284],[-35.5840428404047,-9.46983379309502],[-35.5675680825009,-9.4789870407193],[-35.5624022561591,-9.47975615442295],[-35.5585270064162,-9.487451272758],[-35.563442792113804,-9.492280383034403],[-35.5793229878656,-9.5019677398193],[-35.5809918265115,-9.50642153332705],[-35.5874640296412,-9.51140794851795],[-35.59024580878501,-9.518202712603575],[-35.6032536752474,-9.530783169705334],[-35.6052406083674,-9.53149623906011],[-35.623202036578085,-9.550076072557362],[-35.62320203657812,-9.550076072557397],[-35.630437941158,-9.55200409301443],[-35.6354630235996,-9.55499819511055],[-35.6435988744884,-9.56272565126773],[-35.6463790881244,-9.56752947530499],[-35.6499640088319,-9.56752982783923],[-35.6545423557451,-9.57657121329084],[-35.6654869791407,-9.59091906016648],[-35.6758760184634,-9.59897873488069],[-35.67787363857361,-9.602951288149224],[-35.73300603183172,-9.656272154434744],[-35.768475359137,-9.690576039078886],[-35.7750649655757,-9.69566496586544],[-35.77740186514057,-9.699209240086233],[-35.7898,-9.7112],[-35.78997026093753,-9.711400414019598],[-35.7929648566428,-9.7117033835043],[-35.7945054159921,-9.71313955944306]]]}},{"type":"Feature","properties":{"id":"97","concentrationId":"2704302","name":"Maceió/AL","state":"AL","municipality":"2706448","population2010":"11347","urbanPopulation2010":"10049","ruralPopulation2010":"1298"},"geometry":{"type":"Polygon","coordinates":[[[-35.5624022561591,-9.47975615442295],[-35.5675680825009,-9.4789870407193],[-35.5840428404047,-9.46983379309502],[-35.5946600161468,-9.46977351873284],[-35.5959045510542,-9.47206267555197],[-35.6019038609743,-9.474054411282],[-35.6044110080615,-9.47255945835229],[-35.6078481117009,-9.47303892830387],[-35.6091576729881,-9.47048684928859],[-35.6128233528154,-9.47117073154397],[-35.6176283369781,-9.46967742617221],[-35.6204608911572,-9.4637862453389],[-35.6250999018389,-9.46129309440073],[-35.6260112667065,-9.45783214883454],[-35.6243483312105,-9.45126402851208],[-35.625796740627,-9.44796600232912],[-35.6347106966413,-9.44704018175895],[-35.6391545211642,-9.44382112954146],[-35.64187918008,-9.44435233569169],[-35.6519870193854,-9.43595178104982],[-35.665577125384,-9.42968502354495],[-35.6657362496282,-9.42625311349037],[-35.6767931902535,-9.39844099825343],[-35.6660888288363,-9.39864284569075],[-35.6620451882348,-9.39983597085331],[-35.6574093170863,-9.40393328209523],[-35.6545198789892,-9.40274888755108],[-35.6506875466929,-9.40477974738741],[-35.6404385453026,-9.40180938019871],[-35.6335499434751,-9.40557964128738],[-35.6276836567753,-9.40483199440098],[-35.6215777897831,-9.407787224201],[-35.6210149256982,-9.40989595633329],[-35.6167719089964,-9.40645418970906],[-35.6109868436678,-9.40453735851225],[-35.6108013674891,-9.40761446353662],[-35.6069315865234,-9.40683718129083],[-35.6054579583181,-9.40844288033464],[-35.6032455640315,-9.40595094258191],[-35.6019344891853,-9.40721822314242],[-35.6020313425723,-9.405446824911],[-35.6005715270543,-9.40459872015476],[-35.599487607467,-9.40691401486987],[-35.5953474435296,-9.40859657986823],[-35.5891821943028,-9.40358159681319],[-35.5866843309171,-9.40445974342237],[-35.5808772115141,-9.40246586910451],[-35.5789086692996,-9.40361755170859],[-35.575962516357,-9.40179168244016],[-35.5733773377939,-9.4015331021709],[-35.5728811665326,-9.40261916124524],[-35.5686572307466,-9.40156821260291],[-35.5644938984746,-9.40470445794431],[-35.5596553309288,-9.40530302421513],[-35.5496252560007,-9.40359082115941],[-35.5468591077616,-9.4056346681054],[-35.5445175078767,-9.41047468715704],[-35.5460163260925,-9.41685435454479],[-35.5415167184217,-9.42160039983855],[-35.5372107446801,-9.42359977530936],[-35.5346027116458,-9.43025161082312],[-35.5312837582388,-9.43215773828893],[-35.5310910964769,-9.43551965141074],[-35.5292645005562,-9.43784344381981],[-35.5292590101951,-9.43621285154182],[-35.5278129156335,-9.4360998094586],[-35.5245044465229,-9.44193963720443],[-35.53722356149553,-9.459319702393781],[-35.53722356149553,-9.459319702393785],[-35.5519094188845,-9.47315114660808],[-35.5553060494346,-9.47729841339101],[-35.5564126607157,-9.48215316963302],[-35.555611072114495,-9.483673661886158],[-35.5556110721145,-9.483673661886169],[-35.5585270064162,-9.487451272758],[-35.5624022561591,-9.47975615442295]]]}}]}