{"type":"FeatureCollection","features":[{"type":"Feature","properties":{"id":"22","concentrationId":"2100055","name":"Açailândia","state":"MA","municipality":"2100055","population2010":"104047","urbanPopulation2010":"78237","ruralPopulation2010":"25810"},"geometry":{"type":"Polygon","coordinates":[[[-47.6819909617135,-4.61466234489126],[-47.6815546403343,-4.62360056101704],[-47.6862186512697,-4.6284707307396],[-47.6827106657645,-4.63921543394508],[-47.6873459415619,-4.64144364640709],[-47.6889770086819,-4.64773512897296],[-47.6932043897708,-4.65073103061251],[-47.6918595390864,-4.65719653019567],[-47.6928741218432,-4.66186278224155],[-47.6893477766785,-4.67326346263865],[-47.6902255896392,-4.68219916336067],[-47.6859443931192,-4.69048269192262],[-47.6944171822071,-4.6952771297357],[-47.6955645939308,-4.69857833232414],[-47.6992397085457,-4.70094942727423],[-47.6979172437857,-4.70326481911604],[-47.7000106964364,-4.70770630000567],[-47.6989643307392,-4.71038552876911],[-47.6995437945105,-4.71378953735723],[-47.7015889562653,-4.71579187249689],[-47.7013982019654,-4.7172490952695],[-47.6980439348796,-4.71876497362457],[-47.6986778094333,-4.72073391513799],[-47.694016557618,-4.72442857112162],[-47.687483532439,-4.7213168484937],[-47.6810179060515,-4.71266864034544],[-47.6745878703339,-4.71232377372314],[-47.6655411501039,-4.71495104865193],[-47.6558901951763,-4.71552507512206],[-47.6460740752583,-4.72726979926177],[-47.6155749332365,-4.7020189181385],[-47.6045546507765,-4.70597003289066],[-47.5994640320394,-4.70455654864577],[-47.5795198866334,-4.70714389637368],[-47.5577556941699,-4.70309233544287],[-47.513554914028,-4.70389243618695],[-47.5013337398602,-4.70228490612345],[-47.4957325094477,-4.69997398571081],[-47.4937231982669,-4.68438336300176],[-47.4956440494333,-4.65240609166774],[-47.4851460977142,-4.64786187222757],[-47.4707268329769,-4.64954698500532],[-47.4654980037299,-4.64793092307361],[-47.4556783746572,-4.64276662378063],[-47.4518340355123,-4.63773651952472],[-47.4441362057213,-4.63519747618255],[-47.4368887600082,-4.6371656424804],[-47.4310693046047,-4.63656564448889],[-47.4299576508249,-4.63796503276],[-47.4260893645325,-4.63689247430819],[-47.4162233151538,-4.64228064993199],[-47.4108833323998,-4.64284114969928],[-47.4012994543063,-4.64838688384759],[-47.3975598699919,-4.64800979991231],[-47.3933410189728,-4.65213630404714],[-47.3892725121167,-4.65059719080767],[-47.3880804544494,-4.65200100644125],[-47.3900440764729,-4.6551142156485],[-47.3885411132817,-4.65814476546848],[-47.3863082765057,-4.65846259217483],[-47.3848049976525,-4.66056239313992],[-47.3817698774778,-4.66002733519332],[-47.3789954869521,-4.66368462884248],[-47.3749684712179,-4.66597272536092],[-47.3672720893354,-4.66931419779196],[-47.3349274197646,-4.67658125502084],[-47.3392774881655,-4.69088168783958],[-47.3356096076972,-4.69299021402714],[-47.3313099112234,-4.69405160020114],[-47.326642155511,-4.69249820392896],[-47.3219814774632,-4.69303779895524],[-47.3093599359123,-4.69866551260327],[-47.293206149644,-4.69522754201739],[-47.2863949569617,-4.69612264174646],[-47.2530386436185,-4.66505747272412],[-47.2358637697971,-4.64703296889633],[-47.2267990811127,-4.62898137748852],[-47.2266843815789,-4.59282100138808],[-47.2355618961645,-4.55030633137205],[-47.2444034711432,-4.53351872450946],[-47.254619530367,-4.52678148217962],[-47.2490787343961,-4.52499858251856],[-47.2483979979692,-4.52271375503573],[-47.251658299391,-4.51796592998364],[-47.2544835870478,-4.50929458587637],[-47.2539558217038,-4.50030665972453],[-47.2485584729951,-4.492473871372],[-47.2496253549261,-4.48495925146825],[-47.248750048376,-4.47335473613214],[-47.2499143035022,-4.46942804786608],[-47.2444047742609,-4.45130228936909],[-47.2418448414662,-4.43692544925005],[-47.2440153012651,-4.43200379963559],[-47.2219983660317,-4.42532577136723],[-47.2161615968802,-4.41979720167945],[-47.2103032718784,-4.40665758677819],[-47.1969177445582,-4.39374010442226],[-47.1877548966711,-4.38867754992896],[-47.1748367955816,-4.37213894915311],[-47.1385175839193,-4.31863861607923],[-47.126061269412,-4.28398658291439],[-47.1220138750402,-4.2794511399581],[-47.1098134689164,-4.2726476931365],[-47.1009789931859,-4.26510769436454],[-47.0955336143847,-4.24727752593702],[-47.0901271204702,-4.24161085365791],[-47.078137001921,-4.23661655860724],[-47.0727401964029,-4.23662958708571],[-47.0688354749772,-4.25208334377123],[-47.0692602445646,-4.26345396253033],[-47.0717713073,-4.26780738720112],[-47.0728422910389,-4.27401712229233],[-47.0806201568947,-4.28021443414877],[-47.0833421349315,-4.28435174183938],[-47.0842575620368,-4.28792607302978],[-47.082484601683,-4.294509009683],[-47.0882579038791,-4.30330754940383],[-47.0879340939832,-4.30851825551303],[-47.0846440357936,-4.31387809709645],[-47.0802566949905,-4.3165524515344],[-47.0790337159332,-4.32066048449372],[-47.0735899442205,-4.32378209696617],[-47.0699779413289,-4.33239135637593],[-47.0701688467149,-4.33997937624718],[-47.0630901282068,-4.34471067985397],[-47.0626756981249,-4.35363073596966],[-47.0603689127951,-4.35562958084045],[-47.0613701981761,-4.35911401939643],[-47.0591403084784,-4.36156241647228],[-47.0608394857536,-4.36498234755727],[-47.0597867834333,-4.36668381990234],[-47.053562792289,-4.36865462571035],[-47.0514806387205,-4.37158098187678],[-47.0430323615542,-4.37604835065082],[-47.0413144001394,-4.37787373698331],[-47.0423661617689,-4.37987641926128],[-47.0393244567582,-4.38346704706651],[-47.0318648744644,-4.38815588108901],[-47.02869895869,-4.3991485777446],[-47.0208334134312,-4.40615999458806],[-47.020954508044,-4.40958223243405],[-47.0171779274194,-4.41471855561679],[-47.0181144535192,-4.41909007194921],[-47.0170334000713,-4.41993455603489],[-47.0093121798132,-4.42131470061287],[-46.9993734193478,-4.42719089694232],[-46.9897217944252,-4.42335701601343],[-46.9871779801796,-4.4256678339034],[-46.9830493662352,-4.4226309213799],[-46.9790653866582,-4.42592627207973],[-46.9661024363783,-4.42486696873556],[-46.9570522258795,-4.43191453652662],[-46.9492414718164,-4.43452967600371],[-46.9451566746408,-4.43532656976533],[-46.9433030864682,-4.43364134547165],[-46.9375953565404,-4.43266093785196],[-46.9359167116868,-4.4338898848103],[-46.9354384153505,-4.44038257359682],[-46.9330099292648,-4.44416768519045],[-46.9282206913318,-4.44126617729222],[-46.9261087738008,-4.44153417076529],[-46.9226230591069,-4.43847726721208],[-46.9154459098008,-4.43728972414142],[-46.9109113229991,-4.43170274168813],[-46.9068228359051,-4.43184778164977],[-46.9063696765193,-4.4288306380235],[-46.9024009467462,-4.43030237765254],[-46.8985671980178,-4.42812448855426],[-46.8936916062826,-4.42926353748221],[-46.8901850435049,-4.42576145332834],[-46.887912203985,-4.42712272923051],[-46.8860626951372,-4.42587020384679],[-46.8842912708254,-4.42859226462127],[-46.8803283281898,-4.42664378538235],[-46.8768703377958,-4.43065720966245],[-46.8739059564946,-4.43093576477366],[-46.8568139929713,-4.41467569662604],[-46.8560099855723,-4.40898491172426],[-46.8456240606019,-4.39725323584811],[-46.8424411350503,-4.39581403818728],[-46.8413432157168,-4.40037467115411],[-46.8436579501542,-4.40318305245586],[-46.8417619742357,-4.40949127050567],[-46.8421752441921,-4.41598038718508],[-46.8441584615437,-4.41849762196762],[-46.8419308750098,-4.42459711006853],[-46.8435279972193,-4.43042370878709],[-46.8481444969709,-4.43027870929495],[-46.8501250316448,-4.43344479324259],[-46.8563093078283,-4.43563814618346],[-46.8568627659039,-4.43897364082085],[-46.8591587944428,-4.44138095146968],[-46.8586496945277,-4.45506386210753],[-46.8601815826139,-4.45747196236114],[-46.8651933613845,-4.45783975629968],[-46.865662534998,-4.46502166841521],[-46.8677372889447,-4.46868514760143],[-46.8718728240715,-4.46965748920173],[-46.8739643818507,-4.47261222527391],[-46.8765846564567,-4.47271380999428],[-46.8783377696723,-4.47572453695779],[-46.8856708002672,-4.4767502092547],[-46.8977277321491,-4.48888257896777],[-46.9027789767683,-4.50115400725161],[-46.9062273201347,-4.50201306215302],[-46.9063913402881,-4.50968987119057],[-46.9106474097501,-4.51532604206312],[-46.9111553567343,-4.51831152056019],[-46.909685940054,-4.52417936128842],[-46.9158421744767,-4.52855703078228],[-46.9191320770836,-4.5351219216393],[-46.9188446474625,-4.5387073333767],[-46.914499352663,-4.54549222718447],[-46.9167096902,-4.55634209890871],[-46.9203844037172,-4.55802674403896],[-46.9247570460008,-4.56269527047033],[-46.9270506958329,-4.56717297874992],[-46.9286646461564,-4.57633091723801],[-46.9318399751347,-4.57711866309581],[-46.9390028764815,-4.58506925274378],[-46.9383191713926,-4.58905300209433],[-46.9350589302254,-4.59384252421308],[-46.9386680498906,-4.60807618956443],[-46.9358992369602,-4.61127013540835],[-46.93801703246,-4.62371117493075],[-46.94209160974,-4.62689109584733],[-46.9421078200198,-4.63286532637369],[-46.940033951006,-4.63575819898165],[-46.9398576928782,-4.64492574402784],[-46.9357093388149,-4.65011534394791],[-46.9355200180344,-4.65389925944323],[-46.9374134938376,-4.65868404573206],[-46.9346856081543,-4.67541378481826],[-46.929841200411,-4.67761896654202],[-46.929642436749,-4.68070445594584],[-46.9263696671264,-4.68230870528249],[-46.9255841461913,-4.68440549621665],[-46.9272909254358,-4.6911333811006],[-46.9320524165857,-4.69162011937294],[-46.9346350392756,-4.69409632708379],[-46.9353417499218,-4.69810373939601],[-46.9339767850006,-4.70605381373247],[-46.9360741308165,-4.71122769530183],[-46.9335162412815,-4.71910197117899],[-46.9390992604225,-4.72914530391262],[-46.9392228092852,-4.7378114283547],[-46.9369664984051,-4.74638069221516],[-46.9374732420964,-4.75086455905211],[-46.9339160726686,-4.75615524906545],[-46.9325458988741,-4.76213141403349],[-46.9278876067276,-4.76384484196587],[-46.9266125443334,-4.76932195154677],[-46.9298208667396,-4.78175942435792],[-46.9293414084792,-4.7873416026328],[-46.9180974763174,-4.80837049859958],[-46.9209806416433,-4.81365693841696],[-46.9190038436524,-4.81545487833989],[-46.9218930740061,-4.8196339028823],[-46.9216163310288,-4.82760003551318],[-46.9209453054814,-4.83566797859431],[-46.9161991477724,-4.84165713336995],[-46.9201723067065,-4.84304016746973],[-46.9213598650657,-4.84164071624599],[-46.9229478969278,-4.84203594939948],[-46.9236597606894,-4.84810963595089],[-46.9272263325292,-4.84690631157696],[-46.9299378307662,-4.85057033845033],[-46.9190665183052,-4.85058208989147],[-46.9264266931373,-4.87965658348452],[-46.9241556153893,-4.88324444227715],[-46.9297296143302,-4.88930450859612],[-46.9287774867915,-4.90365583315014],[-46.9241308255771,-4.90864208736241],[-46.918482371764,-4.91175084582483],[-46.9205719807123,-4.91383263696656],[-46.9259270019295,-4.91195487501745],[-46.9285294061071,-4.92078158510203],[-46.9280376685036,-4.92268184539081],[-46.9234812650483,-4.92508221597143],[-46.9131031165156,-4.93945279501043],[-46.9146056075627,-4.94441124308435],[-46.9187841842427,-4.9477808193293],[-46.9201891474112,-4.953256168937],[-46.9110058660278,-4.96908637823373],[-46.9100379311056,-4.97776016759765],[-46.9111537091763,-4.98602183993592],[-46.9067901311596,-4.9972116293132],[-46.9088902396928,-5.00222868710421],[-46.9151171941032,-5.00847033553748],[-46.9214852548406,-5.01067480140092],[-46.9286843997652,-5.0195873211979],[-46.9586541864415,-5.03762524201125],[-46.9813663677636,-5.04234794809929],[-46.9955092663395,-5.04910069564056],[-47.0092497335883,-5.04667584911113],[-47.0254350518861,-5.04945371641583],[-47.0421525377094,-5.06055999294926],[-47.0568701534348,-5.05667320850171],[-47.066677254052,-5.05563093382052],[-47.074678142782,-5.05777717038007],[-47.0813146736332,-5.05703860484766],[-47.0876439636979,-5.05990955018553],[-47.1001584085836,-5.06970823584636],[-47.1007980693753,-5.07349137073015],[-47.0983229066767,-5.07859631656669],[-47.1021463536712,-5.08413444604781],[-47.1092394208625,-5.08956730898411],[-47.1110684719324,-5.08948347778022],[-47.1121813712732,-5.08661761451123],[-47.1173721169296,-5.08751667935122],[-47.1134150099947,-5.09355331203567],[-47.1133516347701,-5.10031901700899],[-47.116123543167,-5.10239566043135],[-47.1198355695558,-5.10081983866457],[-47.1240895157185,-5.10557897988599],[-47.1274032197827,-5.113411565891],[-47.1285558871444,-5.1230026547487],[-47.1353224203933,-5.12887798053436],[-47.137583887986,-5.13364310224733],[-47.1376802647324,-5.13667819993896],[-47.1344024265307,-5.13895083980935],[-47.1355525748914,-5.14338176985274],[-47.1968724160291,-5.16222321063259],[-47.2120418970159,-5.16884499530023],[-47.2197362554238,-5.16494197269384],[-47.2245956296845,-5.15645455793147],[-47.2300411110084,-5.15160769234109],[-47.2367941454334,-5.13903642109392],[-47.2426486779941,-5.12249283987262],[-47.2473958465411,-5.11339524229652],[-47.2495785380191,-5.10266662436516],[-47.2541236756671,-5.09944932222839],[-47.2566956935514,-5.09413400158287],[-47.2604316221216,-5.09109403136444],[-47.2602867170583,-5.08571534089021],[-47.269060726871,-5.08809849215163],[-47.2711439839077,-5.08179703520495],[-47.2808389318712,-5.08096418834657],[-47.2828933269654,-5.08123423047533],[-47.2882247220932,-5.0862320985325],[-47.2902853989519,-5.08615999448814],[-47.2920631131221,-5.08424364712658],[-47.2913403091079,-5.07915955476961],[-47.2959696628696,-5.07872678751119],[-47.3012966540173,-5.08189942931517],[-47.3088777392163,-5.07843495121199],[-47.3091981370843,-5.07562498890206],[-47.3125812130525,-5.07622298410337],[-47.3125062077952,-5.07056780695865],[-47.3158407698356,-5.06721567936007],[-47.3143953380743,-5.06430671248473],[-47.3167865238789,-5.06296141393807],[-47.317918848576,-5.06028905869306],[-47.3212858905314,-5.05876058533272],[-47.3187580887148,-5.04998755847902],[-47.315459518442,-5.0469698662663],[-47.3157837842942,-5.04393711850316],[-47.3210298166727,-5.04621476310081],[-47.3248746090759,-5.04311370013711],[-47.330728411387,-5.04364138364292],[-47.3343889389983,-5.04003257874047],[-47.3380884513209,-5.03983577649985],[-47.3417406098412,-5.03633096560151],[-47.3448454742392,-5.02856620286792],[-47.3489393959363,-5.02886192693633],[-47.3505358580434,-5.02635835915089],[-47.4767311332351,-5.04674268132964],[-47.4761473769998,-5.0631053522302],[-47.4783425645577,-5.07035512179141],[-47.4817051728554,-5.07308712457109],[-47.4876232218342,-5.07613678228665],[-47.4942630316136,-5.07719348838874],[-47.4977218224041,-5.07485319431942],[-47.4998155880189,-5.06707903456976],[-47.5021003714349,-5.06497491416094],[-47.5077669241042,-5.06171743840901],[-47.5119496241758,-5.06199901164501],[-47.5379182632173,-5.08199288326488],[-47.5423589643946,-5.08904200778238],[-47.5545891902389,-5.09522162727621],[-47.6792475555302,-5.0420613665388],[-47.6854028159871,-5.03616926390038],[-47.6972320296344,-5.02962948930946],[-47.7132912476929,-5.00834939111145],[-47.7161445699159,-5.00043087398558],[-47.7138760453432,-4.99445917595018],[-47.7172345653229,-4.98648874006324],[-47.7207904774985,-4.98323954886604],[-47.7255684604161,-4.98327768191945],[-47.7449246506521,-4.9675542014652],[-47.7485127918318,-4.96677171754067],[-47.7515403693925,-4.96385599046152],[-47.7654317491758,-4.96161040579557],[-47.7670935389356,-4.95979827007403],[-47.776097364202,-4.9568951146178],[-47.7755657866317,-4.95416154521911],[-47.7777857936794,-4.94906673114468],[-47.7789858310312,-4.94888734067819],[-47.7784864015261,-4.94570094644149],[-47.7825104719806,-4.94234905806252],[-47.788040431121,-4.9411050303728],[-47.7927030553017,-4.93521185754116],[-47.7950676652405,-4.93613470135535],[-47.7974270357291,-4.93433148690855],[-47.8015986039923,-4.93389998139895],[-47.8037343472623,-4.92792645773977],[-47.8066231540353,-4.92939625753121],[-47.8062107033612,-4.92594531062752],[-47.8040404180308,-4.92429337024283],[-47.8046170948031,-4.92229643103542],[-47.8077952593437,-4.9211507064399],[-47.8099006612865,-4.91852231545244],[-47.8115996658918,-4.92199236035907],[-47.8135997815046,-4.92118905533061],[-47.8171528680104,-4.91041273286129],[-47.8210987630974,-4.90383694491902],[-47.824933545147,-4.90059487365443],[-47.8286460481765,-4.90044372729614],[-47.8275391401192,-4.89355432956859],[-47.8322589207126,-4.88454235194792],[-47.8355431521947,-4.88221750733204],[-47.8374825266972,-4.87798135335675],[-47.8441187319938,-4.8749748226299],[-47.8498976774358,-4.87006491636277],[-47.8538404914455,-4.87182714960323],[-47.8553173302305,-4.87103220647112],[-47.8566362489637,-4.8616342856937],[-47.8609526521431,-4.85472268910076],[-47.8669279969295,-4.85534678982242],[-47.8699835928685,-4.85234139134207],[-47.8751492159635,-4.85148249292269],[-47.881458173256,-4.84741103539091],[-47.8934878835589,-4.83937659115674],[-47.8952331142168,-4.83678803653862],[-47.9195803970177,-4.82930882204448],[-47.9218389508069,-4.82645932553738],[-47.9263462953452,-4.82447243355592],[-47.9319527786977,-4.81648700417186],[-47.9398751719016,-4.81548704708951],[-47.9679458395289,-4.79123921042117],[-47.9775731557765,-4.78852563744817],[-47.9800653075678,-4.78477274766413],[-47.9967343460132,-4.78076212836947],[-48.0063978743624,-4.78574451010104],[-48.0110144928245,-4.78469188422304],[-48.0123167615093,-4.78080326965511],[-48.0159603018264,-4.77875451960535],[-48.0253773871567,-4.77829563243745],[-47.81612795228072,-4.61469677319319],[-47.81612795227707,-4.614696773193026],[-47.6799572950931,-4.60861736380025],[-47.6819909617135,-4.61466234489126]]]}},{"type":"Feature","properties":{"id":"23","concentrationId":"2101202","name":"Bacabal","state":"MA","municipality":"2101202","population2010":"100014","urbanPopulation2010":"77860","ruralPopulation2010":"22154"},"geometry":{"type":"Polygon","coordinates":[[[-44.872744575102,-4.37584580174228],[-44.88087268013,-4.35272311767767],[-45.0776447781839,-4.30013870723548],[-45.0810156251709,-4.2965301190697],[-45.0833864782034,-4.28770827341805],[-45.0822924637262,-4.28171960337693],[-45.0774699418843,-4.27269291104899],[-45.0774666701507,-4.26050684101785],[-45.0788315289519,-4.25584482927542],[-45.0771917366093,-4.25004040154323],[-45.0679083975544,-4.24523957134909],[-45.0637626713102,-4.2447033631696],[-44.9616797256388,-4.17175070593026],[-44.985983661117,-4.15109126045326],[-45.0024476892095,-4.11664808314248],[-45.006128086442,-4.11424142090483],[-45.0116682259078,-4.11391824233295],[-44.8420473079369,-4.11305711719218],[-44.8391528372336,-4.10974350575816],[-44.8400083802825,-4.10403473891205],[-44.844193903326,-4.09664827060118],[-44.848484290018,-4.09675932608202],[-44.8539570702625,-4.09271615132928],[-44.8547082281022,-4.09066807756967],[-44.8529942371943,-4.08349947901769],[-44.8454863756957,-4.07348234533391],[-44.8361780642662,-4.06702514469464],[-44.8316540031297,-4.06743768709953],[-44.8311827970484,-4.07400525973493],[-44.8295756536934,-4.07672129055505],[-44.8230269290495,-4.07894039108613],[-44.821681212318,-4.07643486727528],[-44.8232936346935,-4.07168223444752],[-44.8167969736014,-4.06643284130252],[-44.8113571840867,-4.06729923647055],[-44.8082121685567,-4.06501461223451],[-44.8082660874099,-4.05776417717499],[-44.8013533909462,-4.04729169785355],[-44.8055943877707,-4.03991869778964],[-44.8076819741438,-4.03991887765404],[-44.8090326758173,-4.03819022419947],[-44.8090331623505,-4.03584464211651],[-44.8033854190019,-4.03148674151988],[-44.8026474874915,-4.02889454644611],[-44.8033904776884,-4.00336878304285],[-44.7909070216417,-3.9949623927002],[-44.7934209891873,-3.97982725412442],[-44.7807801706683,-3.97074863584084],[-44.7766516511528,-3.97087622445815],[-44.7732949711859,-3.97372817881234],[-44.7709731770704,-3.97262490311675],[-44.7698137755852,-3.97145771440194],[-44.7703291051041,-3.96886453457058],[-44.757820718951,-3.94979993601817],[-44.7533062212051,-3.94474194828223],[-44.7440188289058,-3.93857905258119],[-44.7395036827487,-3.93689216094441],[-44.7320462084657,-3.93710378760965],[-44.7160137641239,-3.93099284034725],[-44.7107683819552,-3.9305173166208],[-44.7086249431865,-3.92505583276045],[-44.7127120300361,-3.9242617179039],[-44.7132656976537,-3.92063388424629],[-44.7159881073652,-3.9187454986058],[-44.7153462756101,-3.91564991521136],[-44.7170192403456,-3.91184774347852],[-44.7128484122244,-3.91273126803356],[-44.7062655780939,-3.90961435002219],[-44.7021290357264,-3.90587181053559],[-44.6996818446414,-3.88878559727744],[-44.6943475680857,-3.88985381739968],[-44.6924326857198,-3.89283198171052],[-44.6864612394946,-3.89134660745992],[-44.6805149032401,-3.88759621419388],[-44.6793523838055,-3.8861384671165],[-44.6814554169339,-3.88316156815182],[-44.6790963881877,-3.88323488358299],[-44.6774039315462,-3.88068067857041],[-44.6756801928865,-3.88103583703423],[-44.6755992853787,-3.87850013827074],[-44.6725988412635,-3.88120747264668],[-44.6714062143253,-3.88482704423268],[-44.6681578433098,-3.88544306364644],[-44.663677518003,-3.8915086365143],[-44.6585431346579,-3.89111230169136],[-44.6612636450011,-3.88768010295434],[-44.6613780378661,-3.88532335668753],[-44.6555966048994,-3.8838427767227],[-44.6518153055319,-3.88055184349275],[-44.6508237490167,-3.88316577248236],[-44.6544079133944,-3.88782810708141],[-44.6492346055925,-3.88834346268061],[-44.6481012916412,-3.88507261490917],[-44.6502110202223,-3.88304303930478],[-44.6489379462292,-3.88189565276212],[-44.6509331956104,-3.87727571670093],[-44.6431041484377,-3.87442344218806],[-44.641657685154,-3.87015150149057],[-44.6452884011388,-3.86662933817338],[-44.6410730179054,-3.86024601504153],[-44.6413306979533,-3.85607124429243],[-44.636063828283,-3.85692685568977],[-44.6345464651472,-3.85523164712277],[-44.6307255191674,-3.85536404351575],[-44.6246920017344,-3.85910619989119],[-44.6240553024102,-3.86294018694003],[-44.6252618868266,-3.8670004685967],[-44.622653981496,-3.86808477669105],[-44.6200457829864,-3.86578507262295],[-44.6170570930104,-3.87156632122867],[-44.6140037372826,-3.8733533244963],[-44.6152085041691,-3.87958559839661],[-44.6143166321069,-3.88447590124179],[-44.6121537661833,-3.88722385080002],[-44.61100494792,-3.89575573613826],[-44.6122114091292,-3.89850419920936],[-44.610239072675,-3.90054738605295],[-44.6144991117446,-3.90134939875571],[-44.6154618746658,-3.90390602384389],[-44.6172966130482,-3.9037790521615],[-44.6211097070473,-3.90726407257882],[-44.6265157962669,-3.90688296058011],[-44.6277854933058,-3.90800358869461],[-44.6271497598535,-3.91017496310401],[-44.6237162714887,-3.90921513736861],[-44.6242227831549,-3.91423342273425],[-44.6209149372745,-3.92052573537434],[-44.6213564234601,-3.92410561268383],[-44.6247270501132,-3.92385120436956],[-44.6272689667894,-3.92746337093774],[-44.6228193857061,-3.92733274351127],[-44.622688636871,-3.9306260689379],[-44.625805746438,-3.93273469854745],[-44.6322101991414,-3.93391340487966],[-44.639019267625,-3.94257534297765],[-44.6374917736264,-3.94475197302507],[-44.6384580717826,-3.94928924520247],[-44.6313182875089,-3.96332876940716],[-44.6311603989332,-3.97657873472077],[-44.6280705379249,-3.97982991701701],[-44.631766778514,-3.98184377247208],[-44.6352959826235,-3.98105350041869],[-44.6392403218833,-3.98579304271471],[-44.6384024649018,-3.98968987438814],[-44.6346856280393,-3.99263053607035],[-44.6364024850866,-3.99385470043405],[-44.6354141724261,-3.99625225973398],[-44.6364633044379,-3.99869244869751],[-44.6317841309328,-4.00457518219883],[-44.6319644144261,-4.00620859475077],[-44.635933135206,-4.00943150955647],[-44.6353913161563,-4.01097198077224],[-44.6332245426785,-4.01387195532641],[-44.6318703768164,-4.01368971310972],[-44.6301540629596,-4.01899628155309],[-44.6174271154689,-4.02266397586175],[-44.6172430548231,-4.02565766696773],[-44.619951193193,-4.02588484111249],[-44.6205812546212,-4.02942327676278],[-44.6263579112885,-4.0317380058043],[-44.6268100544404,-4.02838139778322],[-44.6348422081014,-4.02707079867839],[-44.6376425026993,-4.0234435981435],[-44.6395366970609,-4.02553115124158],[-44.6436878156401,-4.02503391248501],[-44.6411647307677,-4.02140506888878],[-44.6416152263616,-4.02013485563902],[-44.647212284819,-4.01927642216913],[-44.6500102735552,-4.01528661948186],[-44.6538911872285,-4.01651221466694],[-44.6602088724414,-4.01492812363397],[-44.6669780964619,-4.01574724054269],[-44.6810569633082,-4.01824747004468],[-44.6886362633528,-4.02382865007213],[-44.6945028908956,-4.02396544954582],[-44.6999166540303,-4.02786746850882],[-44.7050612806535,-4.02664557043671],[-44.7074067215429,-4.03000153903974],[-44.7143575555567,-4.02723786123824],[-44.7212143456655,-4.03309069228158],[-44.7242815698385,-4.04003098714032],[-44.7287054788747,-4.03694857881379],[-44.7320466752138,-4.0306464383824],[-44.7354766814037,-4.02965045270617],[-44.7357492919962,-4.0255685495489],[-44.7367413485343,-4.02552347013199],[-44.738365784953,-4.02751729228913],[-44.7374614761662,-4.03305167339596],[-44.7409800170141,-4.03700049038031],[-44.7381804481691,-4.04035314947822],[-44.7367351333197,-4.04529577128278],[-44.7337557747092,-4.04774465938846],[-44.7355603228506,-4.05114482157621],[-44.7334837019113,-4.05450103389558],[-44.7388992457036,-4.05503820884622],[-44.7453960605797,-4.05953075324163],[-44.7467501023353,-4.06216088621591],[-44.7440405169563,-4.06392808911],[-44.741692303457,-4.06809986151934],[-44.737901720388,-4.06714622851558],[-44.7370870443316,-4.06859742762913],[-44.7449390449009,-4.07771562777395],[-44.7461133670382,-4.07553914791329],[-44.7508826337265,-4.07269200852932],[-44.7538769660491,-4.07177793850098],[-44.7563128850316,-4.07368215760545],[-44.7563108903353,-4.07917164275705],[-44.752545802147,-4.08583863094799],[-44.7548359725021,-4.09068733924926],[-44.7584160188841,-4.09077102836023],[-44.7562254358551,-4.09506962316453],[-44.4727874276976,-4.09112940100102],[-44.4709829371128,-4.12965742315152],[-44.4867879806807,-4.12970290006876],[-44.4769364832321,-4.27889075530408],[-44.7399124920678,-4.28066982295395],[-44.8732857142643,-4.38427910339783],[-44.872744575102,-4.37584580174228]]]}},{"type":"Feature","properties":{"id":"24","concentrationId":"2103000","name":"Caxias","state":"MA","municipality":"2103000","population2010":"155129","urbanPopulation2010":"118534","ruralPopulation2010":"36595"},"geometry":{"type":"Polygon","coordinates":[[[-42.8962816887489,-4.88790515989519],[-42.8904944785373,-4.89479149633047],[-43.0390707417213,-4.92738413866704],[-43.0433413775025,-5.07557971972825],[-43.0520690596393,-5.08100295542204],[-43.0550025024635,-5.08009075778222],[-43.0632912857642,-5.08105931233734],[-43.0708936812983,-5.07827225935723],[-43.1891350555383,-5.14821175966495],[-43.2010959191413,-5.14716631487347],[-43.213726747991,-5.15619977909648],[-43.2131390473292,-5.16115389873341],[-43.3133199736378,-5.20213319399164],[-43.4424477383724,-5.25197330612316],[-43.4424194142246,-5.26004726027282],[-43.4365870139795,-5.2737063667554],[-43.4467325420731,-5.2823202828547],[-43.4474224785645,-5.28839908205197],[-43.4653398785325,-5.27887593337755],[-43.4669200521187,-5.27568257748892],[-43.4857551068127,-5.26651527885702],[-43.4921146167961,-5.26908296650568],[-43.4993706906049,-5.26901127614946],[-43.5076787562696,-5.2732996474607],[-43.52531380239,-5.26941901707392],[-43.5289157751429,-5.26284946413142],[-43.5305570207898,-5.24924701853502],[-43.5363670791773,-5.23816434740667],[-43.5613428118212,-5.23208854025387],[-43.6024379280679,-5.22979202068519],[-43.6033120394191,-5.23374451319871],[-43.6055750457517,-5.23588583406394],[-43.614940444346,-5.23930079999189],[-43.6249599207637,-5.24904269346547],[-43.6423484429263,-5.25247862798626],[-43.6663940382542,-5.24786819865841],[-43.6743720851036,-5.25009835455535],[-43.6886420704751,-5.25890043760507],[-43.6918368077224,-5.25824928617556],[-43.6987153317471,-5.25150769562362],[-43.7130845384207,-5.24710520304262],[-43.7171616958555,-5.23863956626292],[-43.7136507497822,-5.22883801895938],[-43.7391360706731,-5.21170468392399],[-43.7401380701158,-5.19949432860033],[-43.7355027547483,-5.20082920040721],[-43.7296945948297,-5.19853212415813],[-43.7244779972617,-5.19112456854396],[-43.7248031921136,-5.18320589313743],[-43.7183244724964,-5.18131851833494],[-43.716148635651,-5.17899794549873],[-43.7105393329238,-5.17911296878845],[-43.7067335072455,-5.17049134999576],[-43.691937236814,-5.16294409099698],[-43.6888016398837,-5.16377245023835],[-43.6818124021206,-5.1626665826966],[-43.6744210343032,-5.1551445829561],[-43.666227932573,-5.15197708797218],[-43.6602563748318,-5.13992344581032],[-43.6392296444325,-5.11335832062997],[-43.6322253565149,-5.113650913259],[-43.6211467737046,-5.11997569232432],[-43.6149072242889,-5.1186135045096],[-43.5984765106824,-5.11069112839284],[-43.593618198521,-5.11219293325724],[-43.5933124074416,-5.10428342643895],[-43.5991447447341,-5.09463155510213],[-43.608257792663,-5.08893843645962],[-43.6109529538157,-5.08264400231883],[-43.6104558580514,-5.0774138582629],[-43.5752468954278,-5.02607198533384],[-43.5724538835399,-5.01595669154801],[-43.5669550877071,-5.0120304862179],[-43.5638422049537,-5.00514716431013],[-43.5568894338003,-5.00016461440538],[-43.5589815905279,-4.99994651531939],[-43.5478933678846,-4.98586693621007],[-43.5510912113903,-4.9809554462368],[-43.5476236944779,-4.97570319054979],[-43.5468682801469,-4.96810380324785],[-43.5523650974712,-4.95213772527576],[-43.5530605899742,-4.94501451101082],[-43.5500646064963,-4.92982032115083],[-43.5583791607696,-4.91405698724015],[-43.5622283751393,-4.89356508366166],[-43.5645890235646,-4.89028103743988],[-43.5650054987048,-4.87869326388295],[-43.5712746915737,-4.88031930649077],[-43.5744511204229,-4.87767117088777],[-43.5847436516981,-4.87813607182222],[-43.5954861875375,-4.88317124105988],[-43.6028773080413,-4.88142876952208],[-43.61239230616,-4.87634701989901],[-43.6185283876749,-4.87528622457956],[-43.6269243728615,-4.86459690072633],[-43.6305905077457,-4.8650617692852],[-43.6343678527941,-4.86364092498867],[-43.6388319417407,-4.85896904318673],[-43.6443980680164,-4.86011925000332],[-43.6496613385998,-4.85605985417886],[-43.6581624257553,-4.85380579160398],[-43.6672861585294,-4.84910729616474],[-43.6702267122929,-4.84949594897881],[-43.6751136714587,-4.85412520021777],[-43.6916180206551,-4.85559986534145],[-43.7036121816568,-4.86255688489229],[-43.7130169165974,-4.8637547584753],[-43.7230322102682,-4.85664375970168],[-43.7299700364879,-4.85447971296834],[-43.7378860849748,-4.84965615780539],[-43.7441214975091,-4.84464340866635],[-43.7482895386312,-4.84483111876109],[-43.7503950547879,-4.84653338340888],[-43.755120145878,-4.8516458898459],[-43.7560139325969,-4.85511850861224],[-43.7570080252002,-4.85260165514223],[-43.7687311377318,-4.85129170714652],[-43.7701622432929,-4.84243837263273],[-43.7753199496559,-4.83961559588301],[-43.7857896824478,-4.83912660570827],[-43.7953985877746,-4.83272111248931],[-43.7960106285876,-4.82771781522495],[-43.793912487771,-4.82509868635527],[-43.7917977346777,-4.82471484221617],[-43.7865675843265,-4.82781836662428],[-43.7813062922515,-4.82498684666558],[-43.7889704442306,-4.82375245431229],[-43.7978410834992,-4.81951496664238],[-43.8023565731972,-4.81973123201073],[-43.8064492655212,-4.8121553556851],[-43.8065964413726,-4.80716103005744],[-43.8086767783107,-4.80394996921564],[-43.8180296673352,-4.79816931416247],[-43.8245439956088,-4.79620192487886],[-43.8265706151418,-4.7889670615806],[-43.8352643910388,-4.77897311961374],[-43.8415925452597,-4.763414634178],[-43.8353633191618,-4.75640919153092],[-43.7378110428453,-4.74150171453243],[-43.7336743619822,-4.7395532820583],[-43.721726558334,-4.73916401680588],[-43.7136521383355,-4.73480998509269],[-43.7004719703052,-4.7315944780027],[-43.6936555885346,-4.73559761313931],[-43.6870355935178,-4.73580935221981],[-43.6775067260545,-4.73871407339574],[-43.6699788501438,-4.74960941574188],[-43.6611766151087,-4.75242618322176],[-43.6580632017553,-4.75503395904992],[-43.6555590089411,-4.75364697422845],[-43.6531983074559,-4.75470134479116],[-43.6462575521443,-4.75118249187847],[-43.642486010421,-4.7508624663297],[-43.63962343957,-4.74729806815129],[-43.6400069275776,-4.74404504314419],[-43.6322614103358,-4.73979466908867],[-43.6336124942212,-4.7322642480965],[-43.630314325046,-4.72678763044474],[-43.6302608999205,-4.7238032158457],[-43.6288139851773,-4.72350785780133],[-43.6292880313176,-4.72069405448696],[-43.6215591542315,-4.71671768587248],[-43.6215896133699,-4.71354594788716],[-43.6194539159654,-4.71115301559917],[-43.6157774451729,-4.69751625097416],[-43.610817372024,-4.68892211366455],[-43.611005788986,-4.68710971264307],[-43.6069519941392,-4.68452346118875],[-43.6054785107247,-4.67815786998966],[-43.5926203746305,-4.67112525972289],[-43.5907537867578,-4.66820906229834],[-43.5907317695555,-4.66302875597229],[-43.584262102514,-4.658699401656],[-43.5831513246738,-4.66059607814646],[-43.5713450923021,-4.66537130823923],[-43.5583134275226,-4.6748600281677],[-43.5536700326459,-4.67662546209534],[-43.5410090962927,-4.67757917423945],[-43.535093801038,-4.68024103079886],[-43.5221730829214,-4.67802185742273],[-43.5089196246409,-4.68359864695993],[-43.504953327534,-4.68210982111128],[-43.4997858257552,-4.68268999444763],[-43.4983925834509,-4.67872106142778],[-43.4946715899219,-4.67925942887951],[-43.4945074474607,-4.67699244034878],[-43.4917023423891,-4.67662996050422],[-43.490261041214,-4.671182168822],[-43.4844497039906,-4.66310049669051],[-43.4826416475939,-4.65565517134905],[-43.4803984281449,-4.65311402539191],[-43.4807584789206,-4.65074456450998],[-43.478508485778,-4.64775243013049],[-43.4743404968164,-4.64847923342983],[-43.4711740972067,-4.64438774889544],[-43.4633947951336,-4.64256412343547],[-43.4570653072181,-4.64701662731546],[-43.4521784038102,-4.64537860124142],[-43.4510875324636,-4.64047297664649],[-43.4461088928111,-4.64062390087231],[-43.4438436939313,-4.63792975415482],[-43.4278426035532,-4.63819061150748],[-43.421229688899,-4.62965778008244],[-43.4076452162537,-4.63327710975079],[-43.4029541681003,-4.63037320875652],[-43.3912851686756,-4.63499297394657],[-43.3890037001606,-4.63816917526719],[-43.366756520497,-4.64424350213585],[-43.3623095780246,-4.6496881479896],[-43.3565340221274,-4.65031453388861],[-43.3554455492726,-4.65521403050304],[-43.3453087266164,-4.65811350863146],[-43.3433093871185,-4.66492130277584],[-43.3357897552929,-4.67172561744327],[-43.328925620421,-4.67308091465243],[-43.3247556601456,-4.67644287004237],[-43.312704096317,-4.68142436863968],[-43.3056429127902,-4.68068985095579],[-43.3009507908463,-4.68422747721626],[-43.2981494188605,-4.69276243913521],[-43.2898963098668,-4.69484424736407],[-43.2814737847873,-4.69429136575389],[-43.2757861645998,-4.69782486772341],[-43.2718061276506,-4.702907504078],[-43.2669216029496,-4.70398902067673],[-43.2624789232636,-4.71261427902573],[-43.2572247619132,-4.71415477272455],[-43.2535895223385,-4.71732227040639],[-43.248724396014,-4.71314658414746],[-43.2398691306558,-4.69470731029407],[-43.2293704244055,-4.68556144880177],[-43.2207009742705,-4.68280229279151],[-43.2160843872846,-4.67753450311477],[-43.2119242233242,-4.67661397955146],[-43.2048907587015,-4.64302252496953],[-43.2075323994007,-4.63758371391719],[-43.2040901507398,-4.62941963061144],[-43.1598100216152,-4.59096872532638],[-43.1581677498418,-4.58761142302871],[-43.1341442409639,-4.56253633958034],[-43.1327785691756,-4.54974128643119],[-43.1298094457493,-4.53984198641849],[-43.1251106292521,-4.5377468457403],[-43.1209689121855,-4.51296949724446],[-43.1219752580517,-4.50969725012794],[-43.1111739200404,-4.49457904578629],[-43.106806198847,-4.48212862363704],[-43.0917509911153,-4.46452913311293],[-43.0907514414258,-4.46080230927908],[-43.0843641981492,-4.45181020397769],[-43.082672376429,-4.44615562488212],[-42.9508037505926,-4.38683566733215],[-42.9461439610749,-4.38608336735349],[-42.9368617812461,-4.38140167394807],[-42.9313385391422,-4.381759078019],[-42.9155400210551,-4.39230959691031],[-42.9031637012438,-4.39865826556644],[-42.8800770296312,-4.41709199599876],[-42.8727759780289,-4.4266706751115],[-42.8720544195758,-4.43261092655297],[-42.8786124126327,-4.45187299464295],[-42.8787847353272,-4.45772451897131],[-42.8764040868791,-4.46404492463353],[-42.8670153607703,-4.47016839585473],[-42.8572470407183,-4.47351985885433],[-42.851456385204,-4.47815805385108],[-42.8493606599665,-4.48259931620545],[-42.8518971402408,-4.49464223395188],[-42.8594784062034,-4.50087273079185],[-42.8603893115175,-4.51520487640386],[-42.8722537390188,-4.52960503774227],[-42.8747191098989,-4.53562435218208],[-42.8743624675538,-4.54014345895343],[-42.8674694347666,-4.56085380336032],[-42.867220943092,-4.56644139105731],[-42.8690783542826,-4.57227679683667],[-42.9130042692316,-4.6474335161438],[-42.9204613828865,-4.65477905540905],[-42.9477051400801,-4.67491376265997],[-42.9537140160889,-4.68569824647682],[-42.953923693024,-4.69382509695061],[-42.9502773288356,-4.70033453291234],[-42.9425981851581,-4.70855934923452],[-42.9230435864923,-4.72167269403957],[-42.9211646779075,-4.72701638289971],[-42.9205400528811,-4.73725743608179],[-42.9228455350933,-4.74539607307026],[-42.9260463220801,-4.75044948865292],[-42.9420363022335,-4.75994788888392],[-42.9484678173359,-4.76686047293242],[-42.9513249275034,-4.77854354045202],[-42.9487433291413,-4.7963861581946],[-42.9392249684575,-4.8092371275913],[-42.9244485127886,-4.82290599711405],[-42.9079491908025,-4.833314852998],[-42.8975078792852,-4.84269235197041],[-42.8937203314281,-4.85821058914735],[-42.8948166508677,-4.88605254748706],[-42.8962816887489,-4.88790515989519]]]}},{"type":"Feature","properties":{"id":"25","concentrationId":"2103307","name":"Codó","state":"MA","municipality":"2103307","population2010":"118038","urbanPopulation2010":"81045","ruralPopulation2010":"36993"},"geometry":{"type":"Polygon","coordinates":[[[-44.3579272516413,-4.89495974779407],[-44.3606195709364,-4.87871219641068],[-44.3508586388151,-4.85762122114237],[-44.3467462072716,-4.85455087901983],[-44.3447076312522,-4.84895676224471],[-44.3422512401026,-4.84690861114342],[-44.3285499895903,-4.84743508775904],[-44.3250398816851,-4.84618802036079],[-44.322174057087,-4.84226607961586],[-44.3224470876629,-4.83460500511684],[-44.3170964389495,-4.836720492057],[-44.3112060531168,-4.84370650844858],[-44.3018129491083,-4.84547120313347],[-44.2995829901628,-4.83740255048724],[-44.2955520201096,-4.83664392467734],[-44.2917453760482,-4.83175676046608],[-44.2863165510679,-4.83008595410342],[-44.2845108643849,-4.82781277104249],[-44.2843626776954,-4.82463306686248],[-44.2774251014872,-4.82424899519492],[-44.2745570339799,-4.8265167661358],[-44.2688285728803,-4.82317813196516],[-44.262953429657,-4.81605650950024],[-44.2536694457883,-4.81615369024058],[-44.2482364758326,-4.80260115072247],[-44.2450182545887,-4.79924661204149],[-44.2429234106868,-4.7937487784833],[-44.2354348387467,-4.79226427477642],[-44.2284076406001,-4.78122823889209],[-44.2278504647271,-4.77423153585665],[-44.2237978372004,-4.76952050117013],[-44.2207405433414,-4.75949371955948],[-44.1974760658677,-4.72977775124218],[-44.2032324266351,-4.71293713114363],[-44.202713505224,-4.70966305480607],[-44.1994591645088,-4.70520920014446],[-44.1992149832848,-4.69113748920369],[-44.2086209718803,-4.67458709831589],[-44.204717812577,-4.66803701209842],[-44.2031580410107,-4.66175279965194],[-44.2042080552575,-4.65782469675229],[-44.2074687847565,-4.65481915977637],[-44.2167287306464,-4.65214710940155],[-44.2203825556104,-4.64782922324002],[-44.2216839870263,-4.648485276874],[-44.226642618562,-4.64561137366593],[-44.2333114746448,-4.62787980241092],[-44.233968888953,-4.62172796027711],[-44.2313651969462,-4.61792982380229],[-44.227326578159,-4.61674465314321],[-44.2219893842027,-4.61012829138747],[-44.2202986875344,-4.60541475568636],[-44.2223923731095,-4.59795791992202],[-44.23021628965,-4.59586991536423],[-44.2308705401433,-4.59338362535397],[-44.2299705795785,-4.58258333595216],[-44.2274972748793,-4.57852342751414],[-44.2225448873366,-4.577469033569],[-44.2213807976856,-4.57000739632424],[-44.2192961044316,-4.56830262166864],[-44.2165818740542,-4.54728707074168],[-44.2086328932933,-4.54505555327114],[-44.2035594309229,-4.53516654599924],[-44.1992611643712,-4.53215066322247],[-44.1960513077216,-4.52762785574089],[-44.0874785160207,-4.50570399943995],[-44.093488231097,-4.49475949295618],[-44.0003184356473,-4.39589636932192],[-43.9369488965743,-4.33488611889926],[-43.9320792709416,-4.32165147713392],[-43.9262268652775,-4.31345952563658],[-43.9243722734616,-4.30624713189957],[-43.9209499681664,-4.30981474785227],[-43.913006453485,-4.3142804906521],[-43.9103822713247,-4.31764012129452],[-43.9080781524847,-4.32610151956942],[-43.89762946203,-4.326198441305],[-43.8822348870304,-4.34491107128884],[-43.882680704351,-4.34980494354329],[-43.8731762094145,-4.35648322811846],[-43.8710955595124,-4.35430334342453],[-43.8685664716653,-4.35483879887141],[-43.8667597255808,-4.35265901400225],[-43.8616180334454,-4.35237708193671],[-43.858846357973,-4.34946328120544],[-43.8487298033377,-4.34535955240136],[-43.8422022307483,-4.34769302331433],[-43.8396255876507,-4.3444186744822],[-43.8351819519855,-4.34595344579487],[-43.829147176401,-4.33496545529147],[-43.8228420780994,-4.32824076659808],[-43.8183367957065,-4.32894675598794],[-43.8079514732818,-4.32474836724333],[-43.7522697302638,-4.24198303089213],[-43.5945690562169,-4.22841781183252],[-43.5156878189376,-4.18674689115608],[-43.5003821733985,-4.19018269797311],[-43.4292434721085,-4.22332244377572],[-43.3681714796301,-4.3017735506088],[-43.6960081943226,-4.49248168018533],[-43.702619243783,-4.49005485784539],[-43.7037077661005,-4.48706970400361],[-43.7014516323869,-4.47972152073158],[-43.7072320707035,-4.4812791078445],[-43.7127580584376,-4.48011852375083],[-43.7162817802799,-4.48112147107901],[-43.7197308844727,-4.47623736006608],[-43.7181756607781,-4.47469383745062],[-43.7180373009806,-4.46916462294894],[-43.7202847310555,-4.46826731628358],[-43.7243404369615,-4.47135936714103],[-43.7303952296561,-4.47084036479095],[-43.7342613216027,-4.47338512422408],[-43.7369263024069,-4.46650303438748],[-43.7408717802085,-4.47186521420821],[-43.7439491325464,-4.4714171809581],[-43.7452363699625,-4.46779425669956],[-43.7506153158441,-4.46881277039301],[-43.7529781019578,-4.47208458853288],[-43.7520679044102,-4.47343577134371],[-43.7421243010956,-4.47558542712574],[-43.7374015104713,-4.48146711561487],[-43.7334792315812,-4.49178085560198],[-43.7271518777569,-4.49575372225644],[-43.716928317288,-4.50939970942897],[-43.7117848175152,-4.51488014110561],[-43.7055128079697,-4.51872027322197],[-43.6962605845583,-4.53105988450603],[-43.682589794983,-4.5398201832548],[-43.6790624695573,-4.55003445912297],[-43.6736748605064,-4.55497861067431],[-43.6662268848628,-4.55779850060026],[-43.6595853142109,-4.56953404985649],[-43.641927136628,-4.58223954671769],[-43.633731731734,-4.59658521093871],[-43.6203705184846,-4.61224124493748],[-43.6185309597359,-4.62456521071585],[-43.6140057897354,-4.63377152913273],[-43.6105355721589,-4.63682757293412],[-43.6051780760073,-4.63767449418253],[-43.5963728417332,-4.64248410985375],[-43.5883934656858,-4.65048521262241],[-43.5868990937182,-4.65709185450545],[-43.584262102514,-4.658699401656],[-43.5907317695555,-4.66302875597229],[-43.5907537867578,-4.66820906229834],[-43.5926203746305,-4.67112525972289],[-43.6054785107247,-4.67815786998966],[-43.6069519941392,-4.68452346118875],[-43.611005788986,-4.68710971264307],[-43.610817372024,-4.68892211366455],[-43.6157774451729,-4.69751625097416],[-43.6194539159654,-4.71115301559917],[-43.6215896133699,-4.71354594788716],[-43.6215591542315,-4.71671768587248],[-43.6292880313176,-4.72069405448696],[-43.6288139851773,-4.72350785780133],[-43.6302608999205,-4.7238032158457],[-43.630314325046,-4.72678763044474],[-43.6336124942212,-4.7322642480965],[-43.6322614103358,-4.73979466908867],[-43.6400069275776,-4.74404504314419],[-43.63962343957,-4.74729806815129],[-43.642486010421,-4.7508624663297],[-43.6462575521443,-4.75118249187847],[-43.6531983074559,-4.75470134479116],[-43.6555590089411,-4.75364697422845],[-43.6580632017553,-4.75503395904992],[-43.6611766151087,-4.75242618322176],[-43.6699788501438,-4.74960941574188],[-43.6775067260545,-4.73871407339574],[-43.6870355935178,-4.73580935221981],[-43.6936555885346,-4.73559761313931],[-43.7004719703052,-4.7315944780027],[-43.7136521383355,-4.73480998509269],[-43.721726558334,-4.73916401680588],[-43.7336743619822,-4.7395532820583],[-43.7378110428453,-4.74150171453243],[-43.8353633191618,-4.75640919153092],[-43.8415925452597,-4.763414634178],[-43.8352643910388,-4.77897311961374],[-43.8265706151418,-4.7889670615806],[-43.8304015310058,-4.79426217176178],[-43.8314353565564,-4.79844077901868],[-43.8340646315775,-4.79829768339135],[-43.8357873279228,-4.80548176197368],[-43.8412550746619,-4.81061777848766],[-43.839535135638,-4.81949931484144],[-43.84398099083,-4.82897651085723],[-43.8461213170451,-4.84198252427405],[-43.842435123682,-4.8531803221141],[-43.843035985922,-4.86162242993118],[-43.8510217372633,-4.86925445363011],[-43.8526587902709,-4.87249150667764],[-43.8528322937753,-4.88209582456262],[-43.8512001771464,-4.88459505761581],[-43.8454563853039,-4.88602678011176],[-43.8405260617283,-4.88951939530381],[-43.836834226918,-4.88930579372737],[-43.8329305999672,-4.89310827392768],[-43.8312808746126,-4.89804845587151],[-43.8341155152188,-4.91905451715218],[-43.8310167302379,-4.93171301274533],[-43.8353135542771,-4.9381031923084],[-43.8412640831709,-4.93728911609981],[-43.8441346507935,-4.93873568460412],[-43.8482288665689,-4.94440626623617],[-43.8521079141489,-4.95450105457997],[-43.855964934634,-4.97808449999963],[-43.8655797727882,-4.98654570492028],[-43.8709035461617,-5.00065733316934],[-43.8741855814993,-5.00127986817131],[-43.8821733311343,-5.00870464400407],[-43.892627332985,-5.01510658849822],[-43.8975468404143,-5.01656544713762],[-43.9018415168725,-5.02613788315671],[-43.9049175184287,-5.02696761566289],[-43.9108746924131,-5.02265253808412],[-43.9166038918561,-5.0261018689061],[-43.9258966297256,-5.02593602402823],[-43.9289063152742,-5.02749592959344],[-43.931224105608,-5.0313904581031],[-43.9352554129069,-5.03284839313881],[-43.9357679131586,-5.03492435757301],[-43.9411896586757,-5.03820091963666],[-43.9458012984911,-5.04427806857797],[-43.9574646465761,-5.04793403842508],[-43.9599022994515,-5.05049999577813],[-43.9653844200549,-5.04205088853764],[-43.9748965925037,-5.04164848868676],[-43.9775399032439,-5.03547979505647],[-43.983423027051,-5.03132606304734],[-43.9847635070302,-5.02838619096992],[-43.9837051803498,-5.02192427698373],[-43.9867298378117,-5.01561222782204],[-43.9870790706426,-5.0107322536905],[-43.9971277237654,-5.00278146079574],[-44.0086211152722,-4.99763035006055],[-44.013442662249,-4.98816218503674],[-44.0208193962981,-4.98006289338776],[-44.0347482724148,-4.97771469607631],[-44.0382125220902,-4.98367690896214],[-44.043056588091,-4.98619665645049],[-44.0475892719273,-4.99086795729034],[-44.0564033762148,-4.99124095740422],[-44.0636071175743,-4.99699299243259],[-44.0655130651758,-4.99649305840786],[-44.0660937906958,-4.99240300469484],[-44.0727356707146,-4.98961233554081],[-44.0775126697739,-4.98538410459269],[-44.0847157042663,-4.98941279576388],[-44.0949103200552,-4.98634121977142],[-44.1018890186632,-4.98857457815422],[-44.108491429236,-4.98808172988788],[-44.1097147140628,-4.98614382217961],[-44.1091499362205,-4.9816218339804],[-44.1106474711038,-4.97387236691617],[-44.1130181469699,-4.96992933706923],[-44.1226692610775,-4.97015650851603],[-44.1328679957613,-4.96328074900731],[-44.1427860259543,-4.96458531186261],[-44.1434789517921,-4.96070975724945],[-44.144660083596,-4.96042142920556],[-44.1419633890991,-4.95159076390257],[-44.1354429067647,-4.94892836055534],[-44.1299556888039,-4.94332241140012],[-44.1285858054905,-4.94152083012216],[-44.129507508065,-4.93801147674823],[-44.1264961641666,-4.9359265334827],[-44.1260367535933,-4.93384067830459],[-44.1229482181857,-4.93312170540236],[-44.1197399290544,-4.93691917458017],[-44.1180997661912,-4.93612782963561],[-44.1192470430166,-4.93411815243076],[-44.1179527315333,-4.93275085556746],[-44.1198989336888,-4.93031709225995],[-44.1184529974079,-4.92823287744529],[-44.1199443260697,-4.92636722846477],[-44.1143424778231,-4.92155144254497],[-44.1192650618331,-4.91954702997141],[-44.1135507299821,-4.91344112250977],[-44.1134023355493,-4.90977812895745],[-44.1170214331925,-4.90585639055991],[-44.1198199048647,-4.90533664177258],[-44.1208162457731,-4.90217950607928],[-44.1223757430461,-4.90433567205355],[-44.1377049130513,-4.91203515389919],[-44.1456076866454,-4.90587419084119],[-44.1477830351589,-4.90566072236442],[-44.157739326109,-4.9073231767232],[-44.1603297612095,-4.90940536626461],[-44.1703619495443,-4.91222046100541],[-44.1709372602463,-4.90977953279919],[-44.1691893073406,-4.90468449839086],[-44.1663343105799,-4.90073124954751],[-44.1711036672004,-4.89808101222888],[-44.1727104058605,-4.89521022247374],[-44.1718754770716,-4.89269894390111],[-44.1832495654151,-4.8886919290892],[-44.186198213077,-4.87922126934604],[-44.1941719054091,-4.87901517171276],[-44.1984030222816,-4.8821788895441],[-44.2025244389516,-4.88089221780154],[-44.2080567920872,-4.88269482880327],[-44.2125113877902,-4.8893793258951],[-44.2110957307833,-4.892886216026],[-44.2172210339235,-4.90761148228404],[-44.2223701913312,-4.90905238056285],[-44.236262516302,-4.90562276108154],[-44.2433964486871,-4.90656439083393],[-44.2538419465486,-4.91454487124878],[-44.2561591289406,-4.92315911290268],[-44.2590555826489,-4.92560534620969],[-44.265883909215,-4.92575646378976],[-44.2689661232879,-4.91307758686111],[-44.2956916659376,-4.91444134039551],[-44.3066126488546,-4.91187752702621],[-44.3579272516413,-4.89495974779407]]]}},{"type":"Feature","properties":{"id":"26","concentrationId":"2105302","name":"Imperatriz/MA","state":"MA","municipality":"2105302","population2010":"247505","urbanPopulation2010":"234547","ruralPopulation2010":"12958"},"geometry":{"type":"MultiPolygon","coordinates":[[[[-47.8400668095356,-5.3336804497929],[-47.8337377452007,-5.32924845585149],[-47.8307993129379,-5.32481700420135],[-47.8261750655268,-5.32430788989718],[-47.8235259982262,-5.32567063619086],[-47.8216249114604,-5.32468871950875],[-47.819126607407,-5.32613116102421],[-47.8182565070321,-5.32256647416341],[-47.8147993862826,-5.32362440424282],[-47.8123313399193,-5.32196069532978],[-47.8118698456168,-5.31705776240575],[-47.8058732003879,-5.31080855517065],[-47.8046214250387,-5.30607673175569],[-47.7981238223565,-5.30345945728806],[-47.7977858571315,-5.29657631434538],[-47.7928747286857,-5.29617675275489],[-47.7900084760103,-5.2914020011014],[-47.784648257611,-5.28783416301616],[-47.7830080353925,-5.28495702134938],[-47.7769570513268,-5.28190559916402],[-47.7761198688368,-5.27811766999441],[-47.7721185125592,-5.27426858602639],[-47.7703451007458,-5.2693763550347],[-47.7628709296496,-5.26341153951091],[-47.7608385481604,-5.25888632454422],[-47.755869068103,-5.25632234480032],[-47.7528409446538,-5.249701597051],[-47.7481782656144,-5.2495725191564],[-47.7393407240951,-5.24663386206305],[-47.7263863236699,-5.22906040151628],[-47.7164824730876,-5.2293987273693],[-47.7148142001152,-5.23393165312326],[-47.7075971344002,-5.23395853116125],[-47.7052667166856,-5.23542568154994],[-47.7046530067308,-5.22520147446841],[-47.7013769986495,-5.21994338577861],[-47.7020372934863,-5.20714035474351],[-47.6990364689578,-5.19689884380653],[-47.6991789809252,-5.19255759955355],[-47.6954242826045,-5.18635383775939],[-47.6958142313417,-5.17898574709449],[-47.6930943757049,-5.17039315931681],[-47.6882311019837,-5.16427481962717],[-47.6867042662888,-5.15625148741618],[-47.6614068929138,-5.16803606411304],[-47.6534407279072,-5.16709852267866],[-47.6444646907928,-5.16080287265442],[-47.6248758855137,-5.15946995597364],[-47.6066764140852,-5.16395010411395],[-47.5925628441998,-5.15812783383239],[-47.5704215615058,-5.15876032073214],[-47.5509824519785,-5.15451165718719],[-47.5387474264525,-5.15617983303281],[-47.5265910475388,-5.17742465082694],[-47.5215252096207,-5.17133991790285],[-47.518284556587,-5.15990732596225],[-47.5154657269617,-5.15566791734046],[-47.518253375293,-5.15189686035178],[-47.5189499523784,-5.14672794843602],[-47.5150933338902,-5.14058118297516],[-47.5139425011455,-5.1327544695431],[-47.5150995086354,-5.12885993833544],[-47.5093889242594,-5.13164817752135],[-47.5021138747555,-5.13775779468642],[-47.499133960364,-5.14234718617364],[-47.4960308856168,-5.14883302842145],[-47.4928312164874,-5.1636887701206],[-47.4893426734256,-5.17200798288206],[-47.4842674214043,-5.17680022724864],[-47.4690376570622,-5.17960589799372],[-47.4670878792022,-5.18105408168049],[-47.4655341591741,-5.18380555927911],[-47.4651609477196,-5.18972201375987],[-47.4620320471412,-5.19335844943283],[-47.4463887106704,-5.20622165410601],[-47.4311249528542,-5.22125468905263],[-47.409417097521,-5.21678646142601],[-47.4103223874682,-5.22241816356735],[-47.4157300289177,-5.23414773502992],[-47.4094550066432,-5.24143479947639],[-47.4035628023814,-5.25225725446865],[-47.3915105029074,-5.26374132450247],[-47.3864701301923,-5.2655334521071],[-47.3817523155169,-5.2722833829717],[-47.3777180746294,-5.27285610632419],[-47.3748576540574,-5.26426006784783],[-47.3672789952294,-5.26211288700012],[-47.3640415482788,-5.25877279233043],[-47.3654935882585,-5.27042067207629],[-47.3687394357763,-5.27356419653041],[-47.3714859131443,-5.27996793966861],[-47.3763473162756,-5.28415098507986],[-47.3817041649152,-5.28570083172799],[-47.387050678546,-5.28517441536696],[-47.3903928416562,-5.28673792991151],[-47.3936356989283,-5.29152739537296],[-47.3981873152923,-5.29338403854251],[-47.4007342492861,-5.29990011779614],[-47.4042739116117,-5.30130857033419],[-47.4060072685206,-5.30560424144256],[-47.4085219941946,-5.30549432540278],[-47.4089447178244,-5.30857945867501],[-47.412685263514,-5.31019042414869],[-47.4101961514312,-5.31880230148499],[-47.4144407968053,-5.3201015457497],[-47.4257868550793,-5.33028440020485],[-47.4312484216772,-5.3330475833792],[-47.4205173207177,-5.44762764130259],[-47.4181159366012,-5.45373784932224],[-47.4193000703419,-5.45957794776405],[-47.4120974882085,-5.47660904696989],[-47.4086820060697,-5.47961105770412],[-47.4016377693675,-5.47924380156014],[-47.3980136831849,-5.48306811370243],[-47.3952119110008,-5.48850499840688],[-47.395014594348,-5.49190413446821],[-47.4046447506547,-5.49928152142502],[-47.4057083311745,-5.50144578669364],[-47.4040120452196,-5.50165265234796],[-47.4038148355862,-5.50560885726293],[-47.4065571589857,-5.50906913193484],[-47.4109243073109,-5.50924292142367],[-47.4152647322815,-5.51656156466441],[-47.4250920559536,-5.52213389266497],[-47.4244290001981,-5.53243599002889],[-47.4296691600037,-5.55337404007986],[-47.4400879201214,-5.56984998059209],[-47.4407380795987,-5.5784549700208],[-47.3958621280348,-5.64535199190084],[-47.4028709863069,-5.6453200578743],[-47.4059569046873,-5.64385269254769],[-47.4063111008766,-5.64127734447385],[-47.4097897109264,-5.64203523104102],[-47.4153718118596,-5.63831654787032],[-47.4179545109918,-5.63919098747402],[-47.4209509171511,-5.63748886401981],[-47.4259520020832,-5.63980008390673],[-47.429290807125,-5.63847189765989],[-47.4315680605175,-5.64313256131863],[-47.4345370544415,-5.64377681674665],[-47.4352066545634,-5.6333181465152],[-47.4382005075473,-5.62878833871082],[-47.446040428423,-5.63167829931399],[-47.4459790568879,-5.6281465851967],[-47.4477058703296,-5.6276690020228],[-47.4522027926247,-5.63195376975063],[-47.4536798589383,-5.62904026669492],[-47.4587035249477,-5.62934876113639],[-47.468567769387,-5.62124975277385],[-47.4715514528372,-5.62114183772559],[-47.4737905003313,-5.6228020302894],[-47.4772585145687,-5.62079368138325],[-47.4796891446383,-5.62170930903733],[-47.4844013484434,-5.59560395415912],[-47.4832614163812,-5.56489885120095],[-47.4880656316235,-5.54946410888148],[-47.5001204590919,-5.52560484498759],[-47.5168737028591,-5.51051055002182],[-47.5283487976588,-5.49266570735648],[-47.5485394975997,-5.47078920935451],[-47.5602606397167,-5.46321271519463],[-47.5677622554237,-5.46451213033049],[-47.5769861942574,-5.469902748513],[-47.6057777953089,-5.46509452948891],[-47.6186197463042,-5.45972620370129],[-47.6667722923074,-5.42178731663131],[-47.7210678985646,-5.39453168299071],[-47.7320384934816,-5.38629273831919],[-47.7443137447834,-5.38013244525611],[-47.7575970947301,-5.37806609727256],[-47.7683377132149,-5.37820225103302],[-47.7929893688642,-5.38471150533167],[-47.8062606687948,-5.38586806675784],[-47.8238184109908,-5.38520824406517],[-47.8275110508487,-5.38657708076533],[-47.842479912820636,-5.355531966522511],[-47.857440070915224,-5.324504903943678],[-47.8422276582797,-5.33314179186016],[-47.8400668095356,-5.3336804497929]]],[[[-47.8647089278747,-5.30763567594562],[-47.8627686648419,-5.3077792724954],[-47.863231258116,-5.31107577702545],[-47.8596734321831,-5.31229767419825],[-47.8608651660945,-5.31512121447242],[-47.859495391599,-5.31577755588944],[-47.8609367611226,-5.31690411053621],[-47.8596299625527,-5.31812216220801],[-47.859813223925336,-5.319583033032406],[-47.85981322392727,-5.319583033028398],[-47.8666880587069,-5.30531365879825],[-47.8647089278747,-5.30763567594562]]]]}},{"type":"Feature","properties":{"id":"27","concentrationId":"2105302","name":"Imperatriz/MA","state":"MA","municipality":"2103752","population2010":"12579","urbanPopulation2010":"10487","ruralPopulation2010":"2092"},"geometry":{"type":"Polygon","coordinates":[[[-47.4407380795987,-5.5784549700208],[-47.4400879201214,-5.56984998059209],[-47.4296691600037,-5.55337404007986],[-47.4244290001981,-5.53243599002889],[-47.4250920559536,-5.52213389266497],[-47.4152647322815,-5.51656156466441],[-47.4109243073109,-5.50924292142367],[-47.4065571589857,-5.50906913193484],[-47.4013990191494,-5.51503526316679],[-47.3983373114177,-5.51612361910969],[-47.3984106754123,-5.51921447027155],[-47.3943237000786,-5.52035917143855],[-47.3874571244467,-5.5203118608037],[-47.38737734289,-5.51534925156666],[-47.3817216953999,-5.51461611254354],[-47.3835148779092,-5.51849040720647],[-47.3829953206775,-5.52066393819012],[-47.3798695020758,-5.52488181704217],[-47.3771133893714,-5.52612882058855],[-47.3777630029602,-5.53298503243326],[-47.3725896798698,-5.53870491489988],[-47.3704274263846,-5.53924414749934],[-47.3647347762888,-5.53652266319028],[-47.3624521485478,-5.53733362144942],[-47.3610921937497,-5.53860399837578],[-47.3609252705847,-5.54214065876438],[-47.3574860562364,-5.54459159552567],[-47.3505908911567,-5.54005187899099],[-47.3467908831927,-5.54304216706232],[-47.3447012103925,-5.55148172170403],[-47.3426239284515,-5.55320297913414],[-47.3386194155535,-5.55374114423836],[-47.3370935915959,-5.55066089878143],[-47.3309240876765,-5.55101399330113],[-47.3260359881703,-5.54747302695858],[-47.3243159250398,-5.54865023591958],[-47.3235092196747,-5.55382416425375],[-47.3210652958267,-5.55627322772721],[-47.3184249879228,-5.55645375763476],[-47.3128093503712,-5.55172784906091],[-47.3103705121894,-5.53920593980223],[-47.3063928908192,-5.53657350995946],[-47.3030361838727,-5.53730023861505],[-47.2948921158784,-5.54473398428593],[-47.2913401993907,-5.54436256787819],[-47.2852089076649,-5.53928339121547],[-47.274955227102,-5.53909512174243],[-47.2712592581082,-5.54044290781388],[-47.2692545487584,-5.54679904983624],[-47.2667022602011,-5.54915931155296],[-47.2622889190983,-5.54343306908083],[-47.2523145607683,-5.54351782928433],[-47.2509513522231,-5.54433765755681],[-47.2515139716924,-5.54723601512997],[-47.2497905738758,-5.5511413130211],[-47.2446164611807,-5.55213341722339],[-47.2416186862533,-5.5601204447027],[-47.235901043998,-5.56764438068359],[-47.2340935829524,-5.56854702662395],[-47.2299231163587,-5.56709125355843],[-47.2249516092293,-5.5676362481143],[-47.2131414953836,-5.58042355630205],[-47.2061700381167,-5.58132249703556],[-47.1983178594816,-5.57759710312376],[-47.1946698962986,-5.58013166334553],[-47.1884184794292,-5.58984101395157],[-47.1857874309451,-5.5886621385468],[-47.1813697901836,-5.58284422997719],[-47.1778073759097,-5.5848407474025],[-47.1738229934364,-5.59082840660563],[-47.160063161086,-5.59716435884804],[-47.1557036237232,-5.60478331000173],[-47.1527767099772,-5.61368486616362],[-47.1344528560144,-5.64778191690192],[-47.1195520456903,-5.65427560483522],[-47.3025350663402,-5.65843464284445],[-47.3075155855758,-5.65076332416806],[-47.316429359927,-5.64369003846446],[-47.3244858033771,-5.6406568806105],[-47.3354316417568,-5.64164835169004],[-47.3444571397851,-5.64762856090931],[-47.3543397124077,-5.64483303811415],[-47.3562228900743,-5.64711369364199],[-47.3585066176862,-5.64728694443687],[-47.3662325539891,-5.64266818918555],[-47.3669293828847,-5.64101325405842],[-47.3691198714848,-5.64073261791595],[-47.3783339114808,-5.6423182458903],[-47.3833198401385,-5.64531317086607],[-47.3897001667292,-5.64453180479893],[-47.3945328661988,-5.64187412019447],[-47.3958621280348,-5.64535199190084],[-47.4407380795987,-5.5784549700208]]]}},{"type":"Feature","properties":{"id":"28","concentrationId":"2111300","name":"São Luís/MA","state":"MA","municipality":"2109452","population2010":"26327","urbanPopulation2010":"24788","ruralPopulation2010":"1539"},"geometry":{"type":"MultiPolygon","coordinates":[[[[-44.139635190012,-2.46661813811653],[-44.1481910827522,-2.46799984931357],[-44.1479842638627,-2.47034029536832],[-44.1531240566299,-2.47104442945681],[-44.1528410004118,-2.47279100010451],[-44.1569320002116,-2.47420299956872],[-44.1572850003025,-2.47273999955127],[-44.1641914878468,-2.47386329955157],[-44.1664179996909,-2.47246899964455],[-44.173004666732,-2.47566474503192],[-44.1728625855399,-2.47179102593504],[-44.1696455783807,-2.4647731465634],[-44.1730112119978,-2.46216798056782],[-44.1737518936349,-2.45871308114374],[-44.17273438987633,-2.4580710406749113],[-44.13960253771805,-2.4602798308187968],[-44.1409965504504,-2.46130818282632],[-44.139635190012,-2.46661813811653]]],[[[-44.10091626286177,-2.4628589158092153],[-44.10078253352046,-2.4628678310986363],[-44.10018747063459,-2.4629075019576945],[-44.1004337932849,-2.46306257038128],[-44.10091626286177,-2.4628589158092153]]]]}},{"type":"Feature","properties":{"id":"29","concentrationId":"2111300","name":"São Luís/MA","state":"MA","municipality":"2107506","population2010":"105121","urbanPopulation2010":"90533","ruralPopulation2010":"14588"},"geometry":{"type":"Polygon","coordinates":[[[-44.070814522772,-2.466873172359],[-44.0773723224747,-2.46541234060698],[-44.0745707643293,-2.46862045257178],[-44.0686732135979,-2.4683639119649],[-44.065044893407,-2.47150073646976],[-44.0622490900234,-2.48312249360816],[-44.0574079755975,-2.49398965839595],[-44.0571515986673,-2.49936304107143],[-44.0590717933285,-2.50460861389638],[-44.0626578876514,-2.50870310486437],[-44.0632979342522,-2.51433292292604],[-44.0658642693205,-2.5168960564078],[-44.0650144756375,-2.51839201208162],[-44.074805455907,-2.53417478753636],[-44.0777868110125,-2.5347976373011],[-44.0770859999189,-2.53588300030021],[-44.0788177677257,-2.53747359163288],[-44.0771052112365,-2.54233671876449],[-44.0819759996926,-2.54161200009367],[-44.0814770000634,-2.5445250004284],[-44.0836430001243,-2.54563000012434],[-44.086784772699,-2.54407786290301],[-44.1024019200125,-2.54660499022805],[-44.1080159522743,-2.54467938524539],[-44.1179949996695,-2.54901299965019],[-44.1411548760966,-2.55461551159652],[-44.1502061621846,-2.55217737758387],[-44.1601842419092,-2.55147875544015],[-44.1869119204487,-2.55237803971472],[-44.1907207750437,-2.55375433789232],[-44.192300695021,-2.54743615805222],[-44.186622439474,-2.54106676901614],[-44.1837840001315,-2.53312700001101],[-44.1851043083171,-2.52150565296347],[-44.183281469764,-2.51975581957538],[-44.1837139438434,-2.51604478334003],[-44.1798609999851,-2.51545900003277],[-44.1806260001897,-2.50974700012393],[-44.1783230001063,-2.50842700040568],[-44.1794669998022,-2.4994809997483],[-44.182062082599,-2.49993669702093],[-44.1820361812247,-2.49780789651715],[-44.1737240002624,-2.49848999991355],[-44.1769626001438,-2.47946328350366],[-44.1813013334897,-2.48035429221676],[-44.1820781031219,-2.46389734178882],[-44.1737518936349,-2.45871308114374],[-44.1730112119978,-2.46216798056782],[-44.1696455783807,-2.4647731465634],[-44.1728625855399,-2.47179102593504],[-44.173004666732,-2.47566474503192],[-44.1664179996909,-2.47246899964455],[-44.1641914878468,-2.47386329955157],[-44.1572850003025,-2.47273600026615],[-44.1569320002116,-2.47420299956872],[-44.1528410004118,-2.47279100010451],[-44.1531240566299,-2.47104442945681],[-44.1479842638627,-2.47034029536832],[-44.1481910827522,-2.46799984931357],[-44.139635190012,-2.46661813811653],[-44.1409965504504,-2.46130818282632],[-44.13960253771805,-2.4602798308187968],[-44.139602537718,-2.4602798308188003],[-44.1004337932849,-2.46306257038128],[-44.1092937432116,-2.46541680574098],[-44.1187093140836,-2.47115678355868],[-44.1188133638456,-2.47287641411515],[-44.1132608802853,-2.47228479600648],[-44.1084284524111,-2.4667817445818],[-44.1045687312619,-2.46708656709138],[-44.0953204756594,-2.46411285622327],[-44.094887699635265,-2.463260820024316],[-44.06275351209039,-2.4654030991939746],[-44.0638160687565,-2.46617997672451],[-44.070814522772,-2.466873172359]]]}},{"type":"Feature","properties":{"id":"30","concentrationId":"2111300","name":"São Luís/MA","state":"MA","municipality":"2111300","population2010":"1014837","urbanPopulation2010":"973690","ruralPopulation2010":"41147"},"geometry":{"type":"Polygon","coordinates":[[[-44.3069554281504,-2.77911925534932],[-44.3285361625138,-2.78189895906968],[-44.3353949221379,-2.77335922175065],[-44.3442924115655,-2.76557472699199],[-44.3498513513587,-2.76253939277871],[-44.35829317499,-2.76343422001322],[-44.3623118585054,-2.75757237326639],[-44.3692675821331,-2.75660704637806],[-44.3859581998111,-2.7636073359098],[-44.3882954505746,-2.76596432049696],[-44.3875650508863,-2.77834432842799],[-44.3888794496269,-2.7849023673503],[-44.3875685366586,-2.79319331621856],[-44.3890393481873,-2.79710320694739],[-44.4012628039352,-2.79595470074878],[-44.41001330451152,-2.79923529196742],[-44.2208,-2.4739],[-44.2123671599165,-2.47451400042076],[-44.2107347240283,-2.47832815921715],[-44.2137450004314,-2.4802489995916],[-44.2127851198373,-2.48529095961004],[-44.211554000117,-2.4848610000351],[-44.2104233715413,-2.49118035349046],[-44.2067490222495,-2.49023094370307],[-44.2054980140221,-2.5007631389077],[-44.2081749603061,-2.50604100009201],[-44.2140850799624,-2.50781102955535],[-44.2111040000495,-2.5191900003182],[-44.2136857369072,-2.52131845098569],[-44.201368079873,-2.52191501986221],[-44.2014719695557,-2.51962725339496],[-44.1909212806925,-2.51804459138475],[-44.189682520332,-2.52094111254229],[-44.1896186567756,-2.52302891385324],[-44.1916250397637,-2.523067019927],[-44.1907830000354,-2.52969299993197],[-44.1973213815765,-2.53141010519216],[-44.195263919794,-2.54005595981465],[-44.2091889998724,-2.54316200052586],[-44.2064808363215,-2.55017005930073],[-44.2108691492917,-2.5515173219668],[-44.2098349190462,-2.55452283735901],[-44.2059838511738,-2.55396547172911],[-44.208526999921,-2.55905799972687],[-44.2070499596878,-2.56307498981886],[-44.2074669996023,-2.56684900018116],[-44.1947461953806,-2.56256905641676],[-44.1888456580007,-2.56810486474769],[-44.1888339596195,-2.57269400982062],[-44.1851849999877,-2.57655798026657],[-44.1841748400968,-2.58113799002615],[-44.1773830215092,-2.58866389642163],[-44.1719060000618,-2.59154000027076],[-44.1669526745263,-2.59952210306255],[-44.1642091927999,-2.6014291577294],[-44.1617751893734,-2.60769399877898],[-44.180785093857,-2.63467218167579],[-44.1782098546011,-2.64733980268972],[-44.1705679716346,-2.65787427048116],[-44.1725822344825,-2.66006286241111],[-44.1711451700135,-2.66494593021048],[-44.1732722141413,-2.66640962900112],[-44.1745581880099,-2.67090745601423],[-44.1697545968971,-2.67828297867646],[-44.1715980676966,-2.68277680100853],[-44.182652213229,-2.69058261959219],[-44.1820415106072,-2.69329255031091],[-44.1757,-2.7021],[-44.2658,-2.7604],[-44.2654930222148,-2.760420133977394],[-44.281790693086,-2.76606787653123],[-44.3069554281504,-2.77911925534932]]]}},{"type":"Feature","properties":{"id":"31","concentrationId":"2111300","name":"São Luís/MA","state":"MA","municipality":"2111201","population2010":"163045","urbanPopulation2010":"152902","ruralPopulation2010":"10143"},"geometry":{"type":"Polygon","coordinates":[[[-44.1813013334897,-2.48035429221676],[-44.1769626001438,-2.47946328350366],[-44.1737240002624,-2.49848999991355],[-44.1820361812247,-2.49780789651715],[-44.182062082599,-2.49993669702093],[-44.1794669998022,-2.4994809997483],[-44.1783230001063,-2.50842700040568],[-44.1806260001897,-2.50974700012393],[-44.1798609999851,-2.51545900003277],[-44.1837139438434,-2.51604478334003],[-44.183281469764,-2.51975581957538],[-44.1851043083171,-2.52150565296347],[-44.1837840001315,-2.53312700001101],[-44.186622439474,-2.54106676901614],[-44.192300695021,-2.54743615805222],[-44.1907207750437,-2.55375433789232],[-44.1869119204487,-2.55237803971472],[-44.1601842419092,-2.55147875544015],[-44.1502061621846,-2.55217737758387],[-44.1411548760966,-2.55461551159652],[-44.1179949996695,-2.54901299965019],[-44.1080159522743,-2.54467938524539],[-44.1024019200125,-2.54660499022805],[-44.086784772699,-2.54407786290301],[-44.0836430001243,-2.54563000012434],[-44.0814770000634,-2.5445250004284],[-44.0819759996926,-2.54161200009367],[-44.0771052112365,-2.54233671876449],[-44.0788177677257,-2.53747359163288],[-44.0770859999189,-2.53588300030021],[-44.0777868110125,-2.5347976373011],[-44.074805455907,-2.53417478753636],[-44.0650144756375,-2.51839201208162],[-44.0658642693205,-2.5168960564078],[-44.0632979342522,-2.51433292292604],[-44.0626578876514,-2.50870310486437],[-44.0590717933285,-2.50460861389638],[-44.0571515986673,-2.49936304107143],[-44.0574079755975,-2.49398965839595],[-44.0622490900234,-2.48312249360816],[-44.0568742306611,-2.46621149526426],[-44.05229153168063,-2.466147654020833],[-44.0362,-2.5567],[-44.0928,-2.5747],[-44.17558995547456,-2.7019308845290557],[-44.1820415106072,-2.69329255031091],[-44.182652213229,-2.69058261959219],[-44.1715980676966,-2.68277680100853],[-44.1697545968971,-2.67828297867646],[-44.1745581880099,-2.67090745601423],[-44.1732722141413,-2.66640962900112],[-44.1711451700135,-2.66494593021048],[-44.1725822344825,-2.66006286241111],[-44.1705679716346,-2.65787427048116],[-44.1782098546011,-2.64733980268972],[-44.180785093857,-2.63467218167579],[-44.1617751893734,-2.60769399877898],[-44.1642091927999,-2.6014291577294],[-44.1669526745263,-2.59952210306255],[-44.1719060000618,-2.59154000027076],[-44.1773830215092,-2.58866389642163],[-44.1841748400968,-2.58113799002615],[-44.1851849999877,-2.57655798026657],[-44.1888339596195,-2.57269400982062],[-44.1888456580007,-2.56810486474769],[-44.1947461953806,-2.56256905641676],[-44.2074669996023,-2.56684900018116],[-44.2070499596878,-2.56307498981886],[-44.208526999921,-2.55905799972687],[-44.2059838511738,-2.55396547172911],[-44.2098349190462,-2.55452283735901],[-44.2108691492917,-2.5515173219668],[-44.2064808363215,-2.55017005930073],[-44.2091889998724,-2.54316200052586],[-44.195263919794,-2.54005595981465],[-44.1973213815765,-2.53141010519216],[-44.1907830000354,-2.52969299993197],[-44.1916250397637,-2.523067019927],[-44.1896186567756,-2.52302891385324],[-44.189682520332,-2.52094111254229],[-44.1909212806925,-2.51804459138475],[-44.2014719695557,-2.51962725339496],[-44.201368079873,-2.52191501986221],[-44.2136857369072,-2.52131845098569],[-44.2111040000495,-2.5191900003182],[-44.2140850799624,-2.50781102955535],[-44.2081749603061,-2.50604100009201],[-44.2054980140221,-2.5007631389077],[-44.2067490222495,-2.49023094370307],[-44.2104233715413,-2.49118035349046],[-44.211554000117,-2.4848610000351],[-44.2127851198373,-2.48529095961004],[-44.2137450004314,-2.4802489995916],[-44.2107347240283,-2.47832815921715],[-44.2123671599165,-2.47451400042076],[-44.22049264263511,-2.4737931291103212],[-44.21186441625246,-2.4707930180500464],[-44.1947368017143,-2.464837594127075],[-44.1820781031219,-2.46389734178882],[-44.1813013334897,-2.48035429221676]]]}},{"type":"Feature","properties":{"id":"34","concentrationId":"2211001","name":"Teresina/PI","state":"MA","municipality":"2112209","population2010":"155460","urbanPopulation2010":"135133","ruralPopulation2010":"20327"},"geometry":{"type":"Polygon","coordinates":[[[-42.8186089271602,-5.09350866339406],[-42.816807688524,-5.10004759532024],[-42.8142895670099,-5.12697726788657],[-42.8112240614412,-5.1385520345487],[-42.8029715244162,-5.15025205069157],[-42.8013763303533,-5.17226315022419],[-42.7979461568896,-5.18321690263792],[-42.8000216959445,-5.19908498778193],[-42.8041390665646,-5.20720032783283],[-42.8273071007421,-5.23284012437222],[-42.8286673765981,-5.23993007181531],[-42.8225358807263,-5.26064788419245],[-42.8179162027705,-5.27133009350894],[-42.8126365042712,-5.27932342613514],[-42.8113646542553,-5.28476913139025],[-42.8130265042697,-5.30727495607432],[-42.8246230830888,-5.34564372357892],[-42.8280010868806,-5.34955096310643],[-42.8420200507847,-5.35905164491743],[-42.864893056969,-5.36803579211806],[-42.8674114159041,-5.37040665684168],[-42.8708598581958,-5.37976287245857],[-42.8737357875765,-5.38329787719522],[-42.8836070314393,-5.39077040343131],[-42.8884222759672,-5.39141514809058],[-42.9003068860539,-5.38952485588732],[-42.9079994269319,-5.39226300463389],[-42.9123331861276,-5.39607841978318],[-42.9149765175522,-5.40098145073329],[-42.918804458459,-5.41682130076237],[-42.9245251871876,-5.43095270060661],[-42.9326744838403,-5.43970412034884],[-42.9377547145084,-5.44170378809929],[-42.9575891471214,-5.44473453037421],[-42.9624758832554,-5.44646524507493],[-42.9687807108611,-5.45200957987817],[-43.1894133462489,-5.2869437514529],[-43.2046202525226,-5.17114292050934],[-43.2106471383547,-5.17117402715957],[-43.213726747991,-5.15619977909648],[-43.2010959191413,-5.14716631487347],[-43.1891350555383,-5.14821175966495],[-43.0708936812983,-5.07827225935723],[-43.0632912857642,-5.08105931233734],[-43.0550025024635,-5.08009075778222],[-43.0520690596393,-5.08100295542204],[-43.0433413775025,-5.07557971972825],[-43.0390707417213,-4.92738413866704],[-42.8904944785373,-4.89479149633047],[-42.8815830819936,-4.90774550195328],[-42.8718052084436,-4.91652651748472],[-42.8679110108844,-4.92769992211367],[-42.8580843832876,-4.93273565342765],[-42.8546249647703,-4.93611390453305],[-42.8547794844856,-4.9434537627809],[-42.8600305341818,-4.95862360529509],[-42.8620320104688,-4.97006952069177],[-42.8595774611309,-4.98223867807247],[-42.8499713257161,-5.01163025103523],[-42.8415274273489,-5.03078747975832],[-42.8417777995058,-5.05584917769733],[-42.8366640672928,-5.07333383109136],[-42.8186089271602,-5.09350866339406]]]}}]}