{"type":"FeatureCollection","features":[{"type":"Feature","properties":{"id":"55","concentrationId":"2504009","name":"Campina Grande/PB","state":"PB","municipality":"2504009","population2010":"385213","urbanPopulation2010":"371266","ruralPopulation2010":"13947"},"geometry":{"type":"Polygon","coordinates":[[[-36.0208103714015,-7.16693278621905],[-35.9985605864019,-7.16329262735281],[-35.9967630259928,-7.16441003049847],[-35.9865760805217,-7.16099500611461],[-35.9784278873371,-7.17293310158135],[-35.9726515544256,-7.1767544027934],[-35.9709701540493,-7.18627166720365],[-35.9640514078462,-7.19457751963676],[-35.9584709292899,-7.19529415969765],[-35.9555905716475,-7.19719140186168],[-35.9476136894202,-7.19317963593141],[-35.9421914330881,-7.1929388064807],[-35.9382685813299,-7.19449990094961],[-35.9415238330584,-7.17458023149243],[-35.9050920406651,-7.18194337408739],[-35.887958684046,-7.15680315903853],[-35.8846464800509,-7.17422581317072],[-35.878700982864,-7.18126880700981],[-35.8783386738906,-7.18412194756979],[-35.8733177184379,-7.18729359202558],[-35.8737073191375,-7.19137081511099],[-35.8716772902747,-7.1935669424604],[-35.8715022813052,-7.19631268688096],[-35.8691151676309,-7.19688726823278],[-35.8655492954636,-7.20219015125446],[-35.8669918224146,-7.20982354911746],[-35.8639604389231,-7.21159441674888],[-35.8614838642889,-7.21078086574431],[-35.8566873049751,-7.20426556530356],[-35.849628376948,-7.20080818554925],[-35.8471221435721,-7.19529198873426],[-35.8437747697898,-7.192362192661],[-35.8411338791252,-7.19588125331717],[-35.83627214954,-7.19388473049588],[-35.8258557978068,-7.20132198082474],[-35.82233652581,-7.20125257654513],[-35.8150441769471,-7.20599890692398],[-35.8146733981587,-7.20747597143891],[-35.8417299857502,-7.25034864897095],[-35.8128923852753,-7.25740904649024],[-35.8044532389258,-7.2626246044419],[-35.800581025294,-7.2672600628016],[-35.7884189923426,-7.26982340762414],[-35.7829376154785,-7.27585130609288],[-35.7735235887426,-7.27655400036678],[-35.7697485153817,-7.28155559701315],[-35.7648003564512,-7.28130973855354],[-35.7521876066727,-7.27253560103714],[-35.7502870855805,-7.2727315489218],[-35.7443246091933,-7.27802326326292],[-35.732332116434,-7.27735765792955],[-35.7273672076305,-7.27443667071572],[-35.714484722392,-7.26219964509749],[-35.7041393820268,-7.26023221714309],[-35.7360615788787,-7.32408831372465],[-35.7382762439535,-7.32246531891929],[-35.7401271629382,-7.31806759454382],[-35.7415412371383,-7.32039343740718],[-35.7454533051259,-7.32006887118145],[-35.7468121024965,-7.32200662420627],[-35.7574692000435,-7.32671621997753],[-35.7630979056438,-7.32307390543633],[-35.7682722009013,-7.32344935530347],[-35.7825545258706,-7.3185854700434],[-35.7958029497463,-7.32120907933552],[-35.8019009773482,-7.31913749819694],[-35.8088854172282,-7.31974851018555],[-35.8106874220868,-7.32201837834544],[-35.8200442159677,-7.32547987339741],[-35.8239425459117,-7.3286201836745],[-35.8307051068551,-7.32788832528593],[-35.838454843716,-7.33100718853087],[-35.841995696744,-7.30138645122372],[-35.8616677954324,-7.30102102160282],[-35.8655317613816,-7.29867281529812],[-35.8788200333178,-7.2982863091658],[-35.8868080095819,-7.29450260591051],[-35.8882764909673,-7.28676744795934],[-35.8925024286441,-7.28639931947299],[-35.8927637698321,-7.2879562446849],[-35.8958461116087,-7.28648272619683],[-35.8974730067738,-7.28792519918852],[-35.9395609205999,-7.28622298850008],[-35.945002774958,-7.28503023116019],[-35.944500879512,-7.28018019815756],[-35.9511651337639,-7.27964691277475],[-35.9536546757226,-7.28092063697778],[-35.9529174303951,-7.28303691532137],[-35.9541321374881,-7.28513598243961],[-35.9573831489132,-7.28555029381096],[-35.9576269083551,-7.287766023683],[-35.9596148894155,-7.28641751365729],[-35.9623431905857,-7.28858112511882],[-35.9606554005263,-7.293913281073],[-35.9620088451321,-7.29817770793483],[-35.9729383599174,-7.29528298722005],[-35.9757864300996,-7.29663269784066],[-35.982908866451,-7.29618157092273],[-35.9829509844004,-7.2976186848544],[-35.97720234791,-7.30186513246986],[-35.9771780545236,-7.305672007657],[-35.978998372277,-7.30916615439447],[-35.9770570921111,-7.31736601632856],[-35.9790158973657,-7.32158159381543],[-35.9831104539842,-7.3223581395165],[-35.9811870865148,-7.3247839402266],[-35.9812375456762,-7.33598963231567],[-35.9798863259931,-7.33960352198488],[-35.9833257930509,-7.34050722013205],[-35.9821447421861,-7.3443208869993],[-35.9858010097088,-7.34452380912643],[-35.9879071410017,-7.34651707370392],[-35.9858278256935,-7.34958725574723],[-35.9877777906125,-7.35443798752306],[-35.9856102311272,-7.35925171489469],[-35.9860252592583,-7.36736341988587],[-35.9900232125012,-7.3712654964055],[-35.9900599255251,-7.37316580435833],[-35.9973285898425,-7.37463385586773],[-36.000597385361,-7.38019410327518],[-36.0038982408111,-7.38096976224467],[-36.0033454509318,-7.3846767029674],[-36.0050795884522,-7.38602291882262],[-36.0087501309138,-7.38341764221036],[-36.0122473659231,-7.38678509785394],[-36.0139239324435,-7.38647160767853],[-36.0167501005367,-7.37996463765785],[-36.0194193090538,-7.38186620556087],[-36.0294722150706,-7.37225867529759],[-36.0394898047107,-7.36766241748655],[-36.1286126581476,-7.35865449580831],[-36.1142838076515,-7.27075898673781],[-36.114891672013,-7.25557649885627],[-36.1106802421993,-7.25660347517022],[-36.1108885260846,-7.25436257597205],[-36.1088563856136,-7.25192702391297],[-36.1097555412852,-7.24805296487239],[-36.1062361910473,-7.24441791325603],[-36.1062369905446,-7.23856624143884],[-36.1028732302154,-7.23600501451978],[-36.1049444282427,-7.23095525108391],[-36.1030491771778,-7.22735464799855],[-36.1026277863432,-7.22014936699964],[-36.0999507528249,-7.21886147038048],[-36.097208411439,-7.21208230255616],[-36.0942761017607,-7.20964907884189],[-36.0940784910295,-7.20460005644742],[-36.0915103060557,-7.20118537650388],[-36.0948422294853,-7.15400970468409],[-36.0632569708325,-7.16618004197535],[-36.0469102494084,-7.1651046353706],[-36.0338337318412,-7.17391753186854],[-36.0321912397339,-7.16986291773942],[-36.0329385709583,-7.16659809182841],[-36.029720267876,-7.16552467362477],[-36.0208103714015,-7.16693278621905]]]}},{"type":"Feature","properties":{"id":"56","concentrationId":"2504009","name":"Campina Grande/PB","state":"PB","municipality":"2512507","population2010":"41049","urbanPopulation2010":"24476","ruralPopulation2010":"16573"},"geometry":{"type":"Polygon","coordinates":[[[-35.8868080095819,-7.29450260591051],[-35.8788200333178,-7.2982863091658],[-35.8655317613816,-7.29867281529812],[-35.8616677954324,-7.30102102160282],[-35.841995696744,-7.30138645122372],[-35.8372124500945,-7.34138164624591],[-35.838713202752,-7.34953343581937],[-35.8366861740276,-7.35747842718763],[-35.8380653860087,-7.36003342270424],[-35.8370879371585,-7.36510425815493],[-35.8391125440086,-7.36953171051999],[-35.838005152116,-7.37382854625037],[-35.8406284250617,-7.38576826229542],[-35.8368878209162,-7.39539227353453],[-35.829276718146,-7.40584213040995],[-35.8296091957077,-7.4091023940602],[-35.8256670498944,-7.41129200941867],[-35.8248246288535,-7.41433407325883],[-35.8209731940576,-7.41857086035685],[-35.8204105116358,-7.42217368926431],[-35.8215942226952,-7.42414645109778],[-35.8320819761022,-7.42829241476307],[-35.8342786313537,-7.43446520120802],[-35.83695455331,-7.43626966841044],[-35.8382052314862,-7.44764730457939],[-35.8354802937805,-7.45070206414891],[-35.8374323010598,-7.45581391318149],[-35.8342220217289,-7.45606156668788],[-35.8277418227269,-7.45363725075844],[-35.8248573740685,-7.46032070103946],[-35.832037462359,-7.46370371315578],[-35.8370438011304,-7.46826466268396],[-35.8358602906198,-7.47309170631712],[-35.8372106208734,-7.47627151931511],[-35.8351576098358,-7.47996694421903],[-35.8362840619599,-7.49009432938977],[-35.8472927341723,-7.49262717370505],[-35.8505905427193,-7.49652962524197],[-35.8511918042583,-7.50163233086732],[-35.8539513119035,-7.5061173470379],[-35.8595527140864,-7.50425294181975],[-35.8644488778134,-7.51055445632306],[-35.8669185537482,-7.51073529289943],[-35.8691735902889,-7.50841144023571],[-35.8717909771718,-7.51304044865771],[-35.8721253343167,-7.51006152801704],[-35.8742287361672,-7.51231549616319],[-35.891206137753,-7.51038845496317],[-35.9006012472497,-7.51612176520723],[-35.9027273866595,-7.50811426106424],[-35.9150489152752,-7.5062495329895],[-35.9174583132505,-7.50867014551074],[-35.9178152208957,-7.51160879361089],[-35.9211441909516,-7.51396383116582],[-35.9341002182504,-7.50609365349924],[-35.9380562972603,-7.5057389410992],[-35.9433660699881,-7.5016634213298],[-35.948296078801,-7.49457436691347],[-35.951763784571,-7.49366418375502],[-35.9534786361301,-7.49573742953867],[-35.9581313830569,-7.49364688079885],[-35.964120123245,-7.48862124527421],[-35.9651960505573,-7.48203017785039],[-35.9729641668628,-7.47967692994633],[-35.9738850294705,-7.47748273254201],[-35.977347274557,-7.47629769678122],[-35.9817557116567,-7.47002476992714],[-35.9917148912292,-7.46752025695424],[-35.9930163172492,-7.45998179512373],[-36.0019575847747,-7.45651366577301],[-36.0049270004806,-7.45339586192944],[-36.0097589598081,-7.45364712891183],[-36.0082312175966,-7.4508077758581],[-36.009092056753,-7.44980831610088],[-36.0213412555945,-7.44398898570307],[-36.0155450917326,-7.44278090031827],[-36.017630224755,-7.43989674393953],[-36.0166306318981,-7.43842050050563],[-36.0089106581003,-7.43938841024686],[-36.005797803226,-7.43230569605101],[-36.0050541322424,-7.42376772320182],[-36.0174146455694,-7.42225970672007],[-36.017255163395,-7.42078838077913],[-36.0097170226225,-7.41371539724777],[-36.0038338700371,-7.41106388469046],[-36.0006152144206,-7.41401042434154],[-35.9986408014318,-7.41275390866588],[-35.9997338959025,-7.40819824445338],[-36.0064847530688,-7.40615225172503],[-36.0099411903336,-7.40102818540237],[-36.0069604287807,-7.39537403348482],[-36.0018763013502,-7.3945993772594],[-36.0000619568938,-7.39202915082461],[-35.9990215114336,-7.3883162152211],[-36.0018739379318,-7.38424826504536],[-36.0033454509318,-7.3846767029674],[-36.0038982408111,-7.38096976224467],[-36.000597385361,-7.38019410327518],[-35.9973285898425,-7.37463385586773],[-35.9900599255251,-7.37316580435833],[-35.9900232125012,-7.3712654964055],[-35.9860252592583,-7.36736341988587],[-35.9856102311272,-7.35925171489469],[-35.9877777906125,-7.35443798752306],[-35.9858278256935,-7.34958725574723],[-35.9879071410017,-7.34651707370392],[-35.9858010097088,-7.34452380912643],[-35.9821447421861,-7.3443208869993],[-35.9833257930509,-7.34050722013205],[-35.9798863259931,-7.33960352198488],[-35.9812375456762,-7.33598963231567],[-35.9811870865148,-7.3247839402266],[-35.9831104539842,-7.3223581395165],[-35.9790158973657,-7.32158159381543],[-35.9770570921111,-7.31736601632856],[-35.978998372277,-7.30916615439447],[-35.9771780545236,-7.305672007657],[-35.97720234791,-7.30186513246986],[-35.9829509844004,-7.2976186848544],[-35.982908866451,-7.29618157092273],[-35.9757864300996,-7.29663269784066],[-35.9729383599174,-7.29528298722005],[-35.9620088451321,-7.29817770793483],[-35.9606554005263,-7.293913281073],[-35.9623431905857,-7.28858112511882],[-35.9596148894155,-7.28641751365729],[-35.9576269083551,-7.287766023683],[-35.9573831489132,-7.28555029381096],[-35.9541321374881,-7.28513598243961],[-35.9529174303951,-7.28303691532137],[-35.9536546757226,-7.28092063697778],[-35.9511651337639,-7.27964691277475],[-35.944500879512,-7.28018019815756],[-35.945002774958,-7.28503023116019],[-35.9395609205999,-7.28622298850008],[-35.8974730067738,-7.28792519918852],[-35.8958461116087,-7.28648272619683],[-35.8927637698321,-7.2879562446849],[-35.8925024286441,-7.28639931947299],[-35.8882764909673,-7.28676744795934],[-35.8880744888465,-7.29192291680915],[-35.8868080095819,-7.29450260591051]]]}},{"type":"Feature","properties":{"id":"57","concentrationId":"2504009","name":"Campina Grande/PB","state":"PB","municipality":"2509206","population2010":"12902","urbanPopulation2010":"6695","ruralPopulation2010":"6207"},"geometry":{"type":"Polygon","coordinates":[[[-35.8417299857502,-7.25034864897095],[-35.8146733981587,-7.20747597143891],[-35.8150441769471,-7.20599890692398],[-35.82233652581,-7.20125257654513],[-35.8258557978068,-7.20132198082474],[-35.8342809183297,-7.19491112225047],[-35.8219679584545,-7.18644027389945],[-35.8220381343524,-7.18314117482532],[-35.8252852831892,-7.17798361325311],[-35.8244255609908,-7.17358369183387],[-35.806424162545,-7.16029391982852],[-35.8030285949936,-7.15623943250375],[-35.7926005232954,-7.15472635643613],[-35.7815971579824,-7.14989707349111],[-35.7706982920924,-7.13955371613106],[-35.7646659491742,-7.13982389046015],[-35.7613591851782,-7.13612526936567],[-35.7524321494241,-7.13391960380665],[-35.7486503788119,-7.12834663279086],[-35.7400072356454,-7.12250495603883],[-35.7345466960731,-7.12406146756262],[-35.7296728813983,-7.12192938903002],[-35.7305683588426,-7.11941816081941],[-35.723855769628,-7.1145990321196],[-35.7207157938987,-7.11442070465176],[-35.7196935723005,-7.1128557673797],[-35.7130953912393,-7.11049034715176],[-35.7126727629376,-7.10764380671628],[-35.7079371947457,-7.10425971631281],[-35.6805353502262,-7.14875513234342],[-35.6827296717369,-7.15315419041349],[-35.6869408326532,-7.15456340647597],[-35.6882748006415,-7.15640290497005],[-35.6952796137631,-7.1562882620936],[-35.6971713583715,-7.16031272645115],[-35.7026274768765,-7.16152459168648],[-35.7117003772706,-7.16882942134066],[-35.7088039523405,-7.17918264066629],[-35.7096896415637,-7.18460972635773],[-35.7075156276441,-7.18533949382255],[-35.7024996697239,-7.19279999972014],[-35.7008241994771,-7.19903487176185],[-35.6975631192425,-7.20030015133086],[-35.6950146033412,-7.20378472388586],[-35.6968248648756,-7.20713128558032],[-35.6960705414223,-7.21037150244286],[-35.6984914732029,-7.21882112859215],[-35.7041393820268,-7.26023221714309],[-35.714484722392,-7.26219964509749],[-35.7273672076305,-7.27443667071572],[-35.732332116434,-7.27735765792955],[-35.7443246091933,-7.27802326326292],[-35.7502870855805,-7.2727315489218],[-35.7521876066727,-7.27253560103714],[-35.7648003564512,-7.28130973855354],[-35.7697485153817,-7.28155559701315],[-35.7735235887426,-7.27655400036678],[-35.7829376154785,-7.27585130609288],[-35.7884189923426,-7.26982340762414],[-35.800581025294,-7.2672600628016],[-35.8044532389258,-7.2626246044419],[-35.8128923852753,-7.25740904649024],[-35.83588646269,-7.25265306098993],[-35.8417299857502,-7.25034864897095]]]}},{"type":"Feature","properties":{"id":"58","concentrationId":"2504009","name":"Campina Grande/PB","state":"PB","municipality":"2512408","population2010":"12923","urbanPopulation2010":"6596","ruralPopulation2010":"6327"},"geometry":{"type":"Polygon","coordinates":[[[-35.9794891808809,-7.10087655490901],[-35.9716673255866,-7.1086260021882],[-35.9644171522298,-7.11210820413027],[-35.9543526593477,-7.11191086139707],[-35.9529712584168,-7.10934540226845],[-35.9466562819618,-7.11052946046619],[-35.9300712896583,-7.10772413955732],[-35.930076541699,-7.12899362395655],[-35.9335293528973,-7.13623638959763],[-35.9219964757567,-7.15029125173982],[-35.9208215816506,-7.15617004710993],[-35.9140438077754,-7.16052858352725],[-35.9085071900547,-7.16873367951564],[-35.9085711318522,-7.17720117609338],[-35.9050920406651,-7.18194337408739],[-35.9415238330584,-7.17458023149243],[-35.9382685813299,-7.19449990094961],[-35.9421914330881,-7.1929388064807],[-35.9476136894202,-7.19317963593141],[-35.9555905716475,-7.19719140186168],[-35.9584709292899,-7.19529415969765],[-35.9640514078462,-7.19457751963676],[-35.9709701540493,-7.18627166720365],[-35.9726515544256,-7.1767544027934],[-35.9784278873371,-7.17293310158135],[-35.9865760805217,-7.16099500611461],[-35.9967630259928,-7.16441003049847],[-35.9985605864019,-7.16329262735281],[-36.0208103714015,-7.16693278621905],[-36.029720267876,-7.16552467362477],[-35.9794891808809,-7.10087655490901]]]}},{"type":"Feature","properties":{"id":"59","concentrationId":"2504009","name":"Campina Grande/PB","state":"PB","municipality":"2508307","population2010":"25900","urbanPopulation2010":"14536","ruralPopulation2010":"11364"},"geometry":{"type":"Polygon","coordinates":[[[-35.9208215816506,-7.15617004710993],[-35.9219964757567,-7.15029125173982],[-35.9335293528973,-7.13623638959763],[-35.930076541699,-7.12899362395655],[-35.9300712896583,-7.10772413955732],[-35.9224902188485,-7.10284079116952],[-35.9174333291847,-7.1046808616324],[-35.9102426432833,-7.10194272727501],[-35.9074798414215,-7.09617044401074],[-35.9029409522631,-7.09261827031685],[-35.8962806262498,-7.09325963532388],[-35.8954912544178,-7.0851685715723],[-35.8893442956027,-7.08854502223494],[-35.880559048761,-7.10078477999354],[-35.8664309512274,-7.11532242608905],[-35.8642831102773,-7.12030194887581],[-35.8545781267791,-7.11701093380749],[-35.849272115016,-7.11803421840443],[-35.8457408298753,-7.12050642143413],[-35.8420633554394,-7.11609766867242],[-35.8395353719598,-7.12404044321181],[-35.8365344395127,-7.12233519911013],[-35.8299486133378,-7.12608477938904],[-35.8284253092805,-7.13427746473314],[-35.8225561447502,-7.13457109877715],[-35.8203790704377,-7.13803537183492],[-35.8135614529986,-7.13201864474463],[-35.8125794185053,-7.12626237301004],[-35.8104237183799,-7.12660561365812],[-35.8066416707765,-7.13186075616892],[-35.8012326776459,-7.12904816424135],[-35.7978854765335,-7.13292312979855],[-35.78497756836,-7.13450576303052],[-35.7832893727063,-7.13719562627711],[-35.7893494893874,-7.14329040552775],[-35.7860998386366,-7.15105335432878],[-35.7926005232954,-7.15472635643613],[-35.8030285949936,-7.15623943250375],[-35.806424162545,-7.16029391982852],[-35.8244255609908,-7.17358369183387],[-35.8252852831892,-7.17798361325311],[-35.8220381343524,-7.18314117482532],[-35.8219679584545,-7.18644027389945],[-35.8342809183297,-7.19491112225047],[-35.83627214954,-7.19388473049588],[-35.8411338791252,-7.19588125331717],[-35.8437747697898,-7.192362192661],[-35.8471221435721,-7.19529198873426],[-35.849628376948,-7.20080818554925],[-35.8566873049751,-7.20426556530356],[-35.8614838642889,-7.21078086574431],[-35.8639604389231,-7.21159441674888],[-35.8669918224146,-7.20982354911746],[-35.8655492954636,-7.20219015125446],[-35.8691151676309,-7.19688726823278],[-35.8715022813052,-7.19631268688096],[-35.8716772902747,-7.1935669424604],[-35.8737073191375,-7.19137081511099],[-35.8733177184379,-7.18729359202558],[-35.8783386738906,-7.18412194756979],[-35.878700982864,-7.18126880700981],[-35.8846464800509,-7.17422581317072],[-35.887958684046,-7.15680315903853],[-35.9050920406651,-7.18194337408739],[-35.9085711318522,-7.17720117609338],[-35.9085071900547,-7.16873367951564],[-35.9139128431032,-7.16069658497935],[-35.9208215816506,-7.15617004710993]]]}},{"type":"Feature","properties":{"id":"60","concentrationId":"2507507","name":"João Pessoa/PB","state":"PB","municipality":"2503209","population2010":"57944","urbanPopulation2010":"57936","ruralPopulation2010":"8"},"geometry":{"type":"MultiPolygon","coordinates":[[[[-34.8675179790714,-6.99179602486664],[-34.86727926228451,-6.987401986744487],[-34.86700024059208,-6.988827483707834],[-34.8625153427242,-7.011740427270441],[-34.8655967402973,-7.00470611299665],[-34.8675179790714,-6.99179602486664]]],[[[-34.85950418597675,-7.027124158772242],[-34.85935928090776,-7.027864465857403],[-34.8595975679734,-7.02711580734859],[-34.85950418597675,-7.027124158772242]]],[[[-34.8488199252993,-7.05987624519253],[-34.8447038838771,-7.09986475645332],[-34.8489261640112,-7.09977117929646],[-34.8548017119294,-7.09526191020893],[-34.85894884921,-7.0954298810841],[-34.8580150678411,-7.08812158814073],[-34.8626290980544,-7.08775160165504],[-34.8657301817025,-7.07956331669368],[-34.8636260217235,-7.07684882551285],[-34.8590152074858,-7.07508586741881],[-34.8594220436923,-7.06949186485764],[-34.8568962671489,-7.0636774924223],[-34.86414573184,-7.05929073617848],[-34.85897846564896,-7.029734117676653],[-34.842411694003296,-7.055981472753812],[-34.8464321794015,-7.05672361690137],[-34.8488199252993,-7.05987624519253]]]]}},{"type":"Feature","properties":{"id":"61","concentrationId":"2507507","name":"João Pessoa/PB","state":"PB","municipality":"2508604","population2010":"11730","urbanPopulation2010":"10152","ruralPopulation2010":"1578"},"geometry":{"type":"Polygon","coordinates":[[[-34.8810511094211,-6.96560159933432],[-34.8820337842317,-6.96465302321838],[-34.8791401669851,-6.95951832061393],[-34.8808442482634,-6.95685214281207],[-34.8826420820664,-6.95598704536582],[-34.8879786635844,-6.96042631212458],[-34.8908925317649,-6.95990152353642],[-34.8949098618006,-6.95653890354755],[-34.8987752945442,-6.95729489344455],[-34.8995342072378,-6.95429201126729],[-34.9023699180373,-6.95556606372282],[-34.9057821797038,-6.95057772218411],[-34.9080164967639,-6.95211264728079],[-34.9076300373962,-6.95420444338033],[-34.910957585624,-6.94974446343623],[-34.9137786212863,-6.95292810484813],[-34.9207667510847,-6.95658504326508],[-34.9891449932468,-6.90818103692527],[-34.975515810806,-6.90191652143029],[-34.9636659424293,-6.90042491307924],[-34.9499879312979,-6.89243836493853],[-34.9382169172769,-6.89154100611251],[-34.9323482446757,-6.88915638805679],[-34.9234117588455,-6.87684032911784],[-34.9092212348721,-6.86704428566521],[-34.9027616258483,-6.86526772082863],[-34.8998781412632,-6.86648220848708],[-34.89763020943544,-6.869955084504849],[-34.87241413225996,-6.965537647311919],[-34.8745288752074,-6.96472549238751],[-34.8810511094211,-6.96560159933432]]]}},{"type":"Feature","properties":{"id":"62","concentrationId":"2507507","name":"João Pessoa/PB","state":"PB","municipality":"2513703","population2010":"120310","urbanPopulation2010":"103717","ruralPopulation2010":"16593"},"geometry":{"type":"Polygon","coordinates":[[[-34.8896167049469,-7.09231816295285],[-34.9045197869585,-7.08913203311681],[-34.9065371524676,-7.08805479908967],[-34.909220444368,-7.08025954214413],[-34.9129809711948,-7.08018119770407],[-34.9137644137966,-7.08157180859206],[-34.9124325610138,-7.08484268334315],[-34.9170142695928,-7.09104862509394],[-34.9153181554085,-7.09230629010318],[-34.9155967662777,-7.09402651331288],[-34.9143768988748,-7.09374149747209],[-34.9086993861677,-7.09850696002814],[-34.9081977587196,-7.10115190573584],[-34.9145732631455,-7.10301428028476],[-34.9150158285177,-7.10450783836598],[-34.9118485916392,-7.10717291809568],[-34.9141578123331,-7.11020364328347],[-34.9136453876245,-7.11410316303051],[-34.9156599139738,-7.11722153884291],[-34.9177959216444,-7.11554501099341],[-34.9199649281389,-7.11722153884291],[-34.9194130034073,-7.12009154888586],[-34.9215379134439,-7.12191290085963],[-34.9234696509036,-7.11865654386435],[-34.9264500455332,-7.11824260031568],[-34.9322097391881,-7.11938241007011],[-34.9315972244323,-7.12095364439512],[-34.9346065367622,-7.12434466857156],[-34.9415350001401,-7.12296199959655],[-34.9449208424229,-7.13127283067656],[-34.9430639996039,-7.13257999976713],[-34.9515240003323,-7.13710199965749],[-34.9499586340837,-7.13865664778603],[-34.9577513333573,-7.14839476050975],[-34.9603405642656,-7.15696958218041],[-34.9644820052403,-7.15850430852698],[-34.9652090000952,-7.16353199990181],[-34.9679431819322,-7.16570325739934],[-34.9681602099257,-7.16874968834741],[-34.9705354399586,-7.16974025740689],[-34.9737906242379,-7.1755844099925],[-34.9682186595634,-7.21594349769424],[-34.9604284415193,-7.21394171024168],[-34.9527941991929,-7.21530443405238],[-34.9374875302253,-7.21320426256659],[-34.9354341441704,-7.21397408583533],[-34.929847700411,-7.22591654121539],[-34.9352616910741,-7.23903989907207],[-34.9413260489579,-7.24169506017881],[-34.9437601513099,-7.24475866548],[-34.9431295269061,-7.25167990640251],[-34.9448255241786,-7.26226731008825],[-34.9500439347797,-7.2757573979855],[-34.9555939173254,-7.27693202769087],[-34.9586538219163,-7.28157437845477],[-34.9689363482339,-7.28253546144237],[-34.9741265399078,-7.27427255973077],[-34.9893722708136,-7.26783282752291],[-34.992656134473,-7.26880618535712],[-34.9977622746092,-7.2674798139422],[-35.0051812291304,-7.2686329489514],[-35.0061295417449,-7.270353738734],[-35.0235704710004,-7.27147678692415],[-35.0438051172123,-7.27878135127826],[-35.0451858625375,-7.2776901399879],[-35.0449500944712,-7.27483838618252],[-35.055696052231,-7.26715621988359],[-35.0675047703289,-7.22929282820143],[-35.0419768674384,-7.14215288994387],[-35.0435456205339,-7.13668845450854],[-35.0393037081996,-7.12920537652684],[-35.041230499388,-7.12749148094701],[-35.0473777801604,-7.12894106937483],[-35.0478270229987,-7.12768979225007],[-35.0445078681436,-7.12295440482188],[-35.0592167172776,-7.08109880746396],[-35.1620561258895,-7.03157035448822],[-35.1277058674318,-7.00983483870682],[-35.1349568285947,-7.00704626407379],[-35.1384939116646,-6.9836954750661],[-35.1462859292522,-6.97325079109106],[-35.1414310327159,-6.96726985072298],[-35.1398566786428,-6.96309831213734],[-35.1374663957575,-6.95263718495807],[-35.1373734301396,-6.94484628252986],[-35.1326399501735,-6.94082544423884],[-35.1202261187403,-6.94070444765208],[-35.109606071463,-6.93635858088374],[-35.0959929320281,-6.94043082802022],[-35.0903144480533,-6.93995420622162],[-35.0757630765048,-6.93517816673898],[-35.0592372982626,-6.93483014889222],[-35.049891027349,-6.92934840600408],[-35.0374446503503,-6.91932175839242],[-35.031965442651,-6.91946304278515],[-35.0250663079637,-6.91575192471152],[-35.015662538895,-6.91545122019762],[-35.0137351253757,-6.91384042109849],[-35.0044040260249,-6.91193847727885],[-35.0024770936429,-6.9101853370836],[-35.0009601082224,-6.91093289493711],[-34.9992723739209,-6.90922058306342],[-34.9934695505793,-6.90970043882414],[-34.9891449932468,-6.90818103692527],[-34.9207667510847,-6.95658504326508],[-34.9137786212863,-6.95292810484813],[-34.910957585624,-6.94974446343623],[-34.9076300373962,-6.95420444338033],[-34.9080164967639,-6.95211264728079],[-34.9057821797038,-6.95057772218411],[-34.9023699180373,-6.95556606372282],[-34.8995342072378,-6.95429201126729],[-34.8987752945442,-6.95729489344455],[-34.8949098618006,-6.95653890354755],[-34.8908925317649,-6.95990152353642],[-34.8879786635844,-6.96042631212458],[-34.8826420820664,-6.95598704536582],[-34.8791401669851,-6.95951832061393],[-34.8820337842317,-6.96465302321838],[-34.8810511094211,-6.96560159933432],[-34.8745288752074,-6.96472549238751],[-34.87241413225996,-6.965537647311919],[-34.86884771718195,-6.97938889043679],[-34.868847717181936,-6.979388890436849],[-34.8709017079474,-6.98544311230973],[-34.8683302332536,-7.0069160053693],[-34.85900690376355,-7.0296647292872025],[-34.859,-7.0297],[-34.85897846564896,-7.0297341176766475],[-34.85897846564896,-7.029734117676653],[-34.86414573184,-7.05929073617848],[-34.8896167049469,-7.09231816295285]]]}},{"type":"Feature","properties":{"id":"63","concentrationId":"2507507","name":"João Pessoa/PB","state":"PB","municipality":"2501807","population2010":"99716","urbanPopulation2010":"98793","ruralPopulation2010":"923"},"geometry":{"type":"Polygon","coordinates":[[[-34.9705354399586,-7.16974025740689],[-34.9681602099257,-7.16874968834741],[-34.9679431819322,-7.16570325739934],[-34.9652090000952,-7.16353199990181],[-34.9644820052403,-7.15850430852698],[-34.9603405642656,-7.15696958218041],[-34.9577513333573,-7.14839476050975],[-34.9499586340837,-7.13865664778603],[-34.9515240003323,-7.13710199965749],[-34.9430639996039,-7.13257999976713],[-34.9449208424229,-7.13127283067656],[-34.9415350001401,-7.12296199959655],[-34.9346065367622,-7.12434466857156],[-34.9315972244323,-7.12095364439512],[-34.9322097391881,-7.11938241007011],[-34.9264500455332,-7.11824260031568],[-34.9234696509036,-7.11865654386435],[-34.9215379134439,-7.12191290085963],[-34.9194130034073,-7.12009154888586],[-34.9199649281389,-7.11722153884291],[-34.9177959216444,-7.11554501099341],[-34.9156599139738,-7.11722153884291],[-34.9136453876245,-7.11410316303051],[-34.9141578123331,-7.11020364328347],[-34.9118485916392,-7.10717291809568],[-34.9150158285177,-7.10450783836598],[-34.9145732631455,-7.10301428028476],[-34.9081977587196,-7.10115190573584],[-34.9086993861677,-7.09850696002814],[-34.9143768988748,-7.09374149747209],[-34.9155967662777,-7.09402651331288],[-34.9153181554085,-7.09230629010318],[-34.9170142695928,-7.09104862509394],[-34.9124325610138,-7.08484268334315],[-34.9137644137966,-7.08157180859206],[-34.9129809711948,-7.08018119770407],[-34.909220444368,-7.08025954214413],[-34.9065371524676,-7.08805479908967],[-34.9045197869585,-7.08913203311681],[-34.8896167049469,-7.09231816295285],[-34.8930444799188,-7.09625570423731],[-34.8960997377127,-7.10446236774402],[-34.8910949151982,-7.10952015493114],[-34.8907637596397,-7.1117530258814],[-34.8939649243417,-7.1168123374194],[-34.8939442840015,-7.12073139223991],[-34.895402598551,-7.12225283380122],[-34.8981779513513,-7.12082299178758],[-34.9013055254296,-7.12131972422583],[-34.9020782202336,-7.12453928635892],[-34.9082370366099,-7.12821597748536],[-34.9114233669948,-7.1274244688641],[-34.9193428311067,-7.13473647420886],[-34.9155231100035,-7.14402771200924],[-34.909892298191,-7.1508406655642],[-34.9123017465283,-7.15434053288925],[-34.9132720214865,-7.16173174602324],[-34.9233002096369,-7.17175170267888],[-34.9277224252497,-7.16709158311006],[-34.9344247576964,-7.16860905326513],[-34.9393736837484,-7.16463519375913],[-34.9474848185695,-7.16390416724346],[-34.9518745218916,-7.1686488968291],[-34.9624487442142,-7.16704066619377],[-34.9737906242379,-7.1755844099925],[-34.9705354399586,-7.16974025740689]]]}},{"type":"Feature","properties":{"id":"64","concentrationId":"2507507","name":"João Pessoa/PB","state":"PB","municipality":"2504603","population2010":"21400","urbanPopulation2010":"15997","ruralPopulation2010":"5403"},"geometry":{"type":"Polygon","coordinates":[[[-34.8065680686614,-7.3759552009717],[-34.8090087639433,-7.37672330653533],[-34.808401492235,-7.37469138190169],[-34.8108759921333,-7.37145580194369],[-34.8093779896025,-7.3701636335448],[-34.8102645610606,-7.36734274716998],[-34.8129015648553,-7.368160725537],[-34.8144872782652,-7.36633022206206],[-34.8132970516176,-7.36427546633968],[-34.8179297625484,-7.36494379931685],[-34.8155641939323,-7.36149511061081],[-34.8156304496854,-7.35480116704019],[-34.8188235474687,-7.35286249580748],[-34.8201585074091,-7.34977573925892],[-34.8293515068665,-7.34810995201264],[-34.8320153428338,-7.34626527252425],[-34.8358184174859,-7.34740367933632],[-34.8418726220238,-7.34600823998824],[-34.8442046881958,-7.34393638185849],[-34.8464889185287,-7.34394130204942],[-34.8503774107888,-7.3478111117933],[-34.8522067046756,-7.3476295539607],[-34.8563767782657,-7.34460700990554],[-34.8574619488098,-7.34178639512601],[-34.8598496236612,-7.34334173393382],[-34.8740966646293,-7.33380418171754],[-34.8796774084856,-7.3254768660645],[-34.8914908830977,-7.31904750843576],[-34.8923717870283,-7.31658679604375],[-34.8982118063298,-7.31589517152492],[-34.9062656318534,-7.30919053411583],[-34.9096240430151,-7.30867509398036],[-34.9195957357546,-7.30249511925434],[-34.9196541710032,-7.29662855646268],[-34.9169207724756,-7.28927336027732],[-34.9202206089939,-7.28082984681993],[-34.9263752830928,-7.2730198877576],[-34.9395960366277,-7.27342129925353],[-34.9379555122371,-7.26133306466915],[-34.934665276881,-7.25251521560467],[-34.9438442469144,-7.24894386836479],[-34.9437601513099,-7.24475866548],[-34.9413260489579,-7.24169506017881],[-34.9352616910741,-7.23903989907207],[-34.929847700411,-7.22591654121539],[-34.9118246058209,-7.21321162711485],[-34.9044920006053,-7.21284301928984],[-34.8992913030511,-7.21465266928522],[-34.8878233938345,-7.21539096232301],[-34.8758194185313,-7.22152636844708],[-34.8727125954099,-7.22109417045953],[-34.8714373954194,-7.22215673114818],[-34.8725103486736,-7.22504679067679],[-34.8694010263363,-7.22554410497639],[-34.8698382209571,-7.22784111017904],[-34.8656559435669,-7.22625966135423],[-34.8655120403483,-7.22806181280237],[-34.8629837151263,-7.22805812917926],[-34.8624899531488,-7.23023397052129],[-34.8582680066631,-7.22895961949081],[-34.8577366485275,-7.23054302164308],[-34.8507874836554,-7.23192912602833],[-34.851154979019,-7.23455160846994],[-34.8494318689855,-7.23515869851509],[-34.8454060187727,-7.23232273500617],[-34.846766275743,-7.235225685417],[-34.8442084194829,-7.235046550358],[-34.842439399059,-7.23678540302388],[-34.8402652799187,-7.23444345060472],[-34.8387885499516,-7.23774514062569],[-34.8375678398838,-7.23561100984018],[-34.8383207091334,-7.23182600436655],[-34.8352866510581,-7.2315944568187],[-34.8322917746456,-7.22860254007515],[-34.831046172243,-7.2307660247322],[-34.8267896603145,-7.22945506859652],[-34.8225684090048,-7.23143892176876],[-34.8229289948771,-7.23255938800532],[-34.8251498994483,-7.23213350775512],[-34.8250140694437,-7.23546353451445],[-34.8186839618953,-7.23427720912587],[-34.8176820227071,-7.2354470274583],[-34.818593050329,-7.2388341557716],[-34.8091545062754,-7.23603170370012],[-34.80733619143591,-7.236588194380643],[-34.8073361914359,-7.236588194380653],[-34.8086556937052,-7.24347859566064],[-34.806464466497694,-7.241077815988656],[-34.80559553022658,-7.253958375970328],[-34.80350630515484,-7.350601884127748],[-34.80280570264141,-7.383010400394366],[-34.8052005370751,-7.38080903630794],[-34.8065680686614,-7.3759552009717]]]}},{"type":"Feature","properties":{"id":"65","concentrationId":"2507507","name":"João Pessoa/PB","state":"PB","municipality":"2507507","population2010":"723515","urbanPopulation2010":"721860","ruralPopulation2010":"1655"},"geometry":{"type":"MultiPolygon","coordinates":[[[[-34.818593050329,-7.2388341557716],[-34.8176820227071,-7.2354470274583],[-34.8186839618953,-7.23427720912587],[-34.8250140694437,-7.23546353451445],[-34.8251498994483,-7.23213350775512],[-34.8229289948771,-7.23255938800532],[-34.8225684090048,-7.23143892176876],[-34.8267896603145,-7.22945506859652],[-34.831046172243,-7.2307660247322],[-34.8322917746456,-7.22860254007515],[-34.8352866510581,-7.2315944568187],[-34.8383207091334,-7.23182600436655],[-34.8375678398838,-7.23561100984018],[-34.8387885499516,-7.23774514062569],[-34.8402652799187,-7.23444345060472],[-34.842439399059,-7.23678540302388],[-34.8442084194829,-7.235046550358],[-34.846766275743,-7.235225685417],[-34.8454060187727,-7.23232273500617],[-34.8494318689855,-7.23515869851509],[-34.851154979019,-7.23455160846994],[-34.8507874836554,-7.23192912602833],[-34.8577366485275,-7.23054302164308],[-34.8582680066631,-7.22895961949081],[-34.8624899531488,-7.23023397052129],[-34.8629837151263,-7.22805812917926],[-34.8655120403483,-7.22806181280237],[-34.8656559435669,-7.22625966135423],[-34.8698382209571,-7.22784111017904],[-34.8694010263363,-7.22554410497639],[-34.8725103486736,-7.22504679067679],[-34.8714373954194,-7.22215673114818],[-34.8727125954099,-7.22109417045953],[-34.8758194185313,-7.22152636844708],[-34.8878233938345,-7.21539096232301],[-34.8992913030511,-7.21465266928522],[-34.9044920006053,-7.21284301928984],[-34.9118246058209,-7.21321162711485],[-34.929847700411,-7.22591654121539],[-34.9354341441704,-7.21397408583533],[-34.9374875302253,-7.21320426256659],[-34.9527941991929,-7.21530443405238],[-34.9604284415193,-7.21394171024168],[-34.9682186595634,-7.21594349769424],[-34.9737906242379,-7.1755844099925],[-34.9624487442142,-7.16704066619377],[-34.9518745218916,-7.1686488968291],[-34.9474848185695,-7.16390416724346],[-34.9393736837484,-7.16463519375913],[-34.9344247576964,-7.16860905326513],[-34.9277224252497,-7.16709158311006],[-34.9233002096369,-7.17175170267888],[-34.9132720214865,-7.16173174602324],[-34.9123017465283,-7.15434053288925],[-34.909892298191,-7.1508406655642],[-34.9155231100035,-7.14402771200924],[-34.9193428311067,-7.13473647420886],[-34.9114233669948,-7.1274244688641],[-34.9082370366099,-7.12821597748536],[-34.9020782202336,-7.12453928635892],[-34.9013055254296,-7.12131972422583],[-34.8981779513513,-7.12082299178758],[-34.895402598551,-7.12225283380122],[-34.8939442840015,-7.12073139223991],[-34.8939649243417,-7.1168123374194],[-34.8907637596397,-7.1117530258814],[-34.8910949151982,-7.10952015493114],[-34.8960997377127,-7.10446236774402],[-34.8930444799188,-7.09625570423731],[-34.86414573184,-7.05929073617848],[-34.8568962671489,-7.0636774924223],[-34.8594220436923,-7.06949186485764],[-34.8590152074858,-7.07508586741881],[-34.8636260217235,-7.07684882551285],[-34.8657301817025,-7.07956331669368],[-34.8626290980544,-7.08775160165504],[-34.8580150678411,-7.08812158814073],[-34.8574556670454,-7.09025748069816],[-34.8591979083567,-7.0950997318671],[-34.8548017119294,-7.09526191020893],[-34.8489261640112,-7.09977117929646],[-34.8447038838771,-7.09986475645332],[-34.8488199252993,-7.05987624519253],[-34.8464321794015,-7.05672361690137],[-34.8424,-7.056],[-34.8073361914359,-7.236588194380644],[-34.8091545062754,-7.23603170370012],[-34.818593050329,-7.2388341557716]]],[[[-34.807218990673555,-7.237191810328829],[-34.806464466497694,-7.241077815988656],[-34.8086556937052,-7.24347859566064],[-34.807218990673555,-7.237191810328829]]]]}},{"type":"Feature","properties":{"id":"66","concentrationId":"2510808","name":"Patos/PB","state":"PB","municipality":"2512606","population2010":"1699","urbanPopulation2010":"633","ruralPopulation2010":"1066"},"geometry":{"type":"Polygon","coordinates":[[[-37.2168552414762,-7.07356974175013],[-37.2264927524385,-7.06589617746658],[-37.2282707489958,-7.06247450079753],[-37.2319059247186,-7.06023646324213],[-37.2346526242192,-7.06024611386704],[-37.2391743408231,-7.05683544489983],[-37.2333532702372,-7.04584263582894],[-37.2305736330667,-7.04689787243882],[-37.2241452188267,-7.0387090478842],[-37.2246209098271,-7.02955323719209],[-37.2282748436091,-7.02290713215837],[-37.2280387652768,-7.0196790111774],[-37.2153786994673,-7.01139907001102],[-37.2041480368024,-7.00057747746853],[-37.173013182912,-6.98220933819033],[-37.1590272556033,-6.98991929264122],[-37.1525922340443,-6.99119613299507],[-37.1453720557757,-6.99647316320585],[-37.1407445222418,-7.00203839825344],[-37.1300997570981,-7.00246181526052],[-37.1293000403645,-7.00794822832802],[-37.1266994411263,-7.01026341782244],[-37.1151732621363,-7.0125441578865],[-37.1091142183465,-7.01577808309202],[-37.1045800236491,-7.0209666379999],[-37.098524243499,-7.02373782244251],[-37.087199383145,-7.02341137573438],[-37.0774452651868,-7.01518415642364],[-37.0725574957318,-7.01367440874691],[-37.071295780176,-7.01711377867792],[-37.0678282227942,-7.01998244513368],[-37.0559110833298,-7.02449662991552],[-37.055614403282,-7.02626066719598],[-37.0601894703677,-7.03363109250085],[-37.0593094252897,-7.0376288559869],[-37.0388490159693,-7.04191759781885],[-37.024958105632,-7.04821261561966],[-37.0052329829158,-7.05187182482479],[-37.0213523017673,-7.05599652581896],[-37.0293728955427,-7.0562041091323],[-37.0337121118245,-7.0582612525547],[-37.0397775443981,-7.057180534554],[-37.0452947142796,-7.06381668768995],[-37.0516104047963,-7.0648814400264],[-37.0562175390082,-7.06822642161201],[-37.0602860053948,-7.06748189087654],[-37.0647979005026,-7.07172562523738],[-37.0749651220427,-7.07114323057556],[-37.0791357990779,-7.07289304327929],[-37.083148606423,-7.07266766238268],[-37.085416394451,-7.07811379931235],[-37.0885433659835,-7.08122470805381],[-37.0905096203227,-7.08898251633003],[-37.0889361763634,-7.09409974240912],[-37.0927291732127,-7.09712837847184],[-37.0934231575526,-7.099969899791],[-37.0923777316469,-7.10228659385121],[-37.0901577057135,-7.10293325766367],[-37.086977804582,-7.10913303636051],[-37.0964223309258,-7.09982486432597],[-37.103167516068,-7.09759260311609],[-37.1144607229839,-7.09098530742598],[-37.1305390678237,-7.08627776930354],[-37.1417127899133,-7.07740676221226],[-37.1505306920378,-7.07468066707907],[-37.1699925508156,-7.06546661629125],[-37.1771119447604,-7.06674916374288],[-37.1882779434723,-7.05950873004383],[-37.189703529894,-7.0592898566415],[-37.2136848776549,-7.08171370542311],[-37.2168552414762,-7.07356974175013]]]}},{"type":"Feature","properties":{"id":"67","concentrationId":"2510808","name":"Patos/PB","state":"PB","municipality":"2510808","population2010":"100674","urbanPopulation2010":"97278","ruralPopulation2010":"3396"},"geometry":{"type":"Polygon","coordinates":[[[-37.3898522584749,-7.13052058915384],[-37.3598683992072,-7.12629215585827],[-37.3615470422622,-7.11250004504097],[-37.3501300490624,-7.11408887999778],[-37.3469725293587,-7.08505723280502],[-37.3488240095204,-7.0532438170485],[-37.3524089320265,-7.05351068007377],[-37.3692599240063,-7.00011841493284],[-37.3878081003635,-6.99897396287804],[-37.4031107943276,-7.00472697367087],[-37.4144096885562,-7.00553030747768],[-37.4174545456907,-7.00472565526474],[-37.4244304537024,-6.99838294101989],[-37.4392140751694,-6.99700709879852],[-37.4487735303741,-6.99770191591062],[-37.4578128437877,-6.99172261770462],[-37.4708533156279,-6.99161232484886],[-37.4844261168718,-6.99496684914073],[-37.4935390460901,-6.99947643838687],[-37.5012567904685,-6.99878748305588],[-37.5182095713146,-7.00043337370118],[-37.5158296324316,-6.99141619799912],[-37.5240542536009,-6.98760769503906],[-37.521636029679,-6.98157726228078],[-37.5219921207397,-6.97277622694128],[-37.5109342502154,-6.96835550959907],[-37.5093767035719,-6.96053723360637],[-37.5079287303266,-6.95960576799177],[-37.4924187714091,-6.95735426668602],[-37.4832518684789,-6.97001554747948],[-37.4806302233061,-6.97049840877452],[-37.4596798291607,-6.96628495638561],[-37.4542448096502,-6.96294573945426],[-37.4522351171569,-6.95988852473556],[-37.4525511434205,-6.95686949163372],[-37.4657756498264,-6.95024839944404],[-37.4595319167645,-6.93060516629533],[-37.4711093526145,-6.93018584480086],[-37.4743305506144,-6.9288293389028],[-37.4850073963742,-6.9128875821961],[-37.4808830901824,-6.914897360125],[-37.4748221865946,-6.91550952774248],[-37.462036777775,-6.91326024506424],[-37.4491563250044,-6.91584790665553],[-37.4354707253936,-6.91636381443846],[-37.4198822889364,-6.9249709631394],[-37.4111190233242,-6.92806088710023],[-37.4033174810169,-6.93441397682353],[-37.3965023753843,-6.93649569601951],[-37.3867056511448,-6.93646277453735],[-37.3776740916859,-6.93135279519533],[-37.3615214799323,-6.92817415041669],[-37.3472437460021,-6.92784433304951],[-37.3336404586402,-6.9223997384571],[-37.3157582626337,-6.92024294385675],[-37.2962641730531,-6.91511447895],[-37.2682605256027,-6.91303813230395],[-37.2561165906081,-6.91365288457291],[-37.2457286745387,-6.90923067615472],[-37.221524556613,-6.90985086752346],[-37.2125544685139,-6.90638711337455],[-37.1982921399703,-6.90624876886556],[-37.1961407934628,-6.91235887526182],[-37.1904739638023,-6.91758267370136],[-37.1787992806622,-6.91845563032303],[-37.1781357968295,-6.92240284291682],[-37.1810861559013,-6.92649090912812],[-37.1883843305724,-6.930210372011],[-37.1936457008883,-6.9351347240882],[-37.1927141723211,-6.93617217390664],[-37.1834545402947,-6.9361812849383],[-37.1733290257139,-6.94447403245061],[-37.1735015633464,-6.94738230414999],[-37.17828549438,-6.95386120453094],[-37.1809763855517,-6.9647229994668],[-37.1743310917064,-6.97332672265009],[-37.173013182912,-6.98220933819033],[-37.2041480368024,-7.00057747746853],[-37.2153786994673,-7.01139907001102],[-37.2280387652768,-7.0196790111774],[-37.2282748436091,-7.02290713215837],[-37.2246209098271,-7.02955323719209],[-37.2241452188267,-7.0387090478842],[-37.2305736330667,-7.04689787243882],[-37.2333532702372,-7.04584263582894],[-37.2391743408231,-7.05683544489983],[-37.2346526242192,-7.06024611386704],[-37.2319059247186,-7.06023646324213],[-37.2282707489958,-7.06247450079753],[-37.2264927524385,-7.06589617746658],[-37.2168552414762,-7.07356974175013],[-37.2136848776549,-7.08171370542311],[-37.2448886384998,-7.11056638483075],[-37.2878211928937,-7.07642200816912],[-37.3215254953053,-7.0819057727332],[-37.3192075215098,-7.08443356555655],[-37.31442164884,-7.08484443252451],[-37.3138196039915,-7.08677129835666],[-37.3164128135005,-7.09103202720626],[-37.3141162273819,-7.09468917786324],[-37.3157297028635,-7.09935297206199],[-37.3210970555846,-7.10286044675218],[-37.3208147116296,-7.10576136559451],[-37.3237288064392,-7.11149932173629],[-37.3288274012635,-7.11424239067372],[-37.3298955818156,-7.1193627886617],[-37.3283579326724,-7.12327720837641],[-37.3342057760756,-7.12986920300125],[-37.3368853079106,-7.13990528360194],[-37.3530653318995,-7.14424035760635],[-37.3565504854165,-7.14216470163962],[-37.3629574229467,-7.1441740092231],[-37.370869577369,-7.15036112186824],[-37.3757603757407,-7.15063392761363],[-37.3809675178366,-7.15365547432066],[-37.3839010649821,-7.15386915413809],[-37.3881503211803,-7.1508805936644],[-37.3898522584749,-7.13052058915384]]]}}]}