{"type":"FeatureCollection","features":[{"type":"Feature","properties":{"id":"68","concentrationId":"2604106","name":"Caruaru","state":"PE","municipality":"2604106","population2010":"314912","urbanPopulation2010":"284346","ruralPopulation2010":"30566"},"geometry":{"type":"Polygon","coordinates":[[[-35.985119103264,-8.1440976026222],[-35.9762205931058,-8.16674692762854],[-35.9225401240275,-8.20327464890591],[-35.9209454434774,-8.20207538766897],[-35.9198884118207,-8.19176807513652],[-35.9170037868952,-8.18708022856964],[-35.8799435257731,-8.20629127002604],[-35.8515568660565,-8.27231232975015],[-35.8548263999184,-8.27532412960484],[-35.8558969492847,-8.27875913152866],[-35.8622020170094,-8.28250717216821],[-35.8629594925865,-8.28585545606439],[-35.8625173543924,-8.2872292442342],[-35.8587737006457,-8.28789843336598],[-35.8566759330478,-8.2957906264362],[-35.8528584206795,-8.29908690253848],[-35.8535161389586,-8.30345714093426],[-35.8574366578754,-8.30599755214526],[-35.8633428672795,-8.31423929640636],[-35.8716651728095,-8.321299641765],[-35.8748697648277,-8.32810065951776],[-35.8789045785834,-8.33051293622299],[-35.884663025778,-8.33923790600449],[-35.8871769717398,-8.34534442590451],[-35.8866900212275,-8.34715371347306],[-35.8902175094305,-8.35109708506241],[-35.8948249934786,-8.35316478023038],[-35.8976921877442,-8.352501294599],[-35.9029512279168,-8.35392278370944],[-35.9108885174911,-8.35864970581924],[-35.9180500671569,-8.35970471310197],[-35.9210158612929,-8.3659036958988],[-35.9396231698734,-8.36999114337652],[-35.9447374884443,-8.36815690501709],[-35.9447302794788,-8.3581409845188],[-35.9616437248779,-8.35856780635913],[-35.9641386510779,-8.35741634229033],[-35.9718020170494,-8.35910262778402],[-35.9712694799026,-8.37117715670036],[-35.9677834252648,-8.37464741114907],[-35.9684678228317,-8.37739912526939],[-35.9873087330116,-8.38910826323571],[-35.9875341588743,-8.39525639116948],[-35.9933871230173,-8.39878197550768],[-35.9955796018171,-8.38882908039767],[-35.9923561231365,-8.38253036188667],[-35.9930619992119,-8.37383246349736],[-36.0089182222981,-8.36175719983488],[-36.0215618224202,-8.36907775683295],[-36.0297333125423,-8.36823675492224],[-36.0346832917005,-8.37324099827338],[-36.0532553594472,-8.37654437092595],[-36.0631716017879,-8.38374096177591],[-36.0615244008304,-8.3626032604321],[-36.0746603599876,-8.23636322957935],[-36.0759415530602,-8.23483432364509],[-36.0806135571699,-8.23457229627439],[-36.0824734181137,-8.2281497815871],[-36.1226689721952,-8.18733134266728],[-36.1321630134123,-8.19101440638969],[-36.1348960324259,-8.18922727991498],[-36.1380637342539,-8.19015309778718],[-36.1463044505899,-8.17891806261845],[-36.1454208217135,-8.17574902619657],[-36.1491261508511,-8.16448265235249],[-36.153079381708,-8.16626336216439],[-36.1561522320399,-8.16545296238428],[-36.1594250484272,-8.15992015419169],[-36.1651248877034,-8.16003801843977],[-36.1699846909407,-8.15532816096584],[-36.1716140250672,-8.14762324721506],[-36.1789395319338,-8.14354406540628],[-36.1776706316942,-8.13673748444729],[-36.1786372338212,-8.13320778571068],[-36.1757885970661,-8.12719728642561],[-36.1689779340843,-8.12276605061271],[-36.1670811892454,-8.11900528456619],[-36.1663098488204,-8.11019197438009],[-36.1666845531495,-8.10069240503043],[-36.1690335634481,-8.09698380056187],[-36.1729985907123,-8.09494479826378],[-36.1752619873508,-8.08067943630687],[-36.1775999476794,-8.07688012531749],[-36.1775063030734,-8.07435479573718],[-36.1806799071519,-8.07110924409631],[-36.1799346893344,-8.06519746429149],[-36.1772006756706,-8.06059044879016],[-36.1725447721235,-8.06125659551543],[-36.1704958952693,-8.05792634212697],[-36.1658389925754,-8.05827369267672],[-36.1655620616398,-8.05399271559129],[-36.1709734955303,-8.04960306802712],[-36.1705294201965,-8.0475314913852],[-36.1690104166973,-8.0465416984406],[-36.1669529144454,-8.0486105681232],[-36.1597962633868,-8.04942010905074],[-36.1576620102935,-8.04474181688131],[-36.1598941860678,-8.04288672144498],[-36.1556326613182,-8.04013188577785],[-36.1542795089921,-8.03226460932423],[-36.1469942791626,-8.03180561693563],[-36.1456727586908,-8.02546956127117],[-36.1412835760761,-8.02462109228952],[-36.1372842261861,-8.01965640022263],[-36.1290450656772,-8.01591023646818],[-36.1332085130624,-8.01225340596988],[-36.1324041828067,-8.00979001449753],[-36.1281505639973,-8.00873671502735],[-36.1261215396773,-8.00394988457948],[-36.1226445214275,-8.00494860419468],[-36.120372414855,-8.0025369408271],[-36.1164782955369,-8.00150638071482],[-36.1168607682098,-7.99825294112031],[-36.1154719676571,-7.99707471502603],[-36.1118092546933,-7.99671351401741],[-36.1091408474721,-8.004335662261],[-36.0962251925386,-8.00499955348659],[-36.1007772108995,-8.01262140315522],[-36.0897626526243,-8.01597681148064],[-36.0850445150922,-8.021105568667],[-36.0821222499418,-8.02221714600444],[-36.0759470802935,-8.01667188400017],[-36.0655463111133,-8.01504009922116],[-36.0428683076262,-8.00621533257151],[-36.0338226629855,-8.00686766121357],[-36.0112558453809,-8.00402486285707],[-36.0087939090117,-7.99400961415234],[-36.0118019937669,-7.98756413797452],[-36.0110175628103,-7.97976850421304],[-36.0054090784661,-7.9763393487819],[-35.9899151841384,-7.98321837013162],[-35.9771841609203,-7.98440595187317],[-35.9492810801577,-7.99210653718689],[-35.9416954497851,-7.99611808368258],[-35.9285592118381,-7.99318242223098],[-35.925419379101,-7.99989163808857],[-35.9156472216419,-8.00468967408916],[-35.985119103264,-8.1440976026222]]]}},{"type":"Feature","properties":{"id":"69","concentrationId":"2606002","name":"Garanhuns","state":"PE","municipality":"2606002","population2010":"129408","urbanPopulation2010":"111691","ruralPopulation2010":"17717"},"geometry":{"type":"Polygon","coordinates":[[[-36.6370876846489,-9.02082810783089],[-36.6331343413767,-9.00799321471504],[-36.6311865321327,-9.00485317963052],[-36.625784220965,-9.00253063727906],[-36.6269576689612,-8.99885008626245],[-36.6329933861358,-8.99413913341425],[-36.6366708470819,-8.98658901636999],[-36.6301971339905,-8.97637741238765],[-36.6308605063073,-8.95649752713911],[-36.6255367383297,-8.94654233156331],[-36.6189346389224,-8.94392674512311],[-36.6068898379956,-8.94181411712777],[-36.6049947569024,-8.93453219590407],[-36.6070439853916,-8.9335789756891],[-36.6092114855216,-8.92655119028519],[-36.6125966551115,-8.92832490606952],[-36.6143409972392,-8.92505613213473],[-36.6129686524813,-8.92221401366574],[-36.6061900988939,-8.92159591232144],[-36.6054193430282,-8.91250460010718],[-36.6122956915929,-8.90629265718037],[-36.6117256707031,-8.90259638781299],[-36.6134596517415,-8.89550638281326],[-36.612597488783,-8.89453783275475],[-36.6082967544916,-8.89566277941367],[-36.6072362559484,-8.89229801094439],[-36.5980546850756,-8.8907395802674],[-36.5835074207308,-8.8912243796014],[-36.574288748327,-8.88818778813589],[-36.5624752413392,-8.89084686758884],[-36.5512843610843,-8.88726990048548],[-36.5432550645695,-8.88119889211516],[-36.5674447618662,-8.84502774663316],[-36.5756656382586,-8.83850307165938],[-36.5795952160464,-8.83132036364385],[-36.5841763418646,-8.82845809766304],[-36.5818313434417,-8.82574615336222],[-36.574375489737,-8.82238222036312],[-36.5724865564094,-8.81961102333003],[-36.5722678107108,-8.81607855648014],[-36.5660695078015,-8.80840405600235],[-36.5597424102839,-8.80577038059852],[-36.5495613778552,-8.79504246863496],[-36.5475365371814,-8.78748655096354],[-36.5400752003102,-8.78384933467903],[-36.5368853634687,-8.78386295671005],[-36.5316030146673,-8.78811253846282],[-36.5286473738772,-8.78351952090912],[-36.5232325657303,-8.78572461719727],[-36.5179421617013,-8.78563537567204],[-36.5065542417848,-8.79106457207229],[-36.5027609436626,-8.78918076218235],[-36.4989997918069,-8.79577016046449],[-36.494005487763,-8.794880884745],[-36.4897218711674,-8.79746574225016],[-36.4870247135196,-8.7956842140552],[-36.4815136329478,-8.79624970326114],[-36.4726611644811,-8.80262881306925],[-36.469728835917,-8.80029508225221],[-36.4577123654333,-8.80152567496988],[-36.4565896553883,-8.79936785514236],[-36.4535447146168,-8.80250103289632],[-36.4444520030574,-8.80090063085937],[-36.448595613197,-8.81463923021624],[-36.452303456839,-8.81834800555596],[-36.4523024217194,-8.82178905002461],[-36.4577384790475,-8.82684027485874],[-36.4596702812584,-8.83098999319361],[-36.4625028165517,-8.84501246805093],[-36.4484555671706,-8.88203706385933],[-36.4307774246384,-8.90284406380244],[-36.4178307376984,-8.9059215906089],[-36.410848578499,-8.91195159888714],[-36.4095353218975,-8.91602305731817],[-36.4114520874438,-8.92362329178145],[-36.4107000203896,-8.92615082470076],[-36.4054321704583,-8.93364260092523],[-36.3979370847286,-8.9392784759209],[-36.3976572282984,-8.94615772030249],[-36.4002052792502,-8.95631008504234],[-36.3973887752717,-8.95969935823877],[-36.3894197648103,-8.97682948988899],[-36.3840775985023,-8.97918349861953],[-36.3776430203091,-8.98922221333442],[-36.3664882199553,-9.01858010308922],[-36.4095049814697,-9.0385987159579],[-36.4652054330842,-9.07808202856274],[-36.4782576311847,-9.08960585042963],[-36.4803625304064,-8.97036367014721],[-36.4835744662885,-8.96765599043158],[-36.4871809473428,-8.96709508866736],[-36.4893490005559,-8.96400931957442],[-36.4916252889758,-8.96374461042541],[-36.4964401539898,-8.95815871615178],[-36.5012617378389,-8.95892822735578],[-36.5062993748163,-8.95474368727134],[-36.5098521816328,-8.95443606067562],[-36.5185425347101,-8.95792674682184],[-36.5315658223048,-8.96625144814579],[-36.5436038027732,-8.95617099229741],[-36.5501058687908,-8.95336863375542],[-36.555666721442,-8.96574580612401],[-36.5645963526395,-8.97171068100306],[-36.5702054925894,-8.97744190482001],[-36.5614598042266,-8.98954671480897],[-36.5850634304329,-8.98720971495635],[-36.5845449272066,-8.99246895477843],[-36.5805531532054,-8.99330755819722],[-36.5811560991746,-8.99483622491181],[-36.5866336503226,-8.9972885025623],[-36.5908110722731,-8.99551012379311],[-36.595718056643,-8.9991774637689],[-36.589875952713,-9.00531914086559],[-36.5903940476471,-9.00834553671712],[-36.5929392459494,-9.01009128628379],[-36.5898578817358,-9.01594291493354],[-36.5942799939265,-9.02037331707487],[-36.5908860694365,-9.02261110192075],[-36.5906204061068,-9.02433866359843],[-36.5948292647588,-9.02551063760581],[-36.596004561761,-9.02925454046465],[-36.5996755880579,-9.03055026838013],[-36.6005001170867,-9.03337690591945],[-36.6370876846489,-9.02082810783089]]]}},{"type":"Feature","properties":{"id":"71","concentrationId":"2611101","name":"Petrolina/PE - Juazeiro/BA","state":"PE","municipality":"2611101","population2010":"293962","urbanPopulation2010":"220709","ruralPopulation2010":"73253"},"geometry":{"type":"Polygon","coordinates":[[[-40.681321825242,-9.46722099904981],[-40.7221785914688,-9.44594854059261],[-40.7498354360565,-9.4438471694113],[-40.7674564662429,-9.45265007624],[-40.776750543203,-9.45445142819079],[-40.7672890304643,-9.44570466154084],[-40.7595952961859,-9.42907629763301],[-40.7649755649703,-9.41321638642706],[-40.760788433939,-9.41054506270446],[-40.7567012283789,-9.41035234248659],[-40.7430888794482,-9.40294549284016],[-40.7441132720098,-9.39644554742403],[-40.7425404162072,-9.38331503815845],[-40.746478938652,-9.37105224696359],[-40.7445289143778,-9.36483166514915],[-40.738102645021,-9.35524427430375],[-40.7414030804877,-9.34678358199666],[-40.7372864652981,-9.33687076607294],[-40.7393473948663,-9.33134388621136],[-40.751629822758,-9.31828473455284],[-40.7564219439175,-9.31503225903146],[-40.7515886544928,-9.3080278200278],[-40.7439819368169,-9.30622528636781],[-40.742619815552,-9.30050885639855],[-40.7394418254798,-9.29658872688822],[-40.7286484761462,-9.30311820334238],[-40.7200881614394,-9.30589669747456],[-40.7073148511994,-9.29455076690432],[-40.7086896645963,-9.28687597684479],[-40.7075888899153,-9.28534633346647],[-40.7012888386089,-9.28233245887583],[-40.6922524749717,-9.28122647712019],[-40.6872339809634,-9.27833313956267],[-40.6800885435514,-9.25921174792377],[-40.6804837847988,-9.25769152944049],[-40.6892365265444,-9.25698590157806],[-40.6900952190191,-9.25144627382645],[-40.6864556312224,-9.2435545699874],[-40.689457263342,-9.24112538872568],[-40.691006640544,-9.23406285261849],[-40.6945003789892,-9.23345557101771],[-40.6807039730099,-9.21219876436147],[-40.6819789535658,-9.20474132515198],[-40.6770573210385,-9.19331145186198],[-40.6733625103715,-9.19280305072016],[-40.6698731588192,-9.18613251110644],[-40.6719569311674,-9.18051912545724],[-40.6705325633271,-9.17535429016829],[-40.6720921064655,-9.17238723698136],[-40.6673956659771,-9.15905919882295],[-40.6723190521824,-9.15650179132456],[-40.6777287872537,-9.15124612540831],[-40.6850939964907,-9.13761015848202],[-40.6872907929357,-9.13698442998742],[-40.7001641149819,-9.14223405965407],[-40.7098893026492,-9.14088097477714],[-40.7222723044232,-9.13381661034822],[-40.7288693388489,-9.128851417359],[-40.7325374873151,-9.12400561117],[-40.7431362008749,-9.12240067385199],[-40.7503856035128,-9.11788519404644],[-40.7570605677909,-9.11984306850275],[-40.7567849444696,-9.10497691355369],[-40.7631710258221,-9.10694002566163],[-40.7772605963993,-9.10066840911975],[-40.7860964337034,-9.10518755276332],[-40.7894637148785,-9.09894752850557],[-40.8041040383706,-9.09833585731394],[-40.809815252272,-9.0922765770024],[-40.8119582350844,-9.08439820471336],[-40.8200670010912,-9.0812586723498],[-40.8213239601326,-9.07807713535147],[-40.8191471825963,-9.06909496755867],[-40.8235895385263,-9.06211343248891],[-40.823072127077,-9.05198321445375],[-40.8253047417204,-9.04564167472347],[-40.8252310566679,-9.03818663310659],[-40.8322082147372,-9.03116341715793],[-40.8302380717296,-9.02669581276148],[-40.8342228058378,-9.02098917730865],[-40.8350127073705,-9.00869350779908],[-40.8459619649727,-8.99685294380828],[-40.8519585031823,-8.98258487938864],[-40.8515958650571,-8.95249895875993],[-40.8555379829915,-8.94947373652367],[-40.8613225689813,-8.9480175785484],[-40.8655163469019,-8.93226710314423],[-40.8662780915606,-8.92338916407864],[-40.8725356840745,-8.9190653513848],[-40.8812337056709,-8.91562784394978],[-40.8834423255029,-8.90485601269479],[-40.8950411778081,-8.88909277231352],[-40.8964043099109,-8.87102491936452],[-40.9015062699983,-8.86649715661844],[-40.9030381940574,-8.85861887246296],[-40.9149788561892,-8.84952266523874],[-40.9192371047086,-8.83717704198688],[-40.9213372519126,-8.83543044795676],[-40.9310346478307,-8.83720074092139],[-40.946383195528,-8.84499690977952],[-40.9590392926292,-8.84198082825259],[-40.9444577901948,-8.8244839467767],[-40.9417141169129,-8.81380733214263],[-40.9438088699833,-8.8091682989778],[-40.9421314931738,-8.80338878426494],[-40.9422847907105,-8.79684554008958],[-40.943564453137,-8.79306807363265],[-40.9428189268519,-8.79035486578436],[-40.9444840998612,-8.78808392653196],[-40.9389444082578,-8.77860930167788],[-40.9300415795552,-8.77289322514218],[-40.929993229304,-8.76844915960101],[-40.9262136314539,-8.76960068662237],[-40.9244771682867,-8.77415906858608],[-40.9198957897589,-8.77205484925185],[-40.9111905205261,-8.77586233238072],[-40.7582471422917,-8.62349927946816],[-40.5792634472502,-8.66726341087764],[-40.4294820511557,-8.64451405607878],[-40.4191864235146,-8.65837382739018],[-40.4163311821383,-8.6681328997135],[-40.4063183777908,-8.67787870523802],[-40.4045817617389,-8.68742231888485],[-40.3930825848933,-8.69236564755653],[-40.3939659700534,-8.69786845436562],[-40.3928538072574,-8.69898387270753],[-40.3941778871997,-8.70019108305201],[-40.3923148588436,-8.70429018394481],[-40.3932383474717,-8.7072150760149],[-40.3923396720382,-8.71065489560692],[-40.3969847522445,-8.71867018608021],[-40.3955727419884,-8.71979973816735],[-40.3963431201389,-8.72347031660177],[-40.3927150724426,-8.72802271447666],[-40.3950282762339,-8.73817625193243],[-40.3983454363927,-8.7428611361325],[-40.3960352768065,-8.74943579272758],[-40.4006596887936,-8.75189436922972],[-40.4018879046031,-8.75431518679635],[-40.3998636763676,-8.75563797980885],[-40.3989089641773,-8.75811446361154],[-40.4003397738614,-8.76073607550945],[-40.3932727681237,-8.77355810202477],[-40.3943035944353,-8.77484698609948],[-40.395938782249,-8.7741622090187],[-40.3978373877852,-8.77961480667796],[-40.3913156490979,-8.78307654094954],[-40.3972253118986,-8.79197192236626],[-40.3954421622259,-8.79606538810714],[-40.3930271398905,-8.79753982210508],[-40.3925949787752,-8.80193770386188],[-40.3818417769764,-8.81007251333579],[-40.3800877086808,-8.80707280216803],[-40.3767066786702,-8.81180116049513],[-40.3743170783704,-8.81047925331484],[-40.3724867457666,-8.81233500705492],[-40.3686989748778,-8.81236042819114],[-40.3664619022949,-8.81492797734422],[-40.3637672465611,-8.81457207963775],[-40.3614793317058,-8.81772431852245],[-40.3610327454648,-8.82007472007223],[-40.363305376342,-8.82388363132447],[-40.3618940963354,-8.8321734425503],[-40.3630605476062,-8.8338660565732],[-40.3592434813016,-8.8360574399988],[-40.3632631189977,-8.84943166463956],[-40.3634431147079,-8.85101105761418],[-40.3615210458595,-8.85151771766852],[-40.3621037094186,-8.85346876447187],[-40.3549726179919,-8.85569805342238],[-40.3553630613562,-8.85726727146739],[-40.3529022356496,-8.8580442947084],[-40.3512934276495,-8.86096053799839],[-40.3438929245188,-8.86357231760832],[-40.3355523276778,-8.86239647381819],[-40.3259541917325,-8.86463468584203],[-40.321629371798,-8.86089337842662],[-40.3113500434697,-8.86235356356605],[-40.3052136984534,-8.86935052380756],[-40.3013232276847,-8.86916951186345],[-40.2983727831773,-8.87066679313796],[-40.2962454854407,-8.87933660300177],[-40.2861820537587,-8.88626861150716],[-40.2846536226665,-8.89018093130489],[-40.280036765884,-8.89319411611553],[-40.2731037915067,-8.90137128905372],[-40.2752319570891,-8.90469732282315],[-40.2757128668553,-8.91021260322902],[-40.2729241465321,-8.91700519613283],[-40.2749158831614,-8.92469902304145],[-40.2724577967899,-8.92624031713689],[-40.2720067849851,-8.92938402325404],[-40.2845763025543,-8.93432235259445],[-40.2900291385339,-8.94039435561496],[-40.2974176743861,-8.93891411199662],[-40.2986321719371,-8.94477228141563],[-40.3049894102331,-8.95438254112134],[-40.3033075332161,-8.95968514984975],[-40.2971320497043,-8.96431877718976],[-40.293676264448,-8.97128553370038],[-40.2938920891485,-8.97549288598787],[-40.2982694276919,-8.98057924283773],[-40.2991664222925,-8.98681608169677],[-40.2966211331587,-8.99002078073438],[-40.2974152956793,-8.99473140712872],[-40.2926375906522,-8.9971247638967],[-40.2915494712311,-8.99991558863348],[-40.2878073328421,-9.00109835990133],[-40.2835120241605,-9.00831727192451],[-40.2815291098805,-9.00878569100679],[-40.2711851238943,-9.00144926637052],[-40.2636430800641,-8.9916969596469],[-40.2602052030077,-8.99049760847783],[-40.2510810880217,-8.99513292564393],[-40.2460140180324,-9.00063658051375],[-40.2428486841195,-9.00167774543156],[-40.2345122016768,-9.01343128472598],[-40.2309802123669,-9.02311111598516],[-40.2328343967899,-9.03092221448856],[-40.2227094514799,-9.03852123756502],[-40.2199158262544,-9.04817796614021],[-40.2094597091982,-9.05566758309243],[-40.2088275334639,-9.06378229811453],[-40.2236023397761,-9.05666754916804],[-40.2389835283671,-9.05436534858195],[-40.2478641339226,-9.05773784312691],[-40.2663013654156,-9.07321666032056],[-40.2766657974885,-9.08911347790463],[-40.2867061363791,-9.11735184481176],[-40.2940119831665,-9.15206778649913],[-40.2873206710121,-9.17108256800606],[-40.2861726558434,-9.18561140434281],[-40.3005068123394,-9.23120802493036],[-40.3022067855147,-9.25170330006723],[-40.3052830433777,-9.25776121700654],[-40.305309179475,-9.26289255794512],[-40.30953537166,-9.27550666569999],[-40.3190313509161,-9.28726924408028],[-40.3256130501022,-9.30585559935641],[-40.3325319330023,-9.3175718995235],[-40.3371195249461,-9.33140228818503],[-40.3365861604229,-9.34181002171511],[-40.3337540738913,-9.3505383396726],[-40.33504333748,-9.35390172408525],[-40.3388655380142,-9.35989176199518],[-40.3563971135359,-9.37699426287486],[-40.3636994493701,-9.37928500699741],[-40.3714153348498,-9.37871673798702],[-40.3912783964807,-9.37216682533869],[-40.4047264527636,-9.3629073255126],[-40.4116461927176,-9.35417094873026],[-40.4181452909723,-9.35205327194092],[-40.4307881941198,-9.35669449675358],[-40.4393060167592,-9.36828089434777],[-40.4527262480179,-9.39723432300554],[-40.4538185429913,-9.40351736273607],[-40.464265881765,-9.41335933636424],[-40.4677551182041,-9.42056813101437],[-40.474174738873,-9.42079220879333],[-40.4839241695647,-9.41396742285821],[-40.4971964380651,-9.40857235752821],[-40.5014501252231,-9.40930073194318],[-40.5107266168399,-9.40717886071582],[-40.5200681492257,-9.41225073038686],[-40.5316954722682,-9.41495698197911],[-40.5382219593759,-9.42057886532234],[-40.5417857226329,-9.42602813638933],[-40.5451872751726,-9.44229892715373],[-40.5483672059817,-9.44899413337255],[-40.5557585135445,-9.45793811235393],[-40.5651854788267,-9.4640094687619],[-40.576626883224,-9.46765467192552],[-40.5874541918574,-9.46574072215657],[-40.5951233089935,-9.467369154263],[-40.6085625780005,-9.47679153210351],[-40.6231656713586,-9.48289744406173],[-40.6358627271831,-9.48102279646485],[-40.6567682739367,-9.47290800230241],[-40.681321825242,-9.46722099904981]]]}},{"type":"Feature","properties":{"id":"72","concentrationId":"2611606","name":"Recife/PE","state":"PE","municipality":"2607208","population2010":"80637","urbanPopulation2010":"59719","ruralPopulation2010":"20918"},"geometry":{"type":"Polygon","coordinates":[[[-35.053811664077,-8.60727540543559],[-35.0627529073208,-8.59998614484464],[-35.0653150344612,-8.59721416270339],[-35.0634504745597,-8.59385403383652],[-35.0693193989711,-8.58409374113318],[-35.072168051914,-8.58453666533479],[-35.0733863661878,-8.58261492024234],[-35.0705258979518,-8.57896533198443],[-35.0692063389014,-8.571907439077],[-35.0699332672065,-8.56697144797391],[-35.074798388135,-8.55927765074296],[-35.0808420706051,-8.55642866145354],[-35.0829531841421,-8.54646187541516],[-35.0821582895734,-8.5426353617325],[-35.0759434814065,-8.53684458840701],[-35.0775045821707,-8.52931930344307],[-35.1261000002148,-8.51931000015635],[-35.1423996924918,-8.50055344638441],[-35.1429280684756,-8.49223481728296],[-35.1443270655416,-8.49033713265248],[-35.1517028211282,-8.48748327893014],[-35.1585648650764,-8.48827966817208],[-35.1645654817116,-8.48459981143213],[-35.16795172779,-8.4785599258998],[-35.2029970380828,-8.47902367300406],[-35.2302802827089,-8.43526892062414],[-35.2380528137863,-8.41745158372356],[-35.1928881780469,-8.37639749454872],[-35.1930544519014,-8.35750412781323],[-35.190269229941,-8.35478082507496],[-35.1768675867697,-8.35136688797144],[-35.174033916532,-8.35154318387078],[-35.1707213294258,-8.35512103320906],[-35.1616651573211,-8.33860465647968],[-35.154047514681,-8.32084663436462],[-35.140148406124,-8.30993286490974],[-35.1082247766521,-8.33404544084437],[-35.1069216275311,-8.32943556639821],[-35.1006223667288,-8.32661817029231],[-35.0954553838588,-8.33060372817948],[-35.0911326332644,-8.33018659743346],[-35.0809330307347,-8.33274645558442],[-35.0773475758299,-8.3363020206217],[-35.0749223443906,-8.3423238360761],[-35.0723091510465,-8.34276288150176],[-35.0726155167926,-8.34520260641512],[-35.0669852823449,-8.34976187241245],[-35.0586539512188,-8.34925487601168],[-35.0582237650147,-8.35198826464666],[-35.0510816586915,-8.35209161653484],[-35.0474204763738,-8.34911068141276],[-35.0441631669965,-8.34925044864922],[-35.0392922742191,-8.3522653313799],[-35.0385388932553,-8.35502322923861],[-35.0319135607622,-8.35751054267735],[-35.0314717148477,-8.36124952534528],[-35.0263571507618,-8.36146412786718],[-35.0243854393365,-8.36355225653137],[-35.0149396800222,-8.36041344272616],[-35.0122465009752,-8.35754880523314],[-34.9926348718018,-8.36178574521592],[-34.9901024375774,-8.36035738618438],[-34.9892210911803,-8.35633226891901],[-34.9864102835077,-8.35320669043637],[-34.9797717111955,-8.35336259240968],[-34.97790162496,-8.3539856643069],[-34.9757482504813,-8.35993869601396],[-34.9658912320946,-8.36164199758007],[-34.96098263831651,-8.366929740199499],[-34.97996822419657,-8.419710973797324],[-35.04815581048265,-8.609277150104669],[-35.0499391069042,-8.60612938406377],[-35.053811664077,-8.60727540543559]]]}},{"type":"Feature","properties":{"id":"73","concentrationId":"2611606","name":"Recife/PE","state":"PE","municipality":"2610707","population2010":"300466","urbanPopulation2010":"288124","ruralPopulation2010":"12342"},"geometry":{"type":"Polygon","coordinates":[[[-34.840746999974,-7.96094000018081],[-34.8463049999757,-7.95621599996839],[-34.8509170004192,-7.95467199981289],[-34.8553479997104,-7.95500399983467],[-34.8580219998154,-7.96711499985731],[-34.8512152057172,-7.96762247289876],[-34.8641293929571,-7.97463999973616],[-34.8675372668313,-7.96746631192071],[-34.872516775229,-7.97000770339275],[-34.8694180001406,-7.97635399963735],[-34.8728439998507,-7.97634300002937],[-34.873465999756,-7.98069800031243],[-34.8772879997413,-7.98009600043003],[-34.8818860004385,-7.97567399975526],[-34.8952640004333,-7.97568700035475],[-34.9038200001928,-7.97858399995158],[-34.9138710437136,-7.97936230922312],[-34.9092485535779,-7.94401457311403],[-34.9112380769756,-7.93910709681501],[-34.9161619668013,-7.93482783024013],[-34.918461323731,-7.93592848980791],[-34.9235130800645,-7.93352682150556],[-34.9281276174955,-7.93563936946128],[-34.9339462203417,-7.9324998667754],[-34.938120578302,-7.933055877127],[-34.9436972131558,-7.92980509323041],[-34.9486195894225,-7.92953369942063],[-34.9523011171028,-7.93549032661723],[-34.9584202913633,-7.93597758739572],[-34.9602168930951,-7.93824348864604],[-34.9677582030786,-7.94179141484187],[-34.9705652947525,-7.94017517124712],[-34.9719999040723,-7.9411742685776],[-34.9780968318033,-7.940148566603],[-34.9809803388715,-7.94140763275602],[-34.983586202741,-7.94008489370282],[-34.9863277032608,-7.94100727076887],[-34.9886882779416,-7.93878572408187],[-34.9903823335778,-7.9391466202203],[-34.9927010133411,-7.93328304587585],[-34.9958900767656,-7.93326322661659],[-34.9973416374066,-7.93019302298956],[-35.0035907879844,-7.92607274396193],[-35.0158822666532,-7.9259126475506],[-35.021131011387,-7.93246432197083],[-35.0256797391286,-7.93206402653357],[-35.0290885689822,-7.93336098472162],[-35.0318992102803,-7.92702580859413],[-35.0252335135158,-7.92568937106757],[-35.0247387748745,-7.91951082536423],[-35.0206546467945,-7.91602196664042],[-35.0078202905739,-7.91659755343432],[-34.9855964986794,-7.9201970107834],[-34.9618921484039,-7.91558305431448],[-34.9577753695376,-7.92003713110865],[-34.9491788094544,-7.92026542490935],[-34.9386872222375,-7.92615203898538],[-34.930477878751,-7.92509287593544],[-34.9235838324279,-7.93000691009075],[-34.9181819745185,-7.92696523026114],[-34.915756142332,-7.92711642338418],[-34.9128875739024,-7.92990078199545],[-34.9125462874811,-7.93439789494687],[-34.9071713255962,-7.93590000917805],[-34.9031762097143,-7.93122129972318],[-34.8981660002607,-7.92813099984574],[-34.8954439997407,-7.92075699973571],[-34.8965077781114,-7.91786489514874],[-34.8933652312204,-7.91290478872497],[-34.888543992711,-7.91164268825941],[-34.8841578219259,-7.91413853986166],[-34.8727210913053,-7.90998942137463],[-34.8657200283566,-7.91146448939464],[-34.8609686743648,-7.90973009197013],[-34.8631692299759,-7.90397760458274],[-34.8609864125928,-7.89722064281835],[-34.8652478339204,-7.89613418624368],[-34.866236135789,-7.89111812310285],[-34.861973554336,-7.88911034616553],[-34.8558655190784,-7.8772948103072],[-34.8550573891871,-7.87152440302874],[-34.8413726700127,-7.86312389065501],[-34.840869169059005,-7.847108757807111],[-34.832388775978636,-7.920907598353855],[-34.828006021239865,-7.959047601424103],[-34.8308240001274,-7.95778100019294],[-34.840746999974,-7.96094000018081]]]}},{"type":"Feature","properties":{"id":"74","concentrationId":"2611606","name":"Recife/PE","state":"PE","municipality":"2607752","population2010":"23769","urbanPopulation2010":"18320","ruralPopulation2010":"5449"},"geometry":{"type":"Polygon","coordinates":[[[-34.8625556809998,-7.7297544680942],[-34.8701170305765,-7.73806907183018],[-34.8772764443524,-7.74061767316705],[-34.8876629997476,-7.77114700003397],[-34.8894221033473,-7.80471268544205],[-34.8961614716745,-7.8048949960072],[-34.9040175866423,-7.8072855334006],[-34.9080391677733,-7.8059355916542],[-34.9252088588017,-7.80649879118624],[-34.936131579209,-7.77063737581421],[-34.9367124036544,-7.74922884363616],[-34.9435056665532,-7.73978371744454],[-34.9417059828448,-7.72127832723299],[-34.9238843741645,-7.70230223276178],[-34.9227209518104,-7.69166114584516],[-34.9185631512684,-7.69174921375515],[-34.9165834304809,-7.68804737578575],[-34.9120158538485,-7.6879920557887],[-34.9079206757985,-7.6854178147803],[-34.9007115061311,-7.68580272731396],[-34.8982327938084,-7.68331564140368],[-34.8967956618902,-7.68454794732987],[-34.8987157549281,-7.6876154682792],[-34.8956113977478,-7.68758570431675],[-34.8962100206759,-7.69132585070742],[-34.8906341916146,-7.69459671017001],[-34.8970181568624,-7.69965803259209],[-34.8961220516913,-7.70384897045358],[-34.892879266365,-7.70741809367002],[-34.8879316794034,-7.70942126877651],[-34.8866265517739,-7.71326862604621],[-34.8848163406016,-7.71457401897572],[-34.8787385054776,-7.71044834311647],[-34.8641751981269,-7.71334912076526],[-34.8625556809998,-7.7297544680942]]]}},{"type":"Feature","properties":{"id":"75","concentrationId":"2611606","name":"Recife/PE","state":"PE","municipality":"2601052","population2010":"18156","urbanPopulation2010":"16575","ruralPopulation2010":"1581"},"geometry":{"type":"Polygon","coordinates":[[[-35.0683750334809,-7.81171650301417],[-35.0831388968426,-7.80425894239625],[-35.0938134951966,-7.80603811526675],[-35.1040651675734,-7.80198859219974],[-35.1001490949047,-7.80853670980127],[-35.1025290535729,-7.82124597841915],[-35.0999856835924,-7.82813467377611],[-35.1015711011254,-7.83062689121801],[-35.1197071298801,-7.81258081445298],[-35.1253794112308,-7.81057503580922],[-35.1400631324076,-7.79445273750377],[-35.1262368365607,-7.76999469509906],[-35.1201883166374,-7.76625200362702],[-35.116680676472,-7.75711401210191],[-35.1102065272094,-7.74922838138463],[-35.1116678185149,-7.74098560380253],[-35.1105177537913,-7.73583942854675],[-35.1056514709386,-7.72656472837946],[-35.0995170333844,-7.72281401135752],[-35.099138251529,-7.72743092119999],[-35.0945927703401,-7.73312488070866],[-35.0914272592606,-7.74052561226717],[-35.0877013464399,-7.74196018021808],[-35.0844173883518,-7.74062468338241],[-35.0786607802707,-7.74284097533069],[-35.0754413836129,-7.74597642297352],[-35.0730485295659,-7.74538690298312],[-35.0532050857461,-7.75025593146603],[-35.0449215472915,-7.76025709768686],[-35.0442465080699,-7.76316597642865],[-35.038485664182,-7.76875310277343],[-35.0406512892256,-7.77532063493931],[-35.0381653364611,-7.78068728528996],[-35.0400335386168,-7.78821433292507],[-35.0398573209586,-7.79425080373159],[-35.0367439921415,-7.79350117384007],[-35.0322293756851,-7.7993041203888],[-35.0288068725391,-7.79994674624527],[-35.0282831028828,-7.80402766284629],[-35.0243604354857,-7.80632050868451],[-35.0204228618256,-7.81383605039338],[-35.0209542820145,-7.8171401245171],[-35.0251138128521,-7.81973783333428],[-35.0256650621928,-7.8223267953453],[-35.0281354611826,-7.82250430802736],[-35.0291258854512,-7.82455310933848],[-35.0339636130303,-7.82656605198167],[-35.0329206269853,-7.83009255003111],[-35.0362388834177,-7.84205078311709],[-35.0363328814573,-7.86776868577619],[-35.0376789956891,-7.87123786103843],[-35.0524315212976,-7.87782925761412],[-35.0541057378895,-7.88003762473654],[-35.0683750334809,-7.81171650301417]]]}},{"type":"Feature","properties":{"id":"76","concentrationId":"2611606","name":"Recife/PE","state":"PE","municipality":"2602902","population2010":"185025","urbanPopulation2010":"167286","ruralPopulation2010":"17739"},"geometry":{"type":"Polygon","coordinates":[[[-34.9757482504813,-8.35993869601396],[-34.97790162496,-8.3539856643069],[-34.9864102835077,-8.35320669043637],[-34.9892210911803,-8.35633226891901],[-34.9901024375774,-8.36035738618438],[-34.9926348718018,-8.36178574521592],[-35.0122465009752,-8.35754880523314],[-35.0149396800222,-8.36041344272616],[-35.0243854393365,-8.36355225653137],[-35.0263571507618,-8.36146412786718],[-35.0314717148477,-8.36124952534528],[-35.0319135607622,-8.35751054267735],[-35.0385388932553,-8.35502322923861],[-35.0392922742191,-8.3522653313799],[-35.0441631669965,-8.34925044864922],[-35.0474204763738,-8.34911068141276],[-35.0510816586915,-8.35209161653484],[-35.0582237650147,-8.35198826464666],[-35.0586539512188,-8.34925487601168],[-35.0669852823449,-8.34976187241245],[-35.0726155167926,-8.34520260641512],[-35.0723091510465,-8.34276288150176],[-35.0749223443906,-8.3423238360761],[-35.0773475758299,-8.3363020206217],[-35.0809330307347,-8.33274645558442],[-35.0911326332644,-8.33018659743346],[-35.0954553838588,-8.33060372817948],[-35.1006223667288,-8.32661817029231],[-35.1069216275311,-8.32943556639821],[-35.1082247766521,-8.33404544084437],[-35.140148406124,-8.30993286490974],[-35.1489513606168,-8.2995074129367],[-35.1458395039899,-8.28918807197192],[-35.1517430819776,-8.2791942460176],[-35.1627252295856,-8.28430220098573],[-35.1737461352759,-8.28718797254686],[-35.1882319174689,-8.2953568843127],[-35.1907455909362,-8.29377030035903],[-35.1957967636097,-8.29769528800711],[-35.1997910404241,-8.29316994713531],[-35.2043227718784,-8.29605569261605],[-35.2051863206921,-8.29064116685636],[-35.2104727865898,-8.28753223122743],[-35.2179623630726,-8.29125514211109],[-35.2212022435886,-8.29038313517351],[-35.2289031760407,-8.29465208562523],[-35.2356966457835,-8.29105457171108],[-35.2371153353044,-8.29303175551104],[-35.2382979419964,-8.28665898502408],[-35.2369479759683,-8.28461355976793],[-35.2370080057149,-8.27386539597121],[-35.2387127156193,-8.27193742217423],[-35.24161891618,-8.27288035054767],[-35.2435942545711,-8.2760188459929],[-35.2443760055482,-8.2744743512103],[-35.2466602295859,-8.27466564420406],[-35.2473606926418,-8.27698730881718],[-35.2500106997339,-8.27820775808152],[-35.2503423885903,-8.27310599044904],[-35.2533364762973,-8.26805834941326],[-35.2526768370664,-8.26398881373275],[-35.2590003301011,-8.26480774628044],[-35.2600873415576,-8.2598021125774],[-35.2648857489781,-8.25567768587644],[-35.2659684661717,-8.25024947873044],[-35.2642630718832,-8.24769480427176],[-35.2648301043258,-8.2428490241631],[-35.2628339007638,-8.24049906328111],[-35.2604290101906,-8.22765937498014],[-35.2582472270279,-8.22374344620306],[-35.2594813208063,-8.21768493391256],[-35.2554384779034,-8.21220194456407],[-35.2568598671891,-8.20884547413926],[-35.2533056106653,-8.20472988147879],[-35.2548700623035,-8.20267197363262],[-35.2504924332791,-8.19835421607417],[-35.2495074049427,-8.19412543923761],[-35.2503590943966,-8.18770720532319],[-35.2485356631902,-8.18590896862395],[-35.2467253108244,-8.18682206648515],[-35.2449042835058,-8.19273310255062],[-35.2421396605169,-8.19503708649228],[-35.240786782484,-8.20458196998186],[-35.2423269119574,-8.21125275061388],[-35.241075258916,-8.21281531637368],[-35.2367869856308,-8.21273801065065],[-35.234298060607,-8.20919676012233],[-35.2272556989913,-8.20680967252833],[-35.2253067422123,-8.20189819694417],[-35.2282098715883,-8.19979674752182],[-35.2284753613488,-8.19801611685029],[-35.2189859129695,-8.18757754107059],[-35.2152509223921,-8.18756201157754],[-35.1621052711413,-8.22477380126987],[-35.1646332645135,-8.217335014899],[-35.1553583053415,-8.20231131581454],[-35.1556612662544,-8.19811321934952],[-35.1515637382759,-8.19103540196222],[-35.1507904031545,-8.1863230758492],[-35.1481677894119,-8.18488263082873],[-35.1445044388287,-8.18567141270547],[-35.1407939979446,-8.18878575775647],[-35.1338780900018,-8.18549562762109],[-35.133664540586,-8.18743400387615],[-35.1308138380881,-8.18837977410727],[-35.1271847345878,-8.1842191317075],[-35.1229604957302,-8.18683856994398],[-35.120037742248,-8.18410382872867],[-35.1201223108959,-8.18588947581862],[-35.1150842467405,-8.191646210704],[-35.1094561832562,-8.18993127730652],[-35.1092094020922,-8.19172787813904],[-35.1057715987802,-8.19304667366504],[-35.104496033665,-8.19583354138479],[-35.1025450597067,-8.19552510360064],[-35.101826887201,-8.19904372988418],[-35.0853128298232,-8.21015589427907],[-35.0840374130961,-8.21376266311637],[-35.0779976049055,-8.21917525713235],[-35.0752218078401,-8.21693820613326],[-35.0723367710251,-8.22199142926097],[-35.0665761222901,-8.22053401493281],[-35.0644956882254,-8.22279046790573],[-35.0070497892163,-8.20603937891417],[-35.0020659541804,-8.21186291094454],[-34.9954194813239,-8.22426731568402],[-34.9930516113428,-8.22570473808315],[-34.9899675059955,-8.22448142627679],[-34.9865780682232,-8.21880937335385],[-34.9854009986571,-8.22132023284241],[-34.9859166977973,-8.22498330643442],[-34.9829853503936,-8.22523959343244],[-34.9834103681939,-8.2288598017384],[-34.9786429801894,-8.22881209180457],[-34.9769812695699,-8.23109448122529],[-34.9698964518597,-8.22451176670461],[-34.971401746993,-8.2187027353429],[-34.9644868471902,-8.2155313399993],[-34.9598888419964,-8.21611603152956],[-34.9599194234426,-8.22042387945845],[-34.9580616030605,-8.22414914746514],[-34.9556348346798,-8.22491902918978],[-34.9591737856417,-8.23278154553185],[-34.9579354299761,-8.23527545999445],[-34.9563751071254,-8.23624399566382],[-34.9522553407114,-8.23442881034129],[-34.9479387162987,-8.23477103565471],[-34.942648530805,-8.24238661165277],[-34.9356405053051,-8.23886874529631],[-34.9317392732488,-8.22911929571888],[-34.92875255252431,-8.225967830555312],[-34.93259386189676,-8.242783965083653],[-34.93302489189134,-8.24467088896085],[-34.9364344492903,-8.24834723993315],[-34.9443737236684,-8.26030024436073],[-34.9460627871679,-8.27897415853056],[-34.9516915350363,-8.29379214219358],[-34.9515169784258,-8.29954573664639],[-34.9475676371367,-8.30132691500507],[-34.94629460495775,-8.302761830991505],[-34.946294604958574,-8.302761830995102],[-34.96098263831651,-8.366929740199492],[-34.96098263831651,-8.366929740199499],[-34.9658912320946,-8.36164199758007],[-34.9757482504813,-8.35993869601396]]]}},{"type":"Feature","properties":{"id":"77","concentrationId":"2611606","name":"Recife/PE","state":"PE","municipality":"2600054","population2010":"94429","urbanPopulation2010":"86625","ruralPopulation2010":"7804"},"geometry":{"type":"Polygon","coordinates":[[[-35.0476818958028,-7.90910587973253],[-35.0626735637339,-7.90551924491718],[-35.066433834254,-7.89890614140524],[-35.0739020437443,-7.89958527344158],[-35.0833672140257,-7.89185583877589],[-35.0974237039408,-7.88448024506721],[-35.110286612737,-7.86385198088419],[-35.1121067398341,-7.85759206542144],[-35.1231822109902,-7.85038134532277],[-35.1400631324076,-7.79445273750377],[-35.1253794112308,-7.81057503580922],[-35.1197071298801,-7.81258081445298],[-35.1015711011254,-7.83062689121801],[-35.0999856835924,-7.82813467377611],[-35.1025290535729,-7.82124597841915],[-35.1001490949047,-7.80853670980127],[-35.1040651675734,-7.80198859219974],[-35.0938134951966,-7.80603811526675],[-35.0831388968426,-7.80425894239625],[-35.0683750334809,-7.81171650301417],[-35.0541057378895,-7.88003762473654],[-34.9772358973187,-7.90002509138481],[-34.9307827813003,-7.89275595312466],[-34.9232429596948,-7.8869240906742],[-34.9181143068297,-7.8860382413717],[-34.9121482178659,-7.88731975820025],[-34.9021603786985,-7.88591475995815],[-34.8881708379138,-7.88771783501006],[-34.8802379316352,-7.89281630033197],[-34.866236135789,-7.89111812310285],[-34.8652478339204,-7.89613418624368],[-34.8609864125928,-7.89722064281835],[-34.8631692299759,-7.90397760458274],[-34.8609686743648,-7.90973009197013],[-34.8657200283566,-7.91146448939464],[-34.8727210913053,-7.90998942137463],[-34.8841578219259,-7.91413853986166],[-34.888543992711,-7.91164268825941],[-34.8933652312204,-7.91290478872497],[-34.8965077781114,-7.91786489514874],[-34.8954439997407,-7.92075699973571],[-34.8981660002607,-7.92813099984574],[-34.9031762097143,-7.93122129972318],[-34.9071713255962,-7.93590000917805],[-34.9125462874811,-7.93439789494687],[-34.9128875739024,-7.92990078199545],[-34.915756142332,-7.92711642338418],[-34.9181819745185,-7.92696523026114],[-34.9235838324279,-7.93000691009075],[-34.930477878751,-7.92509287593544],[-34.9386872222375,-7.92615203898538],[-34.9491788094544,-7.92026542490935],[-34.9577753695376,-7.92003713110865],[-34.9618921484039,-7.91558305431448],[-34.9855964986794,-7.9201970107834],[-35.0078202905739,-7.91659755343432],[-35.0206546467945,-7.91602196664042],[-35.0247387748745,-7.91951082536423],[-35.0252335135158,-7.92568937106757],[-35.0318992102803,-7.92702580859413],[-35.0476818958028,-7.90910587973253]]]}},{"type":"Feature","properties":{"id":"78","concentrationId":"2611606","name":"Recife/PE","state":"PE","municipality":"2606804","population2010":"102021","urbanPopulation2010":"94761","ruralPopulation2010":"7260"},"geometry":{"type":"Polygon","coordinates":[[[-34.8550573891871,-7.87152440302874],[-34.8558655190784,-7.8772948103072],[-34.861973554336,-7.88911034616553],[-34.866236135789,-7.89111812310285],[-34.8802379316352,-7.89281630033197],[-34.8881708379138,-7.88771783501006],[-34.9021603786985,-7.88591475995815],[-34.9121482178659,-7.88731975820025],[-34.9181143068297,-7.8860382413717],[-34.9232429596948,-7.8869240906742],[-34.9307827813003,-7.89275595312466],[-34.9772358973187,-7.90002509138481],[-35.0541057378895,-7.88003762473654],[-35.0524315212976,-7.87782925761412],[-35.0376789956891,-7.87123786103843],[-35.0363328814573,-7.86776868577619],[-35.0362388834177,-7.84205078311709],[-35.0329206269853,-7.83009255003111],[-35.0339636130303,-7.82656605198167],[-35.0291258854512,-7.82455310933848],[-35.0281354611826,-7.82250430802736],[-35.0256650621928,-7.8223267953453],[-35.0251138128521,-7.81973783333428],[-35.0209542820145,-7.8171401245171],[-35.0204228618256,-7.81383605039338],[-35.0243604354857,-7.80632050868451],[-35.0282831028828,-7.80402766284629],[-35.0288068725391,-7.79994674624527],[-35.0322293756851,-7.7993041203888],[-35.0367439921415,-7.79350117384007],[-35.0398573209586,-7.79425080373159],[-35.0400335386168,-7.78821433292507],[-35.0381653364611,-7.78068728528996],[-35.0406512892256,-7.77532063493931],[-35.038485664182,-7.76875310277343],[-35.0442465080699,-7.76316597642865],[-35.0449215472915,-7.76025709768686],[-35.0532050857461,-7.75025593146603],[-35.0730485295659,-7.74538690298312],[-35.0754413836129,-7.74597642297352],[-35.0786607802707,-7.74284097533069],[-35.0844173883518,-7.74062468338241],[-35.0877013464399,-7.74196018021808],[-35.0914272592606,-7.74052561226717],[-35.0945927703401,-7.73312488070866],[-35.099138251529,-7.72743092119999],[-35.0994941717186,-7.71743816543893],[-35.0981272103025,-7.71518123312734],[-35.0452041385601,-7.74448024426783],[-35.0355915622008,-7.74317117760774],[-35.0226863313091,-7.7383119913053],[-35.0186147775499,-7.73537477852318],[-35.0080364525202,-7.73450662158325],[-34.9991362147645,-7.73124637142285],[-34.9885237820468,-7.73219125492245],[-34.9828916743113,-7.73541154640572],[-34.9770299885431,-7.73376543632578],[-34.9717491955689,-7.72908836093905],[-34.968481356929,-7.71783197946224],[-34.9619727870145,-7.70831893197311],[-34.9565884344087,-7.70738117470143],[-34.9517966064282,-7.70826376755878],[-34.9476297056464,-7.70511944540602],[-34.9379941776891,-7.70512729109158],[-34.9279826323925,-7.69976370023454],[-34.9258677686825,-7.69392788076704],[-34.9227209518104,-7.69166114584516],[-34.9238843741645,-7.70230223276178],[-34.9417059828448,-7.72127832723299],[-34.9435056665532,-7.73978371744454],[-34.9367124036544,-7.74922884363616],[-34.936131579209,-7.77063737581421],[-34.9261476583877,-7.80541052067896],[-34.9252088588017,-7.80649879118624],[-34.9080391677733,-7.8059355916542],[-34.9040175866423,-7.8072855334006],[-34.8961614716745,-7.8048949960072],[-34.8894221033473,-7.80471268544205],[-34.8876856149991,-7.80706799189427],[-34.8814964761814,-7.80934384863963],[-34.865275560019,-7.81132789606551],[-34.8477031076123,-7.81601579928969],[-34.8476587728341,-7.8186609644319],[-34.84399175583451,-7.824351651887428],[-34.84305363214899,-7.83108268933104],[-34.8446404717803,-7.83706388049365],[-34.8437557592209,-7.84134369835294],[-34.841260045293254,-7.8439516750208895],[-34.8411,-7.8451],[-34.8413726700127,-7.86312389065501],[-34.8550573891871,-7.87152440302874]]]}},{"type":"Feature","properties":{"id":"79","concentrationId":"2611606","name":"Recife/PE","state":"PE","municipality":"2609402","population2010":"56696","urbanPopulation2010":"49717","ruralPopulation2010":"6979"},"geometry":{"type":"Polygon","coordinates":[[[-35.1502893045077,-8.09094958165782],[-35.1470206402903,-8.08826723404559],[-35.1427678056896,-8.09248004881518],[-35.1383377731697,-8.0918664458797],[-35.1386046802617,-8.08836229238586],[-35.1346219444471,-8.08689200426255],[-35.1348688829925,-8.08461224356017],[-35.1318769419673,-8.08369151135412],[-35.1326217146204,-8.08233315555066],[-35.1288454325706,-8.08142361450814],[-35.1291321022647,-8.07671339640609],[-35.125997975726,-8.07525646231585],[-35.124360080953,-8.07839615925531],[-35.113004193089,-8.07921108082667],[-35.1132807930741,-8.08078416685579],[-35.10794772161,-8.08136549312299],[-35.106630732822,-8.08492605659217],[-35.1041630974489,-8.0853572176614],[-35.1016153972328,-8.08853890394721],[-35.0914631871763,-8.08661285200145],[-35.0861691471883,-8.08813166574373],[-35.0807881067856,-8.08582937252748],[-35.074932007606,-8.08584079121949],[-35.0740573152928,-8.08433789457815],[-35.0729904972137,-8.08583358944855],[-35.0710935095578,-8.08477361431079],[-35.0694199125988,-8.08628897105911],[-35.0665137911785,-8.0861697452375],[-35.0655803884242,-8.08952552588226],[-35.0634952329186,-8.08764303889506],[-35.0608425287597,-8.0881429729198],[-35.0597444763265,-8.08695925736379],[-35.0581631012461,-8.08797062774221],[-35.0970969559597,-8.16164613755917],[-35.0665673574975,-8.19845913907796],[-35.0659000164725,-8.20073508755423],[-35.0685367837455,-8.20473286273137],[-35.0670227759803,-8.20518789360637],[-35.0662486566501,-8.20734321781521],[-35.0674949344436,-8.20949430801585],[-35.0632520670292,-8.21864050765328],[-35.0644956882254,-8.22279046790573],[-35.0665761222901,-8.22053401493281],[-35.0723367710251,-8.22199142926097],[-35.0752218078401,-8.21693820613326],[-35.0779976049055,-8.21917525713235],[-35.0840374130961,-8.21376266311637],[-35.0853128298232,-8.21015589427907],[-35.101826887201,-8.19904372988418],[-35.1025450597067,-8.19552510360064],[-35.104496033665,-8.19583354138479],[-35.1057715987802,-8.19304667366504],[-35.1092094020922,-8.19172787813904],[-35.1094561832562,-8.18993127730652],[-35.1150842467405,-8.191646210704],[-35.1201223108959,-8.18588947581862],[-35.120037742248,-8.18410382872867],[-35.1229604957302,-8.18683856994398],[-35.1271847345878,-8.1842191317075],[-35.1308138380881,-8.18837977410727],[-35.133664540586,-8.18743400387615],[-35.1338780900018,-8.18549562762109],[-35.1407939979446,-8.18878575775647],[-35.1445044388287,-8.18567141270547],[-35.1481677894119,-8.18488263082873],[-35.1507904031545,-8.1863230758492],[-35.1515637382759,-8.19103540196222],[-35.1556612662544,-8.19811321934952],[-35.1553583053415,-8.20231131581454],[-35.1646332645135,-8.217335014899],[-35.1621052711413,-8.22477380126987],[-35.2152509223921,-8.18756201157754],[-35.2213189809861,-8.18606028045753],[-35.2220240188933,-8.18465501062019],[-35.2197010457666,-8.18012196705508],[-35.2236905013156,-8.17644185131036],[-35.2240168203199,-8.16475078252257],[-35.227020673765,-8.16338738871696],[-35.2282147827859,-8.15452814655669],[-35.2198125742908,-8.15013542510974],[-35.2255301472984,-8.13149259240919],[-35.2228432680023,-8.12708009487045],[-35.2164361182323,-8.12326440722654],[-35.1957693810521,-8.07954224537827],[-35.1502893045077,-8.09094958165782]]]}},{"type":"Feature","properties":{"id":"80","concentrationId":"2611606","name":"Recife/PE","state":"PE","municipality":"2610608","population2010":"51357","urbanPopulation2010":"31532","ruralPopulation2010":"19825"},"geometry":{"type":"Polygon","coordinates":[[[-35.1459503993914,-7.82669729634314],[-35.1400631324076,-7.79445273750377],[-35.1231822109902,-7.85038134532277],[-35.1121067398341,-7.85759206542144],[-35.110286612737,-7.86385198088419],[-35.0974237039408,-7.88448024506721],[-35.0833672140257,-7.89185583877589],[-35.0739020437443,-7.89958527344158],[-35.066433834254,-7.89890614140524],[-35.0626735637339,-7.90551924491718],[-35.0476818958028,-7.90910587973253],[-35.0318992102803,-7.92702580859413],[-35.0285915046941,-7.93428294809951],[-35.031823861482,-7.93583994705586],[-35.0346602656587,-7.94144878933014],[-35.0450318158656,-7.95014305805563],[-35.0512901242398,-7.94529416629269],[-35.0592773207917,-7.94765783554061],[-35.0665688683586,-7.94781006378339],[-35.0724511432056,-7.95125333497339],[-35.0757321605108,-7.95060852556299],[-35.0771075935406,-7.96025730323191],[-35.0788035395516,-7.96209228982724],[-35.0921415907617,-7.96699615444891],[-35.093160145824,-7.96988251866327],[-35.0980999230729,-7.97288982460566],[-35.1022048326868,-7.97039014369011],[-35.109037340201,-7.9711729810482],[-35.1113331466074,-7.96867979053985],[-35.1147005078221,-7.97011920313867],[-35.1175630229151,-7.97402378157222],[-35.1303870989854,-7.97590174047293],[-35.1413883338045,-7.97232232631427],[-35.1459831823779,-7.97361295057715],[-35.1561493247315,-7.97140151047131],[-35.1580597851309,-7.97402308999358],[-35.1642188272371,-7.97183417700564],[-35.1669758401629,-7.97466081544423],[-35.1664978289117,-7.97813574546824],[-35.1720254561099,-7.97572613525289],[-35.1716770578499,-7.97282725427431],[-35.1737485904251,-7.97157183667088],[-35.1776673547646,-7.97362373524715],[-35.1771850384587,-7.97669394157208],[-35.180430719602,-7.97775528278004],[-35.1828269784822,-7.97508901594529],[-35.2544591314837,-7.94644480028728],[-35.2538432784445,-7.91561926641594],[-35.2492761568691,-7.90401433739169],[-35.2499094333736,-7.8987004367757],[-35.2442068313801,-7.89422986191852],[-35.2413650204793,-7.88830434766748],[-35.2352980545616,-7.89049711065309],[-35.2275673968178,-7.88919818834569],[-35.2214403067247,-7.89076438916516],[-35.2261420846894,-7.82130933205997],[-35.1459503993914,-7.82669729634314]]]}},{"type":"Feature","properties":{"id":"81","concentrationId":"2611606","name":"Recife/PE","state":"PE","municipality":"2607604","population2010":"21884","urbanPopulation2010":"18121","ruralPopulation2010":"3763"},"geometry":{"type":"Polygon","coordinates":[[[-34.8477031076123,-7.81601579928969],[-34.865275560019,-7.81132789606551],[-34.8814964761814,-7.80934384863963],[-34.8876856149991,-7.80706799189427],[-34.8894221033473,-7.80471268544205],[-34.8876629997476,-7.77114700003397],[-34.8772764443524,-7.74061767316705],[-34.8701170305765,-7.73806907183018],[-34.8625556809998,-7.7297544680942],[-34.8641751981269,-7.71334912076526],[-34.8608766710215,-7.70938265548511],[-34.8528156976863,-7.69085069930031],[-34.8484629798826,-7.6878292227404],[-34.84518586552931,-7.812837965461743],[-34.8473722632193,-7.81329279782432],[-34.8477031076123,-7.81601579928969]]]}},{"type":"Feature","properties":{"id":"82","concentrationId":"2611606","name":"Recife/PE","state":"PE","municipality":"2613701","population2010":"102895","urbanPopulation2010":"96777","ruralPopulation2010":"6118"},"geometry":{"type":"Polygon","coordinates":[[[-35.0166072218458,-7.99094017045246],[-35.0111591145015,-8.01131328887715],[-35.002295873056,-8.01803339372611],[-35.0166286778711,-8.01981088666303],[-35.012055667535,-8.03641615957805],[-35.0100826386028,-8.03785856871793],[-35.0008241505141,-8.03465079220025],[-34.9961383220259,-8.03685379306807],[-34.9932821975154,-8.04232698879947],[-34.9947835554167,-8.04607109040849],[-35.0166950289524,-8.05580815092537],[-35.0551480053761,-8.06730960125702],[-35.0581631012461,-8.08797062774221],[-35.0597444763265,-8.08695925736379],[-35.0608425287597,-8.0881429729198],[-35.0634952329186,-8.08764303889506],[-35.0655803884242,-8.08952552588226],[-35.0665137911785,-8.0861697452375],[-35.0694199125988,-8.08628897105911],[-35.0710935095578,-8.08477361431079],[-35.0729904972137,-8.08583358944855],[-35.0740573152928,-8.08433789457815],[-35.074932007606,-8.08584079121949],[-35.0807881067856,-8.08582937252748],[-35.0861691471883,-8.08813166574373],[-35.0914631871763,-8.08661285200145],[-35.1016153972328,-8.08853890394721],[-35.1041630974489,-8.0853572176614],[-35.106630732822,-8.08492605659217],[-35.10794772161,-8.08136549312299],[-35.1132807930741,-8.08078416685579],[-35.113004193089,-8.07921108082667],[-35.124360080953,-8.07839615925531],[-35.125997975726,-8.07525646231585],[-35.1291321022647,-8.07671339640609],[-35.1288454325706,-8.08142361450814],[-35.1326217146204,-8.08233315555066],[-35.1318769419673,-8.08369151135412],[-35.1348688829925,-8.08461224356017],[-35.1346219444471,-8.08689200426255],[-35.1386046802617,-8.08836229238586],[-35.1383377731697,-8.0918664458797],[-35.1427678056896,-8.09248004881518],[-35.1470206402903,-8.08826723404559],[-35.1502893045077,-8.09094958165782],[-35.1957693810521,-8.07954224537827],[-35.2044414356237,-8.03837152132861],[-35.2236305579039,-8.02084609537099],[-35.2045399698437,-8.01159795218372],[-35.2045841949046,-8.0081061185025],[-35.2008146451797,-8.00463147626158],[-35.2017714617835,-8.00293506080436],[-35.1951662417287,-7.99827135743714],[-35.195518165331,-7.99667257867651],[-35.1936644719378,-7.99484436667416],[-35.1892262385,-7.99441956111383],[-35.1858915055885,-7.99119619125117],[-35.180373618048,-7.99526727376564],[-35.1780793153081,-7.99497465235828],[-35.1711884660748,-7.98783976039659],[-35.1696890363199,-7.98784623731393],[-35.1687997183323,-7.98186572142584],[-35.1668753634073,-7.98120252987281],[-35.1673649804095,-7.98251864272112],[-35.1662244377076,-7.98296085286103],[-35.1648920390363,-7.98210755901658],[-35.1669758401629,-7.97466081544423],[-35.1642188272371,-7.97183417700564],[-35.1580597851309,-7.97402308999358],[-35.1561493247315,-7.97140151047131],[-35.1459831823779,-7.97361295057715],[-35.1413883338045,-7.97232232631427],[-35.1303870989854,-7.97590174047293],[-35.1175630229151,-7.97402378157222],[-35.1147005078221,-7.97011920313867],[-35.1113331466074,-7.96867979053985],[-35.109037340201,-7.9711729810482],[-35.1022048326868,-7.97039014369011],[-35.0980999230729,-7.97288982460566],[-35.093160145824,-7.96988251866327],[-35.0921415907617,-7.96699615444891],[-35.0788035395516,-7.96209228982724],[-35.0771075935406,-7.96025730323191],[-35.0757321605108,-7.95060852556299],[-35.0724511432056,-7.95125333497339],[-35.0665688683586,-7.94781006378339],[-35.0592773207917,-7.94765783554061],[-35.0512901242398,-7.94529416629269],[-35.0450318158656,-7.95014305805563],[-35.0346602656587,-7.94144878933014],[-35.0338665015378,-7.95342788668757],[-35.0306735269617,-7.95812828779021],[-35.0236928966099,-7.95681738561382],[-35.0170147172553,-7.95934457499209],[-35.0146528736312,-7.96352288907003],[-35.0148904538313,-7.96914444146273],[-35.0092820324398,-7.97122732707943],[-35.0166072218458,-7.99094017045246]]]}},{"type":"Feature","properties":{"id":"83","concentrationId":"2611606","name":"Recife/PE","state":"PE","municipality":"2611606","population2010":"1537704","urbanPopulation2010":"1537704","ruralPopulation2010":"0"},"geometry":{"type":"Polygon","coordinates":[[[-34.908867821093,-8.15512326662542],[-34.911902886409,-8.15331379559513],[-34.9136078526203,-8.15390405033162],[-34.9115263483623,-8.14966165236331],[-34.9145157344135,-8.14760374901375],[-34.9135938807529,-8.14512031255232],[-34.9216135122538,-8.14159983636331],[-34.9324974134249,-8.14188974631469],[-34.9371882772172,-8.13682006469417],[-34.9511679398485,-8.13745309028787],[-34.9533073748354,-8.1386606019052],[-34.9564871914307,-8.13794096620257],[-34.9571548139435,-8.13412457708751],[-34.9521630064175,-8.13025403079883],[-34.9539214373244,-8.12364104869539],[-34.9556456535241,-8.12914973886934],[-34.9584839705588,-8.12971538995323],[-34.9596348284845,-8.1281580573484],[-34.9597052319109,-8.11446119642705],[-34.9574723564641,-8.1114778664104],[-34.9618068018424,-8.10960108112494],[-34.9633146429564,-8.10647620051617],[-34.9616666739778,-8.09384024103423],[-34.963441224333,-8.09317077131402],[-34.9658101797959,-8.09471950460142],[-34.9643455609988,-8.09312848519141],[-34.9651036454168,-8.09146875038249],[-34.9678427807197,-8.09129050115564],[-34.9702661451664,-8.08749445470527],[-34.9732160159064,-8.08740751274649],[-34.9712614068883,-8.08393602892455],[-34.9717430909708,-8.07836330881958],[-34.9738604080314,-8.07825775269312],[-34.9764894959934,-8.08055078559022],[-34.98058335204,-8.07544909619878],[-34.9856275711554,-8.07431990833703],[-34.9856724221446,-8.07189310758083],[-34.9889977409529,-8.07122139315272],[-34.9931611002046,-8.0661991858437],[-34.9930239526932,-8.06233757611818],[-34.9950936893223,-8.06242224549022],[-34.9955895970822,-8.06076069405077],[-35.0026579643935,-8.06401710590468],[-35.0066237551821,-8.05965904522874],[-35.0093771609272,-8.06033058968489],[-35.0123143125554,-8.05903589509046],[-35.0136727367074,-8.05627490356392],[-35.0166950289524,-8.05580815092537],[-34.9947835554167,-8.04607109040849],[-34.9932821975154,-8.04232698879947],[-34.9961383220259,-8.03685379306807],[-34.9961966547518,-8.03332625180503],[-34.9917325712012,-8.0321698720419],[-34.9859887586742,-8.03670994740611],[-34.979930199619,-8.03274842479994],[-34.9786834802584,-8.02936529667108],[-34.9745050888387,-8.02973000863295],[-34.9655416161526,-8.01981387421086],[-34.9619394446496,-8.02137888882458],[-34.96439582141,-8.00867058607867],[-34.9623167956835,-7.99040809645647],[-34.9640924063394,-7.98737748458319],[-34.9619241525775,-7.98194632496291],[-34.9625917067418,-7.97736629002225],[-34.9612313274637,-7.97558507748932],[-34.9619168545792,-7.9741467458756],[-34.9722180013596,-7.97176300196094],[-34.9747812517533,-7.96886056146571],[-34.9792996174833,-7.97010789416396],[-34.9928229281356,-7.9615803903227],[-34.9996480836921,-7.96390688969115],[-35.0028254235544,-7.96046462664117],[-34.9988790922962,-7.94848682880405],[-35.0083996122523,-7.94573071070368],[-35.0001175306994,-7.92920563842943],[-34.9973416374066,-7.93019302298956],[-34.9958900767656,-7.93326322661659],[-34.9927010133411,-7.93328304587585],[-34.9903823335778,-7.9391466202203],[-34.9886882779416,-7.93878572408187],[-34.9863277032608,-7.94100727076887],[-34.9837944857269,-7.93974757329181],[-34.9809803388715,-7.94140763275602],[-34.9780968318033,-7.940148566603],[-34.9719999040723,-7.9411742685776],[-34.9705652947525,-7.94017517124712],[-34.9677582030786,-7.94179141484187],[-34.9602168930951,-7.93824348864604],[-34.9584202913633,-7.93597758739572],[-34.9523011171028,-7.93549032661723],[-34.9486195894225,-7.92953369942063],[-34.9436972131558,-7.92980509323041],[-34.938120578302,-7.933055877127],[-34.9339462203417,-7.9324998667754],[-34.9281276174955,-7.93563936946128],[-34.9235130800645,-7.93352682150556],[-34.918461323731,-7.93592848980791],[-34.9161619668013,-7.93482783024013],[-34.9112380769756,-7.93910709681501],[-34.9092485535779,-7.94401457311403],[-34.9137208164624,-7.98220727314708],[-34.9165990463089,-7.98498720529522],[-34.9166433037454,-7.98726544434476],[-34.8994680000481,-8.00195799956197],[-34.8893121351469,-8.00430967545112],[-34.8847562425066,-8.0069721660326],[-34.8806309812347,-8.01069469110706],[-34.8793204181028,-8.01610750905428],[-34.8728959968527,-8.0173074375881],[-34.875857342942,-8.03072651231867],[-34.8605759997825,-8.04446700025181],[-34.8913031170261,-8.115034673769904],[-34.89130311702663,-8.115034673771126],[-34.8960122183891,-8.12355938755565],[-34.908867821093,-8.15512326662542]]]}},{"type":"Feature","properties":{"id":"84","concentrationId":"2611606","name":"Recife/PE","state":"PE","municipality":"2607901","population2010":"644620","urbanPopulation2010":"636558","ruralPopulation2010":"8062"},"geometry":{"type":"Polygon","coordinates":[[[-34.9356405053051,-8.23886874529631],[-34.942648530805,-8.24238661165277],[-34.9479387162987,-8.23477103565471],[-34.9522553407114,-8.23442881034129],[-34.9563751071254,-8.23624399566382],[-34.9579354299761,-8.23527545999445],[-34.9591737856417,-8.23278154553185],[-34.9556348346798,-8.22491902918978],[-34.9580616030605,-8.22414914746514],[-34.9599194234426,-8.22042387945845],[-34.9598888419964,-8.21611603152956],[-34.9644868471902,-8.2155313399993],[-34.971401746993,-8.2187027353429],[-34.9698964518597,-8.22451176670461],[-34.9769812695699,-8.23109448122529],[-34.9786429801894,-8.22881209180457],[-34.9834103681939,-8.2288598017384],[-34.9829853503936,-8.22523959343244],[-34.9859166977973,-8.22498330643442],[-34.9854009986571,-8.22132023284241],[-34.9865780682232,-8.21880937335385],[-34.9899675059955,-8.22448142627679],[-34.9930516113428,-8.22570473808315],[-34.9954194813239,-8.22426731568402],[-35.0020659541804,-8.21186291094454],[-35.0070497892163,-8.20603937891417],[-35.0644956882254,-8.22279046790573],[-35.0632520670292,-8.21864050765328],[-35.0674949344436,-8.20949430801585],[-35.0662486566501,-8.20734321781521],[-35.0670227759803,-8.20518789360637],[-35.0685367837455,-8.20473286273137],[-35.0659000164725,-8.20073508755423],[-35.0665673574975,-8.19845913907796],[-35.0970969559597,-8.16164613755917],[-35.0581631012461,-8.08797062774221],[-35.0551480053761,-8.06730960125702],[-35.0166950289524,-8.05580815092537],[-35.0136727367074,-8.05627490356392],[-35.0123143125554,-8.05903589509046],[-35.0093771609272,-8.06033058968489],[-35.0066237551821,-8.05965904522874],[-35.0026579643935,-8.06401710590468],[-34.9955895970822,-8.06076069405077],[-34.9950936893223,-8.06242224549022],[-34.9930239526932,-8.06233757611818],[-34.9931611002046,-8.0661991858437],[-34.9889977409529,-8.07122139315272],[-34.9856724221446,-8.07189310758083],[-34.9856275711554,-8.07431990833703],[-34.98058335204,-8.07544909619878],[-34.9764894959934,-8.08055078559022],[-34.9738604080314,-8.07825775269312],[-34.9717430909708,-8.07836330881958],[-34.9712614068883,-8.08393602892455],[-34.9732160159064,-8.08740751274649],[-34.9702661451664,-8.08749445470527],[-34.9678427807197,-8.09129050115564],[-34.9651036454168,-8.09146875038249],[-34.9643455609988,-8.09312848519141],[-34.9658101797959,-8.09471950460142],[-34.963441224333,-8.09317077131402],[-34.9616666739778,-8.09384024103423],[-34.9633146429564,-8.10647620051617],[-34.9618068018424,-8.10960108112494],[-34.9574723564641,-8.1114778664104],[-34.9597052319109,-8.11446119642705],[-34.9591560905811,-8.12245628093257],[-34.9605280153556,-8.12519797210865],[-34.9584839705588,-8.12971538995323],[-34.9556456535241,-8.12914973886934],[-34.9539214373244,-8.12364104869539],[-34.9521630064175,-8.13025403079883],[-34.9571548139435,-8.13412457708751],[-34.9564871914307,-8.13794096620257],[-34.9533073748354,-8.1386606019052],[-34.9511679398485,-8.13745309028787],[-34.9371882772172,-8.13682006469417],[-34.9324974134249,-8.14188974631469],[-34.9216135122538,-8.14159983636331],[-34.9135938807529,-8.14512031255232],[-34.9145157344135,-8.14760374901375],[-34.9115263483623,-8.14966165236331],[-34.9136078526203,-8.15390405033162],[-34.911902886409,-8.15331379559513],[-34.908867821093,-8.15512326662542],[-34.9179751016696,-8.18506287655049],[-34.91787802838232,-8.187285736991862],[-34.9286,-8.2253],[-34.928855142803,-8.226416940939444],[-34.9317392732488,-8.22911929571888],[-34.9356405053051,-8.23886874529631]]]}},{"type":"Feature","properties":{"id":"85","concentrationId":"2611606","name":"Recife/PE","state":"PE","municipality":"2603454","population2010":"144466","urbanPopulation2010":"140834","ruralPopulation2010":"3632"},"geometry":{"type":"Polygon","coordinates":[[[-35.0148904538313,-7.96914444146273],[-35.0146528736312,-7.96352288907003],[-35.0170147172553,-7.95934457499209],[-35.0236928966099,-7.95681738561382],[-35.0306735269617,-7.95812828779021],[-35.0338665015378,-7.95342788668757],[-35.0346602656587,-7.94144878933014],[-35.031823861482,-7.93583994705586],[-35.0256797391286,-7.93206402653357],[-35.021131011387,-7.93246432197083],[-35.0158822666532,-7.9259126475506],[-35.0035907879844,-7.92607274396193],[-35.0001175306994,-7.92920563842943],[-35.0083996122523,-7.94573071070368],[-34.9988790922962,-7.94848682880405],[-35.0030404676434,-7.96008668655128],[-34.9996480836921,-7.96390688969115],[-34.9928229281356,-7.9615803903227],[-34.9792996174833,-7.97010789416396],[-34.9747812517533,-7.96886056146571],[-34.9722180013596,-7.97176300196094],[-34.9619168545792,-7.9741467458756],[-34.9612313274637,-7.97558507748932],[-34.9625917067418,-7.97736629002225],[-34.9619241525775,-7.98194632496291],[-34.9640924063394,-7.98737748458319],[-34.9623167956835,-7.99040809645647],[-34.96439582141,-8.00867058607867],[-34.9619394446496,-8.02137888882458],[-34.9655416161526,-8.01981387421086],[-34.9745050888387,-8.02973000863295],[-34.9786834802584,-8.02936529667108],[-34.979930199619,-8.03274842479994],[-34.9859887586742,-8.03670994740611],[-34.9928865947405,-8.03209134773743],[-34.9961966547518,-8.03332625180503],[-34.9961383220259,-8.03685379306807],[-35.0008241505141,-8.03465079220025],[-35.0100826386028,-8.03785856871793],[-35.012055667535,-8.03641615957805],[-35.0166286778711,-8.01981088666303],[-35.002295873056,-8.01803339372611],[-35.0111591145015,-8.01131328887715],[-35.0166072218458,-7.99094017045246],[-35.0092820324398,-7.97122732707943],[-35.0148904538313,-7.96914444146273]]]}},{"type":"Feature","properties":{"id":"86","concentrationId":"2611606","name":"Recife/PE","state":"PE","municipality":"2609600","population2010":"377779","urbanPopulation2010":"370332","ruralPopulation2010":"7447"},"geometry":{"type":"Polygon","coordinates":[[[-34.8604060000368,-8.03082399972777],[-34.8639630003921,-8.04060200008217],[-34.8605759997825,-8.04446700025181],[-34.875857342942,-8.03072651231867],[-34.8728959968527,-8.0173074375881],[-34.8793204181028,-8.01610750905428],[-34.8806309812347,-8.01069469110706],[-34.8893470414327,-8.00430009047676],[-34.8994680000481,-8.00195799956197],[-34.9166433037454,-7.98726544434476],[-34.9165990463089,-7.98498720529522],[-34.9137208164624,-7.98220727314708],[-34.9138710437136,-7.97936230922312],[-34.9038200001928,-7.97858399995158],[-34.8952640004333,-7.97568700035475],[-34.8818860004385,-7.97567399975526],[-34.8772879997413,-7.98009600043003],[-34.873465999756,-7.98069800031243],[-34.8728439998507,-7.97634300002937],[-34.8694180001406,-7.97635399963735],[-34.872516775229,-7.97000770339275],[-34.8675372668313,-7.96746631192071],[-34.8641293929571,-7.97463999973616],[-34.8512152057172,-7.96762247289876],[-34.8580219998154,-7.96711499985731],[-34.8553479997104,-7.95500399983467],[-34.8509170004192,-7.95467199981289],[-34.8463049999757,-7.95621599996839],[-34.840746999974,-7.96094000018081],[-34.8308240001274,-7.95778100019294],[-34.828006021239865,-7.959047601424103],[-34.852398022121996,-8.023210495052867],[-34.8560020001921,-8.02533100002557],[-34.8604060000368,-8.03082399972777]]]}},{"type":"Feature","properties":{"id":"87","concentrationId":"2616407","name":"Vitória de Santo Antão","state":"PE","municipality":"2616407","population2010":"129974","urbanPopulation2010":"109264","ruralPopulation2010":"20710"},"geometry":{"type":"Polygon","coordinates":[[[-35.3385450925819,-8.2781367278277],[-35.3553188885558,-8.18263888887356],[-35.3433381616268,-8.11777351913253],[-35.4293406688367,-8.08134736099185],[-35.4156884043963,-8.07423093570907],[-35.4011861807975,-8.07567187895398],[-35.3966423822401,-8.07389065562922],[-35.3884830608445,-8.07439045925224],[-35.3621053130097,-8.06098683037788],[-35.3503208100573,-8.06150595503573],[-35.345519828777,-8.05166829095879],[-35.3344829520266,-8.05866005491755],[-35.325282479203,-8.06129599121698],[-35.321213562256,-8.06390189915328],[-35.3122274068693,-8.06081982987121],[-35.2977726818637,-8.07084237567507],[-35.2727398107936,-8.05426130171765],[-35.2632525693505,-8.06064081442202],[-35.2607157284481,-8.0578267197273],[-35.2514306456077,-8.05437662268293],[-35.2341098307041,-8.03820255310529],[-35.2314180006402,-8.0378622757234],[-35.2329661610594,-8.03376377377908],[-35.2280215490552,-8.03105225845491],[-35.2256044789635,-8.02780056084715],[-35.2254047314432,-8.02315591231548],[-35.2236305579039,-8.02084609537099],[-35.2044414356237,-8.03837152132861],[-35.1957693810521,-8.07954224537827],[-35.2164361182323,-8.12326440722654],[-35.2228432680023,-8.12708009487045],[-35.2255301472984,-8.13149259240919],[-35.2198125742908,-8.15013542510974],[-35.2282147827859,-8.15452814655669],[-35.227020673765,-8.16338738871696],[-35.2240168203199,-8.16475078252257],[-35.2236905013156,-8.17644185131036],[-35.2197010457666,-8.18012196705508],[-35.2220240188933,-8.18465501062019],[-35.2213189809861,-8.18606028045753],[-35.2152509223921,-8.18756201157754],[-35.2189859129695,-8.18757754107059],[-35.2284753613488,-8.19801611685029],[-35.2282098715883,-8.19979674752182],[-35.2253067422123,-8.20189819694417],[-35.2272556989913,-8.20680967252833],[-35.234298060607,-8.20919676012233],[-35.2367869856308,-8.21273801065065],[-35.241075258916,-8.21281531637368],[-35.2423269119574,-8.21125275061388],[-35.240786782484,-8.20458196998186],[-35.2421396605169,-8.19503708649228],[-35.2449042835058,-8.19273310255062],[-35.2467253108244,-8.18682206648515],[-35.2485356631902,-8.18590896862395],[-35.2503590943966,-8.18770720532319],[-35.2495074049427,-8.19412543923761],[-35.2504924332791,-8.19835421607417],[-35.2548700623035,-8.20267197363262],[-35.2533056106653,-8.20472988147879],[-35.2568598671891,-8.20884547413926],[-35.2554384779034,-8.21220194456407],[-35.2594813208063,-8.21768493391256],[-35.2582472270279,-8.22374344620306],[-35.2604290101906,-8.22765937498014],[-35.2628339007638,-8.24049906328111],[-35.2648301043258,-8.2428490241631],[-35.2763168804196,-8.28517808490068],[-35.2691203048581,-8.29606557616535],[-35.3004970727816,-8.30808639037457],[-35.3394371283207,-8.29475508587848],[-35.359029854644,-8.30063868182964],[-35.3603596344895,-8.29812043081318],[-35.3650277094612,-8.29976388609441],[-35.36640895391,-8.29900199754411],[-35.3385450925819,-8.2781367278277]]]}}]}