{"type":"FeatureCollection","features":[{"type":"Feature","properties":{"id":"32","concentrationId":"2207702","name":"Parnaíba","state":"PI","municipality":"2207702","population2010":"145705","urbanPopulation2010":"137678","ruralPopulation2010":"8027"},"geometry":{"type":"Polygon","coordinates":[[[-41.8265311155185,-2.9111513617459],[-41.8250273977961,-2.90327086345951],[-41.8155830881889,-2.90114403786703],[-41.8108852960195,-2.89763137948456],[-41.8166866273859,-2.8921214482462],[-41.8164369234252,-2.88610275973451],[-41.8038301073735,-2.87955276704651],[-41.8010411972934,-2.88176066112556],[-41.7869329127237,-2.87364965940424],[-41.7841265216217,-2.87114524895401],[-41.7765473645692,-2.85316781024619],[-41.7710753991103,-2.84775346165288],[-41.7558117519107,-2.84158311057206],[-41.7849238884266,-2.76987431194988],[-41.7636049790865,-2.79224467804943],[-41.7505151425597,-2.80176608293835],[-41.7424074611354,-2.80569739192106],[-41.734877695749,-2.8074498702153],[-41.7319090318763,-2.80596855460505],[-41.7326863213166,-2.80467700943638],[-41.7289318028604,-2.80342633215947],[-41.7217952408577,-2.81127449532164],[-41.6840193334254,-2.84413050052212],[-41.6659063417043,-2.85722370590924],[-41.6591535285125,-2.8602458407729],[-41.6556666743775,-2.86756844013139],[-41.6574986896128,-2.87155525706942],[-41.66884549972,-2.87653489856667],[-41.6704021506387,-2.87945486774789],[-41.6695186710498,-2.88399818876537],[-41.6730190824646,-2.89118938907899],[-41.6729729058749,-2.89482598213335],[-41.6681320486551,-2.90134479802397],[-41.6694108980944,-2.90635223576703],[-41.6652989908557,-2.90783806687323],[-41.6610480097578,-2.91328010289436],[-41.6625760118734,-2.91899810757656],[-41.664433604727,-2.92012998171321],[-41.6630149349912,-2.92395316610567],[-41.6637353261244,-2.92704551373942],[-41.6665803188266,-2.92674391709807],[-41.6751199770053,-2.93691398229442],[-41.6844195407292,-2.95135151406107],[-41.6806543814945,-2.9763926975649],[-41.6812456830418,-2.97772413755888],[-41.6864614109653,-2.97836650710855],[-41.6887936758874,-2.98612636493977],[-41.6933209440063,-2.98981794524195],[-41.6943769819122,-2.99419532695271],[-41.6918228965094,-2.99825268491345],[-41.7060758721038,-3.0005774521876],[-41.7136361532858,-3.0100029605681],[-41.711080210783,-3.01681058114338],[-41.712813665718,-3.01965947960128],[-41.7101797888661,-3.02176949236815],[-41.7127599267292,-3.02349984913867],[-41.7130040009338,-3.02583719972694],[-41.6956586291424,-3.0399260040818],[-41.7715460736923,-3.12066550061229],[-41.8690789561289,-3.06028432865878],[-41.8644048161293,-3.04990422679857],[-41.8616528888697,-3.04712920135154],[-41.8531647321666,-3.04301979512741],[-41.8484410727972,-3.03903090615138],[-41.8333605122778,-3.03348705608272],[-41.8242736562042,-3.0244953248993],[-41.8197150521079,-3.01090138419147],[-41.817391561871,-2.99255868763328],[-41.8139893654168,-2.98524182594946],[-41.7968489212407,-2.96870413169029],[-41.7966113590269,-2.95981293212106],[-41.7999399333812,-2.94981239452637],[-41.805162115739,-2.94017503554943],[-41.8108201958953,-2.93347962338585],[-41.824670990174,-2.92243187652986],[-41.8357423172541,-2.9158513896299],[-41.8265311155185,-2.9111513617459]]]}},{"type":"Feature","properties":{"id":"33","concentrationId":"2211001","name":"Teresina/PI","state":"PI","municipality":"2211001","population2010":"814230","urbanPopulation2010":"767021","ruralPopulation2010":"47209"},"geometry":{"type":"Polygon","coordinates":[[[-42.8417777995058,-5.05584917769733],[-42.8415274273489,-5.03078747975832],[-42.8499713257161,-5.01163025103523],[-42.8595774611309,-4.98223867807247],[-42.8620320104688,-4.97006952069177],[-42.8600305341818,-4.95862360529509],[-42.8547794844856,-4.9434537627809],[-42.8546249647703,-4.93611390453305],[-42.8580843832876,-4.93273565342765],[-42.8679110108844,-4.92769992211367],[-42.8718052084436,-4.91652651748472],[-42.8815830819936,-4.90774550195328],[-42.8962816887489,-4.88790515989519],[-42.8158618328572,-4.78627783055737],[-42.7886123748611,-4.81761184021423],[-42.7313893404457,-4.82382306098544],[-42.7128648918012,-4.90564201556652],[-42.7067678102862,-4.90381707799572],[-42.7037885191248,-4.90561749555093],[-42.6340995663419,-4.91322877099094],[-42.6017953482766,-4.9042777314321],[-42.6012292897998,-5.09930975194345],[-42.5989726533652,-5.19431243047422],[-42.6015257773927,-5.25187983058965],[-42.6337243197215,-5.24682645727512],[-42.6601457521247,-5.27634705417319],[-42.6790979111396,-5.27270527113132],[-42.7488595723114,-5.33909413198854],[-42.7485360951646,-5.5405271113371],[-42.7545427759283,-5.53692793277782],[-42.7589911186451,-5.52942156865044],[-42.7714735449681,-5.52253077247712],[-42.7782638868688,-5.52263712989958],[-42.7901111382184,-5.51992782151172],[-42.7975801013405,-5.51524317383336],[-42.8114689324452,-5.50146900808819],[-42.8149157190851,-5.50563305891848],[-42.8166426638278,-5.51895729654195],[-42.8189830370375,-5.52410236203435],[-42.8466837667424,-5.53607511287612],[-42.8498102319566,-5.54080116444214],[-42.8474627505055,-5.54619745374947],[-42.8511662387309,-5.54687224925488],[-42.8611998030285,-5.55820392467132],[-42.8618236330542,-5.56123549432255],[-42.8559517192963,-5.57050790931254],[-42.9146476246881,-5.55604486737667],[-42.9417924330743,-5.58660252378741],[-42.9551062313674,-5.56732419145822],[-42.9593050949541,-5.56840309372774],[-42.9706665658093,-5.56170306714278],[-42.960415040022,-5.54846204468754],[-42.9457564674869,-5.53892468402688],[-42.943353574308,-5.5355188660028],[-42.9359940505849,-5.5359594330813],[-42.9314505092336,-5.53900340528287],[-42.9217048206209,-5.54061189312432],[-42.917081386197,-5.53898472906196],[-42.9100611146287,-5.54253592699138],[-42.904700978967,-5.53111469708557],[-42.9000097158756,-5.53045501288847],[-42.8926947562579,-5.5262402762677],[-42.8871616440945,-5.5276700859057],[-42.8824742552826,-5.52594687245017],[-42.8780619376083,-5.52834617733419],[-42.8733928059332,-5.52150095790285],[-42.8646273657603,-5.52784682157352],[-42.8573399343904,-5.52514802536103],[-42.8478245927307,-5.52527453479189],[-42.8515112843183,-5.50113088188466],[-42.8515261420178,-5.4900848266534],[-42.819894005304,-5.49821393802279],[-42.8109298932,-5.49656327827262],[-42.8098200884263,-5.4930565239394],[-42.8008946246871,-5.48152660736701],[-42.7857211057444,-5.45612216160845],[-42.7777960316615,-5.452615367705],[-42.7758443184605,-5.45009565169295],[-42.7689712407301,-5.43151917636885],[-42.7527496114054,-5.35491148277868],[-42.7587807609233,-5.34023161429752],[-42.7624553719178,-5.33708872206683],[-42.7760857675441,-5.33079352979752],[-42.785235992547,-5.32841108989982],[-42.7886366835361,-5.32557246529701],[-42.7996163777935,-5.32359941837843],[-42.8065923109863,-5.31797969160943],[-42.8070396103897,-5.31897992568298],[-42.813758384242,-5.31794042541026],[-42.8150379315552,-5.31418484935126],[-42.8130265042697,-5.30727495607432],[-42.8113646542553,-5.28476913139025],[-42.8126365042712,-5.27932342613514],[-42.8179162027705,-5.27133009350894],[-42.8225358807263,-5.26064788419245],[-42.8286673765981,-5.23993007181531],[-42.8273071007421,-5.23284012437222],[-42.8041390665646,-5.20720032783283],[-42.8000216959445,-5.19908498778193],[-42.7979461568896,-5.18321690263792],[-42.8013763303533,-5.17226315022419],[-42.8029715244162,-5.15025205069157],[-42.8112240614412,-5.1385520345487],[-42.8142895670099,-5.12697726788657],[-42.816807688524,-5.10004759532024],[-42.8186089271602,-5.09350866339406],[-42.8366640672928,-5.07333383109136],[-42.8417777995058,-5.05584917769733]]]}}]}