{"type":"FeatureCollection","features":[{"type":"Feature","properties":{"id":"49","concentrationId":"2408003","name":"Mossoró","state":"RN","municipality":"2408003","population2010":"259815","urbanPopulation2010":"237241","ruralPopulation2010":"22574"},"geometry":{"type":"Polygon","coordinates":[[[-37.4464459230409,-4.88096141343846],[-37.4272596174374,-4.91149407858881],[-37.4229556878547,-4.90943871942131],[-37.4214174793332,-4.90700327887817],[-37.4161639070386,-4.90780227435545],[-37.4115955156205,-4.90584044198279],[-37.4030534112858,-4.90994019578335],[-37.3943154337102,-4.91181822842844],[-37.3742366337136,-4.91015774358493],[-37.3650723460119,-4.90744042853288],[-37.3616537711046,-4.91693974067646],[-37.3452638795244,-4.93501059376382],[-37.3363737654369,-4.93704446093308],[-37.3275099924921,-4.94324444197736],[-37.3139172280976,-4.94277748159545],[-37.2087695394826,-4.99167318776734],[-37.1766621281546,-4.97020059508133],[-37.1659693140326,-5.00310576352013],[-37.1666943402715,-5.01504074643327],[-37.1649291590534,-5.01548105090973],[-37.1554439680646,-5.01073056566304],[-37.1447173457289,-5.00958468548482],[-37.1366490015502,-5.00505259610037],[-37.1322402676741,-5.01174148727978],[-37.1314785652835,-5.02977045714085],[-37.1381859285377,-5.03700450295543],[-37.1412794614779,-5.03808197710151],[-37.1433251700205,-5.04254552285755],[-37.1484988780207,-5.04372682733117],[-37.1531080159222,-5.04840435687549],[-37.1517017235557,-5.05719348609046],[-37.1480627733782,-5.06111936496666],[-37.1528095929883,-5.07648758623304],[-37.144713746642,-5.09011570207794],[-37.1429240310192,-5.09754710771279],[-37.1374078557879,-5.10535196042457],[-37.1180457884823,-5.12186566346952],[-37.1114051756083,-5.12465072445133],[-37.1112566885453,-5.13271000526248],[-37.1054099027448,-5.13269011046021],[-37.1054820319702,-5.14999062226934],[-37.111082805527,-5.15000562116245],[-37.1110910064447,-5.16655423409061],[-37.1564879100889,-5.16666258980661],[-37.1558389844815,-5.29389157453648],[-37.1261353377756,-5.29342447026307],[-37.1391926179449,-5.33557055583646],[-37.1429497489317,-5.37390390624023],[-37.1727593294794,-5.4904922995799],[-37.2946705914746,-5.47789877011212],[-37.2954005091261,-5.47399306213009],[-37.2984862944069,-5.46993678605378],[-37.2986786746811,-5.46635509211376],[-37.3020884308364,-5.46321419098206],[-37.300839327373,-5.45447970637333],[-37.298480181715,-5.45176037324256],[-37.3019953788836,-5.44343050441421],[-37.2982818272445,-5.43349041834807],[-37.2946502982726,-5.42957037427329],[-37.2932851372992,-5.4172293321679],[-37.2974228334969,-5.40773277554713],[-37.2969296335957,-5.40303692501402],[-37.2990156839267,-5.40031055918491],[-37.3024844481987,-5.39989609852609],[-37.3036150336069,-5.39772936461845],[-37.2975388397456,-5.39569638328141],[-37.29578498369,-5.39139694131575],[-37.4259809226814,-5.31121566297243],[-37.5830954339071,-5.27793226576142],[-37.4885791986711,-5.01689626904755],[-37.497258986513,-5.01104237050897],[-37.4959938490368,-5.00843723149302],[-37.4984268910881,-4.99651043151119],[-37.4954543340502,-4.97860409860022],[-37.4963969566542,-4.96467480429874],[-37.4915329589788,-4.94319241349906],[-37.4923717638458,-4.92454460664823],[-37.4906693130383,-4.91968969932016],[-37.4782909922355,-4.90874466763228],[-37.4740042900659,-4.90075357251931],[-37.4690250217873,-4.89932750406103],[-37.4659818895525,-4.88857696425544],[-37.4670813233444,-4.88592472774394],[-37.4464459230409,-4.88096141343846]]]}},{"type":"Feature","properties":{"id":"50","concentrationId":"2408102","name":"Natal/RN","state":"RN","municipality":"2408102","population2010":"803739","urbanPopulation2010":"803736","ruralPopulation2010":"3"},"geometry":{"type":"Polygon","coordinates":[[[-35.1761952706951,-5.8998176550607],[-35.2091740450461,-5.87518488697294],[-35.2123575875326,-5.87427830559926],[-35.2113406467534,-5.87228857355877],[-35.2179351666746,-5.86857324575862],[-35.2250628469728,-5.88109278440442],[-35.2290912044954,-5.87670636450707],[-35.2359143122956,-5.87273772376687],[-35.2428632487399,-5.86491100134158],[-35.2474163372941,-5.86377765861204],[-35.2540349986162,-5.86580933503273],[-35.2653059581035,-5.85637417332941],[-35.2788120728189,-5.85390278958205],[-35.2819994185383,-5.85064920879393],[-35.2830505974071,-5.83799497508801],[-35.2807069308801,-5.83654813408908],[-35.281515411507,-5.82204474406961],[-35.279664329745,-5.81891556919812],[-35.2744517602405,-5.8169925443704],[-35.2668901084917,-5.81156675640062],[-35.2612383451735,-5.81002874483068],[-35.2555439324065,-5.80502855022735],[-35.2522821920695,-5.79819668123179],[-35.2511044767901,-5.78796054734136],[-35.2481056361661,-5.78392998108371],[-35.2485467931999,-5.77961972836773],[-35.2518560015532,-5.77647769948619],[-35.2865742814778,-5.76349990049994],[-35.2873980119087,-5.76158762526864],[-35.2910666109353,-5.73094570777812],[-35.2859465160188,-5.72654097138866],[-35.2765002575808,-5.72165431529436],[-35.2655357267923,-5.70404890992922],[-35.2546827497091,-5.71009775630637],[-35.2498982745856,-5.71016211448995],[-35.2430485513495,-5.71682729054698],[-35.2371106561318,-5.7145994027402],[-35.2260651054202,-5.72725039439012],[-35.211522394343,-5.73629075281593],[-35.2042460444194,-5.74300705083471],[-35.2025953792733,-5.75027934121858],[-35.200617470194864,-5.752515133492413],[-35.19351770524458,-5.774689348872486],[-35.1918844887781,-5.78217775819696],[-35.19104344142008,-5.782417049625371],[-35.18247038066051,-5.809192710098679],[-35.1795838810912,-5.84630079514551],[-35.1772009852372,-5.85913997712823],[-35.1790664318703,-5.86823204477299],[-35.1742526712238,-5.87808947864648],[-35.1698182841864,-5.88273236900359],[-35.16432742577,-5.88381417698264],[-35.1634615045447,-5.88069737588313],[-35.1615714866348,-5.88022437295638],[-35.159075517901655,-5.882260301664721],[-35.15468974256529,-5.895958096957701],[-35.1551190847779,-5.89792422242488],[-35.1761952706951,-5.8998176550607]]]}},{"type":"Feature","properties":{"id":"51","concentrationId":"2408102","name":"Natal/RN","state":"RN","municipality":"2403251","population2010":"202456","urbanPopulation2010":"202456","ruralPopulation2010":"0"},"geometry":{"type":"Polygon","coordinates":[[[-35.123547701765,-5.98472213052185],[-35.1297866351451,-5.98212044400322],[-35.1514920650068,-5.9644339269841],[-35.1604537939074,-5.95449274554375],[-35.1756283470705,-5.94705491065554],[-35.1827161721136,-5.93777956837232],[-35.2040499400526,-5.93349425115873],[-35.2120436108239,-5.93475175518933],[-35.2402352165819,-5.94904100134107],[-35.2462399862863,-5.95416436529319],[-35.2506405785998,-5.96209747032197],[-35.2706790610898,-5.9612741212037],[-35.2812196928345,-5.9574088125666],[-35.2960850806619,-5.95823853248226],[-35.2824141319066,-5.84981716682875],[-35.2788120728189,-5.85390278958205],[-35.2653059581035,-5.85637417332941],[-35.2540349986162,-5.86580933503273],[-35.2474163372941,-5.86377765861204],[-35.2428632487399,-5.86491100134158],[-35.2359143122956,-5.87273772376687],[-35.2290912044954,-5.87670636450707],[-35.2250628469728,-5.88109278440442],[-35.2179351666746,-5.86857324575862],[-35.2113406467534,-5.87228857355877],[-35.2123575875326,-5.87427830559926],[-35.2091740450461,-5.87518488697294],[-35.1761952706951,-5.8998176550607],[-35.1551190847779,-5.89792422242488],[-35.1574862550866,-5.92345948716554],[-35.1541823446394,-5.92820118693516],[-35.1543040184157,-5.94011987683081],[-35.1518626180653,-5.95276912739326],[-35.1451139624394,-5.96437365172262],[-35.1385183588351,-5.96708589549764],[-35.133568877002,-5.96555310988805],[-35.1288960662005,-5.96776507160076],[-35.12237074570656,-5.978225511638059],[-35.122370745706554,-5.978225511638078],[-35.1217167801053,-5.98294567360393],[-35.123547701765,-5.98472213052185]]]}},{"type":"Feature","properties":{"id":"52","concentrationId":"2408102","name":"Natal/RN","state":"RN","municipality":"2412005","population2010":"87668","urbanPopulation2010":"62193","ruralPopulation2010":"25475"},"geometry":{"type":"Polygon","coordinates":[[[-35.2865742814778,-5.76349990049994],[-35.2515162907442,-5.77659596213392],[-35.2485467931999,-5.77961972836773],[-35.2481056361661,-5.78392998108371],[-35.2511044767901,-5.78796054734136],[-35.2522821920695,-5.79819668123179],[-35.2555439324065,-5.80502855022735],[-35.2612383451735,-5.81002874483068],[-35.2668901084917,-5.81156675640062],[-35.2744517602405,-5.8169925443704],[-35.279664329745,-5.81891556919812],[-35.281515411507,-5.82204474406961],[-35.2819698227491,-5.82947252183936],[-35.2887686191764,-5.83120862887506],[-35.298545966623,-5.83881319267466],[-35.3045096831753,-5.8395290197484],[-35.3085003492117,-5.83668222300616],[-35.3092419418621,-5.83336757105649],[-35.3986133571207,-5.84520882033075],[-35.3987011471402,-5.84908850912734],[-35.4302198613575,-5.84456744722985],[-35.4715851132623,-5.83482481721149],[-35.446864189131,-5.73335838378233],[-35.4404955699146,-5.73496689320752],[-35.4321616739221,-5.73270592833586],[-35.409959042176,-5.73780161115536],[-35.3844840733813,-5.73496195592946],[-35.3708722469566,-5.72939898357618],[-35.361034659322,-5.72851145434009],[-35.3463312690728,-5.73090053932839],[-35.3429079070742,-5.7330478146049],[-35.3398250014226,-5.73822865692693],[-35.3323554015805,-5.73496384990171],[-35.3217184560419,-5.73434209281328],[-35.3132127859413,-5.7379697762841],[-35.3042745896006,-5.73087235727343],[-35.2869904526472,-5.72194137079759],[-35.2851557079695,-5.71015990395637],[-35.2806316630208,-5.70523081245199],[-35.2772114432535,-5.70441384492295],[-35.2760148035403,-5.70091241187828],[-35.2694394931381,-5.70184749276752],[-35.2655357267923,-5.70404890992922],[-35.2765002575808,-5.72165431529436],[-35.2859465160188,-5.72654097138866],[-35.2910666109353,-5.73094570777812],[-35.2865742814778,-5.76349990049994]]]}},{"type":"Feature","properties":{"id":"53","concentrationId":"2408102","name":"Natal/RN","state":"RN","municipality":"2403608","population2010":"24569","urbanPopulation2010":"16221","ruralPopulation2010":"8348"},"geometry":{"type":"Polygon","coordinates":[[[-35.2149838736891,-5.679692517419556],[-35.20396363569428,-5.741171377041723],[-35.2042460444194,-5.74300705083471],[-35.211522394343,-5.73629075281593],[-35.2260651054202,-5.72725039439012],[-35.2371106561318,-5.7145994027402],[-35.2430485513495,-5.71682729054698],[-35.2498982745856,-5.71016211448995],[-35.2546827497091,-5.71009775630637],[-35.2694394931381,-5.70184749276752],[-35.2760148035403,-5.70091241187828],[-35.2772114432535,-5.70441384492295],[-35.2806316630208,-5.70523081245199],[-35.2851557079695,-5.71015990395637],[-35.2869904526472,-5.72194137079759],[-35.3042745896006,-5.73087235727343],[-35.3132127859413,-5.7379697762841],[-35.3217184560419,-5.73434209281328],[-35.3323554015805,-5.73496384990171],[-35.3398250014226,-5.73822865692693],[-35.3429079070742,-5.7330478146049],[-35.3463312690728,-5.73090053932839],[-35.361034659322,-5.72851145434009],[-35.2848113674506,-5.62429158189093],[-35.2276991196186,-5.61225072898793],[-35.21778908392991,-5.664043025395291],[-35.21778908392988,-5.664043025395441],[-35.2178063154091,-5.67083218036078],[-35.2149838736891,-5.679692517419556]]]}},{"type":"Feature","properties":{"id":"54","concentrationId":"2408102","name":"Natal/RN","state":"RN","municipality":"2407104","population2010":"69467","urbanPopulation2010":"48540","ruralPopulation2010":"20927"},"geometry":{"type":"Polygon","coordinates":[[[-35.4302198613575,-5.84456744722985],[-35.3987011471402,-5.84908850912734],[-35.3986133571207,-5.84520882033075],[-35.3092419418621,-5.83336757105649],[-35.3085003492117,-5.83668222300616],[-35.3045096831753,-5.8395290197484],[-35.298545966623,-5.83881319267466],[-35.2887686191764,-5.83120862887506],[-35.2819698227491,-5.82947252183936],[-35.2807069308801,-5.83654813408908],[-35.2830505974071,-5.83799497508801],[-35.2824141319066,-5.84981716682875],[-35.2960850806619,-5.95823853248226],[-35.3052160035157,-5.95884585095519],[-35.3153587041409,-5.96769833560967],[-35.3297734129126,-5.97422575441499],[-35.3438079413833,-5.97348122008219],[-35.3734400281347,-5.98737635453506],[-35.5467348061663,-6.05395500471962],[-35.5491633192318,-6.04997930430141],[-35.5577291872522,-6.04677659906076],[-35.5374012049016,-5.995684376133],[-35.5556165061968,-5.94849551035947],[-35.5722266921081,-5.93230810203721],[-35.5290102118518,-5.88180856291479],[-35.4875012042171,-5.82968793375108],[-35.4715851132623,-5.83482481721149],[-35.4302198613575,-5.84456744722985]]]}}]}